ID ,name,city_code,city,zip_code,street,house_NO,latitude ,longtitude
1,Alza Box,535826,Adamov,37371,Dělnická,45,49.000646,14.540222
2,Alza Box,581291,Adamov,67904,Osvobození,440,49.300411,16.656003
3,Alza Box,581291,Adamov,67904,Nádražní,42,49.300484,16.651548
4,Alza Box,554499,Aš,35201,Dobrovského,2591,50.224082,12.198183
5,Alza Box,554499,Aš,35201,Hlavní,1574,50.217371,12.194838
6,Alza Box,554499,Aš,35201,Selbská,2732,50.217709,12.176575
7,Alza Box,554499,Aš,35201,Chebská,2934,50.214179,12.199339
8,Alza Box,554499,Aš,35201,Rybniční,2742,50.220862,12.190835
9,Alza Box,538043,Babice,25101,Ke Hřišti,127,50.011213,14.718402
10,Alza Box,592013,Babice,68703,Babice,129,49.122828,17.475221
11,Alza Box,535427,Bakov nad Jizerou,29401,Na Výsluní,980,50.474932,14.940203
12,Alza Box,535427,Bakov nad Jizerou,29401,Husova,659,50.479109,14.939124
13,Alza Box,538051,Bašť,25085,Hlavní,302,50.204088,14.468536
14,Alza Box,538051,Bašť,25085,Obecní,126,50.204534,14.473789
15,Alza Box,586862,Batelov,58851,Švábovská,572,49.313999,15.393255
16,Alza Box,550809,Bavorov,38773,Náměstí Míru,9,49.121702,14.079513
17,Alza Box,552054,Bechyně,39165,Sídl. Obránců míru,818,49.299086,14.467457
18,Alza Box,552054,Bechyně,39165,U Vodojemu,992,49.302851,14.475823
19,Alza Box,535443,Bělá pod Bezdězem,29421,Máchova,503,50.505987,14.795764
20,Alza Box,535443,Bělá pod Bezdězem,29421,Tyršova,1299,50.509433,14.784858
21,Alza Box,535451,Benátky nad Jizerou,29471,Tovární,111,50.287108,14.827464
22,Alza Box,535451,Benátky nad Jizerou,29471,Pražská,676,50.283903,14.82667
23,Alza Box,535451,Benátky nad Jizerou,29471,5. května,25,50.287065,14.828812
24,Alza Box,529303,Benešov,25601,Křižíkova,1529,49.772295,14.679369
25,Alza Box,529303,Benešov,25601,Červené Vršky,2217,49.793685,14.682444
26,Alza Box,529303,Benešov,25601,Čechova,2126,49.787045,14.694953
27,Alza Box,529303,Benešov,25601,Červené Vršky,1002,49.793013,14.679947
28,Alza Box,529303,Benešov,25601,Bezručova,1064,49.7818,14.693165
29,Alza Box,529303,Benešov,25601,Nová pražská,1903,49.784161,14.687534
30,Alza Box,529303,Benešov,25601,Nádražní,2105,49.777409,14.684921
31,Alza Box,562351,Benešov nad Ploučnicí,40722,Dvořákova,694,50.740472,14.311056
32,Alza Box,531057,Beroun,26601,Wagnerovo náměstí,970,49.96545,14.071017
33,Alza Box,531057,Beroun,26601,Švermova,1368,49.958095,14.05158
34,Alza Box,531057,Beroun,26601,Škroupova,854,49.965629,14.083627
35,Alza Box,531057,Beroun,26601,Obchodní,250,49.956793,14.060374
36,Alza Box,531057,Beroun,26601,Konečná,689,49.95229,14.044511
37,Alza Box,531057,Beroun,26601,Drašarova,1451,49.96779,14.064747
38,Alza Box,531057,Beroun,26601,,,49.956792,14.062212
39,Alza Box,567451,Bílina,41801,Teplická,832,50.556492,13.777332
40,Alza Box,567451,Bílina,41801,Aléská,269,50.54218,13.776297
41,Alza Box,567451,Bílina,41801,Nábřeží,469,50.5537,13.772638
42,Alza Box,599247,Bílovec,74301,Dukelská,232,49.754306,18.011917
43,Alza Box,582824,Bílovice nad Svitavou,66401,Fügnerovo nábř.,350,49.245997,16.675194
44,Alza Box,582824,Bílovice nad Svitavou,66401,Obřanská,489,49.243478,16.661785
45,Alza Box,581283,Blansko,67801,L. Janáčka,1927,49.359338,16.654417
46,Alza Box,581283,Blansko,67801,Okružní,2211,49.372913,16.650283
47,Alza Box,581283,Blansko,67801,Rožmitálova,1812,49.362032,16.643252
48,Alza Box,581283,Blansko,67801,Fügnerova,2,49.356537,16.645374
49,Alza Box,581283,Blansko,67801,Na Řadech,2347,49.370291,16.642528
50,Alza Box,550850,Blatná,38801,Vorlíčkova,1271,49.421436,13.882973
51,Alza Box,550850,Blatná,38801,B. Němcové,29,49.428577,13.882687
52,Alza Box,557587,Blovice,33601,Tyršova,270,49.579218,13.539138
53,Alza Box,557587,Blovice,33601,Setecká,856,49.584463,13.536277
54,Alza Box,599051,Bohumín,73581,Okružní,1164,49.902173,18.350764
55,Alza Box,599051,Bohumín,73581,9. května,1199,49.8998,18.3542
56,Alza Box,500852,Bohuňovice,78314,Bohuňovice,655,49.667632,17.304571
57,Alza Box,555029,Bochov,36471,náměstí Míru,337,50.150903,13.045004
58,Alza Box,592048,Bojkovice,68771,Mánesova,954,49.037032,17.810348
59,Alza Box,592048,Bojkovice,68771,Palackého,173,49.038378,17.815204
60,Alza Box,506214,Bolatice,74723,Sokolovská,1027,49.952853,18.079055
61,Alza Box,584037,Tvarožná,66405,,,49.184367,16.758946
62,Alza Box,577839,Borová,56982,,,49.746354,16.154598
63,Alza Box,544281,Borovany,37312,Žižkovo náměstí,57,48.901045,14.641446
64,Alza Box,544281,Borovany,37312,Na Výhony,671,48.903792,14.639145
65,Alza Box,544299,Boršov nad Vltavou,37382,Poříčská,282,48.925692,14.445682
66,Alza Box,544299,Boršov nad Vltavou,37382,Obecní,52,48.922385,14.433211
67,Alza Box,538086,Bořanovice,25065,Mělnická,105,50.172754,14.484186
68,Alza Box,581372,Boskovice,68001,Hybešova,46,49.487345,16.674267
69,Alza Box,581372,Boskovice,68001,Chrudichromská,2454,49.492005,16.648566
70,Alza Box,581372,Boskovice,68001,Sokolská,1636,49.491043,16.659602
71,Alza Box,581372,Boskovice,68001,Rovná,2460,49.490923,16.641214
72,Alza Box,570788,Bradlec,29306,,,50.442856,14.899646
73,Alza Box,538094,Brandýs nad Labem-Stará Boleslav,25001,,,50.196479,14.687264
74,Alza Box,538094,Brandýs nad Labem-Stará Boleslav,25001,P. Jilemnického,1868,50.187966,14.656126
75,Alza Box,538094,Brandýs nad Labem-Stará Boleslav,25001,Boleslavská,1901,50.204121,14.688541
76,Alza Box,538094,Brandýs nad Labem-Stará Boleslav,25001,Zápská,2600,50.178734,14.668331
77,Alza Box,538094,Brandýs nad Labem-Stará Boleslav,25001,Kostelecká,1529,50.18977,14.649561
78,Alza Box,538094,Brandýs nad Labem-Stará Boleslav,25001,Masarykovo náměstí,1766,50.186389,14.659722
79,Alza Box,538094,Brandýs nad Labem-Stará Boleslav,25001,Boleslavská,1801,50.201197,14.685265
80,Alza Box,538094,Brandýs nad Labem-Stará Boleslav,25001,Pražská,1006,50.178024,14.653498
81,Alza Box,538094,Brandýs nad Labem-Stará Boleslav,25001,Kralupská,1887,50.183548,14.657392
82,Alza Box,532118,Brandýsek,27341,Slánská,336,50.188998,14.1608
83,Alza Box,532126,Braškov,27351,,,50.101099,14.092274
84,Alza Box,538108,Brázdim,25063,Starý Brázdim,34,50.183803,14.591091
85,Alza Box,582786,Brno,60200,Náměstí Svobody,85,49.19375,16.608444
86,Alza Box,582786,Brno,60200,Ve Vaňkovce,462,49.186876,16.615067
87,Alza Box,582786,Brno,60200,Cejl,42,49.201092,16.625647
88,Alza Box,582786,Brno,60200,Bratislavská,855,49.19942,16.6199
89,Alza Box,582786,Brno,61200,Cimburkova,4,49.217268,16.607714
90,Alza Box,582786,Brno,63900,Vídeňská,995,49.17939,16.595574
91,Alza Box,582786,Brno,62100,Žitná,1553,49.238658,16.58565
92,Alza Box,582786,Brno,60200,Přízova,280,49.189809,16.615221
93,Alza Box,582786,Brno,61800,Spáčilova,1109,49.187619,16.640943
94,Alza Box,582786,Brno,61200,Purkyňova,2640,49.224703,16.58282
95,Alza Box,582786,Brno,62800,Věstonická,4307,49.203159,16.655125
96,Alza Box,582786,Brno,61200,Chaloupkova,956,49.223776,16.599208
97,Alza Box,582786,Brno,61200,Kolejní,2905,49.23123,16.570702
98,Alza Box,582786,Brno,62800,Žarošická,13,49.210524,16.662751
99,Alza Box,582786,Brno,60200,Křenová,186,49.189415,16.624761
100,Alza Box,582786,Brno,62800,Věstonická,7623,49.201536,16.658019
101,Alza Box,582786,Brno,61400,Netušilova,15,49.212199,16.633329
102,Alza Box,582786,Brno,61700,Svatopetrská,35,49.179866,16.621958
103,Alza Box,582786,Brno,61600,Bráfova,2117,49.209964,16.573603
104,Alza Box,582786,Brno,61300,Černopolní,214,49.203699,16.618472
105,Alza Box,582786,Brno,62800,Sedláčkova,2557,49.202266,16.668071
106,Alza Box,582786,Brno,60200,náměstíMíru,376,49.202122,16.580561
107,Alza Box,582786,Brno,62400,,,49.217907,16.553833
108,Alza Box,582786,Brno,62500,,,49.164883,16.57637
109,Alza Box,582786,Brno,62500,Jemelkova,749,49.168361,16.557375
110,Alza Box,582786,Brno,60200,,,49.208673,16.595534
111,Alza Box,582786,Brno,62000,Sokolnická,73,49.144775,16.665404
112,Alza Box,582786,Brno,62800,Mikulovská,4222,49.206108,16.662478
113,Alza Box,582786,Brno,64300,Chrlické náměstí,737,49.136136,16.653827
114,Alza Box,582786,Brno,60300,Křížová,864,49.188609,16.594741
115,Alza Box,582786,Brno,62800,Karolíny Světlé,2410,49.202279,16.688898
116,Alza Box,582786,Brno,61400,,,49.222296,16.642801
117,Alza Box,582786,Brno,63900,Vojtova,1020,49.183028,16.596795
118,Alza Box,582786,Brno,62700,Tilhonova,1218,49.179487,16.681699
119,Alza Box,582786,Brno,60200,Čápkova,24,49.201188,16.594174
120,Alza Box,582786,Brno,61600,Kroftova,2578,49.216435,16.567511
121,Alza Box,582786,Brno,60200,Bezručova,90,49.187351,16.601535
122,Alza Box,582786,Brno,61800,Olomoucká,1182,49.188864,16.640739
123,Alza Box,582786,Brno,63800,Slavíčkova,827,49.225876,16.621689
124,Alza Box,582786,Brno,63800,Loosova,817,49.231954,16.620436
125,Alza Box,582786,Brno,61700,Komárovská,263,49.180504,16.61919
126,Alza Box,582786,Brno,60200,Orlí,542,49.19451,16.613456
127,Alza Box,582786,Brno,63500,Lýskova,1031,49.218819,16.504998
128,Alza Box,582786,Brno,60200,Vodní,264,49.18978,16.604061
129,Alza Box,582786,Brno,62800,Holzova,2846,49.199879,16.695104
130,Alza Box,582786,Brno,62000,Tuřanská,779,49.150819,16.660388
131,Alza Box,582786,Brno,62500,U Pošty,402,49.168365,16.565397
132,Alza Box,582786,Brno,64200,Pražská,675,49.174386,16.537852
133,Alza Box,582786,Brno,61900,Zelná,67,49.144917,16.619808
134,Alza Box,582786,Brno,62800,Horníkova,2485,49.213137,16.681669
135,Alza Box,582786,Brno,62400,Absolonova,836,49.218804,16.557033
136,Alza Box,582786,Brno,61200,Dobrovského,2199,49.219396,16.592995
137,Alza Box,582786,Brno,61400,Nováčkova,418,49.208464,16.629653
138,Alza Box,582786,Brno,63500,Foltýnova,998,49.217042,16.508991
139,Alza Box,582786,Brno,61400,Vranovská,699,49.206481,16.626239
140,Alza Box,582786,Brno,61700,Schwaigrova,664,49.177506,16.62371
141,Alza Box,582786,Brno,61800,Wainerovo náměstí,253,49.177057,16.641049
142,Alza Box,582786,Brno,61500,Lazaretní,1,49.203847,16.633256
143,Alza Box,582786,Brno,62500,Klobásova,735,49.164645,16.561363
144,Alza Box,582786,Brno,61500,Táborská,4356,49.192649,16.635328
145,Alza Box,582786,Brno,60200,Špitálka,824,49.195642,16.623762
146,Alza Box,582786,Brno,60300,Václavská,237,49.189018,16.596912
147,Alza Box,582786,Brno,61600,Technická,2896,49.224949,16.576986
148,Alza Box,582786,Brno,60200,Kabátníkova,575,49.210802,16.600466
149,Alza Box,582786,Brno,61900,Košuličova,2,49.165256,16.612527
150,Alza Box,582786,Brno,63900,Vídeňská,815,49.175861,16.597295
151,Alza Box,582786,Brno,61400,Karlova,933,49.213176,16.645131
152,Alza Box,582786,Brno,62800,náměstíKarla IV.,271,49.206632,16.694829
153,Alza Box,582786,Brno,61500,Bubeníčkova,4405,49.203256,16.637028
154,Alza Box,582786,Brno,63900,Heršpická,813,49.176761,16.60442
155,Alza Box,582786,Brno,63500,Kubíčkova,1115,49.221593,16.518146
156,Alza Box,582786,Brno,62500,Kamenice,745,49.17428,16.582314
157,Alza Box,582786,Brno,61500,,,49.201751,16.64144
158,Alza Box,582786,Brno,63900,Holandská,1022,49.18225,16.606389
159,Alza Box,582786,Brno,61800,Olomoucká,3419,49.190581,16.633316
160,Alza Box,582786,Brno,62100,Palackého,186,49.236773,16.586769
161,Alza Box,582786,Brno,60200,Lidická,965,49.202681,16.60692
162,Alza Box,582786,Brno,62100,Gromešova,769,49.250863,16.589275
163,Alza Box,582786,Brno,62300,Libušina tř.,577,49.194281,16.53948
164,Alza Box,582786,Brno,60200,Běhounská,22,49.197329,16.609157
165,Alza Box,582786,Brno,60200,Sportovní,559,49.212407,16.607762
166,Alza Box,582786,Brno,60200,Kounicova,966,49.210258,16.593102
167,Alza Box,582786,Brno,62800,Josefy Faimonové,2552,49.203182,16.678877
168,Alza Box,582786,Brno,60200,Cejl,875,49.199817,16.626387
169,Alza Box,582786,Brno,61200,Palackého tř.,1832,49.231835,16.590096
170,Alza Box,582786,Brno,63600,Juliánovské náměstí,3878,49.191361,16.65429
171,Alza Box,582786,Brno,61300,Merhautova,224,49.216806,16.628406
172,Alza Box,582786,Brno,61500,Viniční,4049,49.19809,16.656418
173,Alza Box,582786,Brno,60300,Výstaviště,405,49.188615,16.585468
174,Alza Box,582786,Brno,60200,Pekařská,664,49.190935,16.597682
175,Alza Box,582786,Brno,62800,Zikova,2503,49.208925,16.674197
176,Alza Box,582786,Brno,62000,Kaštanová,579,49.160074,16.641114
177,Alza Box,582786,Brno,61700,Hněvkovského,30,49.168957,16.626957
178,Alza Box,582786,Brno,61600,náměstí Svornosti,2573,49.215463,16.581187
179,Alza Box,582786,Brno,62500,Švermova,654,49.168568,16.572087
180,Alza Box,584371,Březí,69181,Hlavní,28,48.818934,16.563437
181,Alza Box,582786,Brno,61700,Hněvkovského,701,49.17208,16.624652
182,Alza Box,582786,Brno,60300,Křídlovická,911,49.185611,16.602972
183,Alza Box,582786,Brno,61300,náměstíSNP,1140,49.218376,16.621851
184,Alza Box,582786,Brno,62500,Netroufalky,770,49.175905,16.566507
185,Alza Box,582786,Brno,61200,Purkyňova,107,49.230878,16.576484
186,Alza Box,582786,Brno,62500,Jihlavská,716,49.172752,16.555033
187,Alza Box,582786,Brno,63700,Veslařská,549,49.208038,16.555156
188,Alza Box,582786,Brno,60200,Dornych,451,49.186515,16.621294
189,Alza Box,582786,Brno,63500,náměstí,28,49.225306,16.530389
190,Alza Box,582786,Brno,63800,Loosova,262,49.232266,16.617894
191,Alza Box,582786,Brno,62300,Žebětínská,958,49.195789,16.532641
192,Alza Box,582786,Brno,62800,Trnkova,3071,49.200711,16.668378
193,Alza Box,582786,Brno,62700,Tuřanka,1222,49.167943,16.68014
194,Alza Box,582786,Brno,62100,Hradecká,408,49.262051,16.578306
195,Alza Box,582786,Brno,61600,Stránského,3033,49.212611,16.568361
196,Alza Box,582786,Brno,60200,Příkop,843,49.200056,16.613139
197,Alza Box,582786,Brno,61900,Vídeňská,132,49.15492,16.597842
198,Alza Box,582786,Brno,63900,Vídeňská,815,49.176801,16.596519
199,Alza Box,582786,Brno,61900,Skandinávská,2,49.157917,16.62775
200,Alza Box,582786,Brno,62100,Vránova,1500,49.247311,16.580888
201,Alza Box,582786,Brno,63800,Halasovo náměstí,826,49.223524,16.624908
202,Alza Box,582786,Brno,62800,Žarošická,4292,49.206399,16.664096
203,Alza Box,582786,Brno,62700,Řípská,27,49.181913,16.667495
204,Alza Box,582786,Brno,61200,Sportovní,594,49.215913,16.604284
205,Alza Box,582786,Brno,62800,Bednaříkova,2893,49.209123,16.686641
206,Alza Box,538728,Říčany,25101,Na Návsi,392,49.964749,14.577042
207,Alza Box,573922,Broumov,55001,Masarykova,235,50.589487,16.326708
208,Alza Box,573922,Broumov,55001,U Dolní brány,313,50.583057,16.333416
209,Alza Box,573922,Broumov,55001,Větrná,228,50.579767,16.328105
210,Alza Box,586943,Brtnice,58832,,,49.30962,15.668815
211,Alza Box,585114,Brumov-Bylnice,76331,Družba,1224,49.084469,18.022629
212,Alza Box,597180,Bruntál,79201,Cihelní,1345,49.985378,17.456756
213,Alza Box,597180,Bruntál,79201,Nádražní,1089,49.994599,17.472558
214,Alza Box,597180,Bruntál,79201,tř. Práce,1960,49.981618,17.462931
215,Alza Box,597180,Bruntál,79201,Ruská,1919,49.986997,17.462131
216,Alza Box,597180,Bruntál,79201,tř. Práce,2024,49.980778,17.463944
217,Alza Box,598038,Brušperk,73944,Nábřeží,512,49.699674,18.220808
218,Alza Box,559725,Břasy,33824,Břasy,229,49.832899,13.585553
219,Alza Box,584291,Břeclav,69003,Lidická,3411,48.770344,16.890659
220,Alza Box,584291,Břeclav,69002,tř.,1,48.75768,16.876972
221,Alza Box,584291,Břeclav,69002,Lidická,3341,48.780212,16.902054
222,Alza Box,584291,Břeclav,69141,Na Valtické,718,48.757819,16.855574
223,Alza Box,584291,Břeclav,69002,J. Palacha,3197,48.756439,16.888934
224,Alza Box,538248,Hrusice,25166,Ke Hřišti,142,49.910374,14.737589
225,Alza Box,592943,Bučovice,68501,Legionářská,180,49.149469,17.007133
226,Alza Box,592943,Bučovice,68501,Nádražní,248,49.14737,17.002657
227,Alza Box,564656,Budyně nad Ohří,41118,Pražská,340,50.404865,14.130089
228,Alza Box,532169,Buštěhrad,27343,Kladenská,728,50.153965,14.19115
229,Alza Box,532169,Buštěhrad,27343,Lidická,653,50.154515,14.1961
230,Alza Box,529451,Bystřice,25751,Karla Nového,447,49.731726,14.66713
231,Alza Box,595411,Bystřice nad Pernštejnem,59301,Novoměstská,849,49.527893,16.249123
232,Alza Box,595411,Bystřice nad Pernštejnem,59301,Zahradní,164,49.526396,16.260157
233,Alza Box,588393,Bystřice pod Hostýnem,76861,Dolní,1404,49.400111,17.670055
234,Alza Box,534722,Byšice,27732,Mladoboleslavská,70,50.311729,14.607638
235,Alza Box,586081,Bzenec,69681,J. Wolkra,1583,48.972579,17.289307
236,Alza Box,586081,Bzenec,69681,náměstíSvobody,67,48.973946,17.265622
237,Alza Box,561479,Cvikov,47154,Komenského,105,50.777881,14.63055
238,Alza Box,598291,Čakovičky,25063,Kojetická,32,50.229356,14.531145
239,Alza Box,534005,Čáslav,28601,Klimenta Čermáka,1599,49.907589,15.393858
240,Alza Box,534005,Čáslav,28601,Jeníkovská,1983,49.902419,15.403106
241,Alza Box,586102,Čejkovice,69615,Templářská,3,48.904605,16.945273
242,Alza Box,538132,Čelákovice,25088,V Prokopě,1551,50.161119,14.733853
243,Alza Box,538132,Čelákovice,25088,Sokolovská,1704,50.157659,14.742592
244,Alza Box,538132,Čelákovice,25088,Toušeňská,2032,50.155717,14.743903
245,Alza Box,538132,Čelákovice,25088,náměstí,5,50.162694,14.749194
246,Alza Box,529516,Čerčany,25722,,,49.858235,14.699422
247,Alza Box,529516,Čerčany,25722,Nádražní,595,49.849056,14.701694
248,Alza Box,581496,Černá Hora,67921,Na ulici,105,49.414586,16.582289
249,Alza Box,569917,Černilov,50343,Černilov,31,50.262694,15.925861
250,Alza Box,539139,Černošice,25228,Nádražní,505,49.946284,14.33075
251,Alza Box,539139,Černošice,25228,Dr. Janského,1226,49.948108,14.329932
252,Alza Box,539139,Černošice,25228,Karlštejnská,121,49.959144,14.322225
253,Alza Box,539139,Černošice,25228,Dobřichovická,1016,49.94978,14.314005
254,Alza Box,533262,Červené Pečky,28121,V uličce,6,49.979357,15.209529
255,Alza Box,573965,Červený Kostelec,54941,Koubovka,387,50.473549,16.096579
256,Alza Box,573965,Červený Kostelec,54941,5. května,2,50.476155,16.08901
257,Alza Box,532215,Červený Újezd,27351,Unhošťská,196,50.068564,14.165651
258,Alza Box,561380,Česká Lípa,47001,Partyzánská,2992,50.679126,14.546765
259,Alza Box,561380,Česká Lípa,47001,Okružní,2338,50.696312,14.532401
260,Alza Box,561380,Česká Lípa,47001,Roháče z Dubé,2455,50.688391,14.535951
261,Alza Box,561380,Česká Lípa,47006,Žitavská,3021,50.692854,14.543068
262,Alza Box,561380,Česká Lípa,47006,28. října,2850,50.691588,14.547698
263,Alza Box,561380,Česká Lípa,47001,Antonína Sovy,3009,50.690273,14.526047
264,Alza Box,561380,Česká Lípa,47001,Havířská,2014,50.695589,14.539229
265,Alza Box,561380,Česká Lípa,47001,Erbenova,2906,50.683987,14.537585
266,Alza Box,561380,Česká Lípa,47001,Děčínská,3271,50.689139,14.517722
267,Alza Box,561380,Česká Lípa,47001,Mimoňská,3090,50.680389,14.540602
268,Alza Box,573990,Česká Skalice,55203,Maloskalická,168,50.396494,16.035162
269,Alza Box,573990,Česká Skalice,55203,ul.,28,50.392882,16.047464
270,Alza Box,580031,Česká Třebová,56002,Dr. E. Beneše,642,49.9125,16.438778
271,Alza Box,580031,Česká Třebová,56002,Tkalcovská,350,49.902955,16.439964
272,Alza Box,580031,Česká Třebová,56002,Dr. E. Beneše,692,49.912438,16.441165
273,Alza Box,544256,České Budějovice,37001,náměstíPřemysla Otakara II.,123,48.973567,14.473808
274,Alza Box,544256,České Budějovice,37004,Pražská tř.,1247,48.983361,14.472725
275,Alza Box,544256,České Budějovice,37005,M. Horákové,1498,48.982674,14.442442
276,Alza Box,544256,České Budějovice,37004,Resslova,1552,48.980314,14.467414
277,Alza Box,544256,České Budějovice,37005,M. Horákové,1583,48.983662,14.439615
278,Alza Box,544256,České Budějovice,37004,Pražská tř.,1271,48.993091,14.476544
279,Alza Box,544256,České Budějovice,37004,Průběžná,2551,48.991811,14.467646
280,Alza Box,544256,České Budějovice,37006,Brigádnická,1723,48.96377,14.51131
281,Alza Box,544256,České Budějovice,37005,Dubenská,512,48.980231,14.436261
282,Alza Box,544256,České Budějovice,37005,Studentská,797,48.978337,14.453367
283,Alza Box,544256,České Budějovice,37011,Písecká,1459,48.995145,14.453615
284,Alza Box,544256,České Budějovice,37011,Dlouhá,889,48.989609,14.456316
285,Alza Box,544256,České Budějovice,37001,Františka Antonína Gerstnera,5,48.970193,14.472687
286,Alza Box,544256,České Budějovice,37005,Husova tř.,523,48.978617,14.461203
287,Alza Box,544256,České Budějovice,37005,M. Chlajna,1448,48.985855,14.435239
288,Alza Box,544256,České Budějovice,37001,Okružní,517,48.996022,14.494937
289,Alza Box,544256,České Budějovice,37001,Nová,1940,48.977297,14.486481
290,Alza Box,544256,České Budějovice,37001,M. Vydrové,22,48.966122,14.481395
291,Alza Box,544256,České Budějovice,37007,Bohumila Böhma,2321,48.949511,14.467557
292,Alza Box,544256,České Budějovice,37004,Rudolfovská tř.,202,48.978683,14.495148
293,Alza Box,544256,České Budějovice,37004,Pekárenská,2783,48.982765,14.480701
294,Alza Box,544256,České Budějovice,37004,Kněžskodvorská,2296,48.988217,14.472994
295,Alza Box,544256,České Budějovice,37005,,,48.990152,14.44876
296,Alza Box,544256,České Budějovice,37006,Dobrovodská,50,48.971481,14.497213
297,Alza Box,544256,České Budějovice,37001,Rudolfovská tř.,640,48.985575,14.516911
298,Alza Box,544256,České Budějovice,37011,Na Sádkách,1444,48.973952,14.463697
299,Alza Box,544256,České Budějovice,37006,Suchovrbenské náměstí,708,48.970864,14.503656
300,Alza Box,544256,České Budějovice,37004,Pražská tř.,2176,48.983921,14.470163
301,Alza Box,544256,České Budějovice,37001,Senovážné náměstí,248,48.971903,14.477847
302,Alza Box,544256,České Budějovice,37011,J. Boreckého,1590,48.985991,14.458808
303,Alza Box,544256,České Budějovice,37011,Labská,1079,48.995346,14.452402
304,Alza Box,544256,České Budějovice,37005,K. Štěcha,1264,48.986644,14.438455
305,Alza Box,544256,České Budějovice,37004,Suchomelská,2251,48.99418,14.470571
306,Alza Box,544256,České Budějovice,37005,Antonína Barcala,1392,48.983382,14.434752
307,Alza Box,544256,České Budějovice,37001,Nádražní,1759,48.972848,14.486421
308,Alza Box,544256,České Budějovice,37011,České Vrbné,2360,48.999775,14.452258
309,Alza Box,544256,České Budějovice,37001,,,48.996889,14.489639
310,Alza Box,576212,České Meziříčí,51771,B. Němcové,61,50.287114,16.044728
311,Alza Box,546089,České Velenice,37810,Revoluční,228,48.76819,14.964185
312,Alza Box,533271,Český Brod,28201,Zborovská,578,50.078311,14.864116
313,Alza Box,533271,Český Brod,28201,Podskalí,448,50.071287,14.859498
314,Alza Box,533271,Český Brod,28201,Jana Kouly,1527,50.075167,14.864417
315,Alza Box,563960,Český Dub,46343,Svobody,193,50.658493,14.989775
316,Alza Box,545392,Český Krumlov,38101,Na Svahu,277,48.819442,14.315938
317,Alza Box,545392,Český Krumlov,38101,Domoradická,299,48.823358,14.334719
318,Alza Box,545392,Český Krumlov,38101,Kaplická,24,48.810057,14.319648
319,Alza Box,545392,Český Krumlov,38101,Urbinská,236,48.824982,14.331847
320,Alza Box,545392,Český Krumlov,38101,Sídl. Plešivec,254,48.801771,14.310567
321,Alza Box,598933,Český Těšín,73701,Ostravská,2030,49.746662,18.607418
322,Alza Box,598933,Český Těšín,73701,Ostravská,555,49.74599,18.617941
323,Alza Box,598933,Český Těšín,73701,Jablunkovská,1206,49.731993,18.619861
324,Alza Box,598933,Český Těšín,73701,Polní,1855,49.735131,18.613293
325,Alza Box,598933,Český Těšín,73701,Jablunkovská,2041,49.738769,18.620336
326,Alza Box,598933,Český Těšín,73701,Ostravská,2029,49.746523,18.609048
327,Alza Box,538141,Čestlice,25101,Obchodní,111,50.003888,14.57409
328,Alza Box,549339,Čimelice,39804,Čimelice,315,49.465133,14.069112
329,Alza Box,539155,Čisovice,25204,Čisovice,4,49.863294,14.315409
330,Alza Box,550167,Čkyně,38481,Čkyně,97,49.114836,13.824693
331,Alza Box,546127,Dačice,38001,Vápovská,306,49.07874,15.441068
332,Alza Box,546127,Dačice,38001,Toužínská,199,49.080881,15.419488
333,Alza Box,537918,Dalovice,36263,Příční,175,50.249136,12.894707
334,Alza Box,574899,Dašice,53303,Husovo náměstí,32,50.027429,15.912682
335,Alza Box,562335,Děčín,40502,17. listopadu,381,50.779019,14.217657
336,Alza Box,562335,Děčín,40711,Vítězství,445,50.738912,14.190529
337,Alza Box,562335,Děčín,40711,Studniční,415,50.741246,14.192441
338,Alza Box,562335,Děčín,40502,U Nemocnice,605,50.781059,14.225004
339,Alza Box,562335,Děčín,40502,Řetězová,1369,50.780756,14.212137
340,Alza Box,562335,Děčín,40502,Plzeňská,1700,50.772864,14.199496
341,Alza Box,562335,Děčín,40502,Oblouková,1450,50.774421,14.218038
342,Alza Box,562335,Děčín,40502,Teplická,358,50.781474,14.152567
343,Alza Box,562335,Děčín,40502,28. října,276,50.782175,14.214191
344,Alza Box,562335,Děčín,40502,Kamenická,642,50.780736,14.231469
345,Alza Box,562335,Děčín,40502,Žerotínova,389,50.770361,14.217889
346,Alza Box,562335,Děčín,40502,Sofijská,2,50.771242,14.193025
347,Alza Box,563552,Desná,46861,Krkonošská,631,50.755187,15.313348
348,Alza Box,598941,Dětmarovice,73571,Dětmarovice,301,49.894347,18.463414
349,Alza Box,529621,Divišov,25726,Horní náměstí,2,49.788718,14.875665
350,Alza Box,598089,Dobrá,73951,Dobrá,1130,49.671487,18.424936
351,Alza Box,598089,Dobrá,73951,Dobrá,1068,49.675085,18.409499
352,Alza Box,535206,Dobrá Voda u Českých Budějovic,37316,Na Barborce,1405,48.965082,14.528531
353,Alza Box,535672,Dobrovice,29441,Palackého náměstí,751,50.366639,14.962111
354,Alza Box,535672,Dobrovice,29441,Husova,319,50.365817,14.961514
355,Alza Box,535672,Dobrovice,29441,Seemanova,128,50.369016,14.963948
356,Alza Box,539171,Dobrovíz,25261,Průběžná,192,50.114808,14.218768
357,Alza Box,576271,Dobruška,51801,Nádražní,533,50.289914,16.153059
358,Alza Box,576271,Dobruška,51801,Domašínská,358,50.292587,16.16465
359,Alza Box,557676,Dobřany,33441,Zahradní,705,49.653044,13.289579
360,Alza Box,557676,Dobřany,33441,tř.,1,49.654754,13.296706
361,Alza Box,538167,Dobřejovice,25101,V Hůrce,489,49.974439,14.586617
362,Alza Box,538167,Dobřejovice,25101,Jesenická,410,49.97809,14.570219
363,Alza Box,539198,Dobřichovice,25229,Pražská,1101,49.92752,14.271002
364,Alza Box,539198,Dobřichovice,25229,Palackého,28,49.927487,14.274749
365,Alza Box,540111,Dobříš,26301,Mírové náměstí,1581,49.782486,14.17224
366,Alza Box,540111,Dobříš,26301,Rukavičkářská,871,49.7911,14.178164
367,Alza Box,546941,Dobšice,67182,Brněnská,43,48.849649,16.087089
368,Alza Box,561495,Doksy,47201,Zámecká,982,50.565038,14.649848
369,Alza Box,506702,Dolní Benešov,74722,Opavská,513,49.921445,18.104337
370,Alza Box,534765,Dolní Beřkovice,27701,Nádražní,331,50.392667,14.451247
371,Alza Box,535702,Dolní Bousov,29404,Náměstí T. G. Masaryka,142,50.439044,15.126818
372,Alza Box,539210,Dolní Břežany,25241,Pražská,344,49.973252,14.464408
373,Alza Box,539210,Dolní Břežany,25241,Ke Zvoli,311,49.962243,14.452397
374,Alza Box,539210,Dolní Břežany,25241,Pražská,454,49.970211,14.462643
375,Alza Box,539210,Dolní Břežany,25241,Pražská,636,49.964194,14.459361
376,Alza Box,544388,Dolní Bukovsko,37365,náměstíJiráskovo,78,49.170249,14.581011
377,Alza Box,587044,Dolní Cerekev,58845,Dolní Cerekev,26,49.344312,15.458029
378,Alza Box,582956,Dolní Kounice,66464,náměstíMíru,40,49.072969,16.464908
379,Alza Box,557684,Dolní Lukavice,33444,Dolní Lukavice,129,49.601705,13.345184
380,Alza Box,598968,Dolní Lutyně,73553,Koperníkova,812,49.899652,18.429233
381,Alza Box,553425,Domažlice,34401,Pivovarská,700,49.442517,12.927034
382,Alza Box,553425,Domažlice,34401,Kozinova,178,49.438845,12.916649
383,Alza Box,553425,Domažlice,34401,Husova tř.,250,49.439563,12.935661
384,Alza Box,531146,Drahelčice,25219,Na Návsi,25,50.030296,14.204855
385,Alza Box,538191,Dřevčice,25001,Dřevčice,95,50.16741,14.629586
386,Alza Box,534781,Dřísy,27714,Dřísy,26,50.255694,14.643479
387,Alza Box,544426,Dříteň,37351,Dříteň,138,49.142136,14.34624
388,Alza Box,567507,Dubí,41701,Zahradní,331,50.674518,13.797475
389,Alza Box,567507,Dubí,41703,Ruská,309,50.661155,13.80137
390,Alza Box,586161,Dubňany,69603,Hodonínská,313,48.916649,17.09912
391,Alza Box,544442,Dubné,37384,Dubné,90,48.976185,14.359107
392,Alza Box,567515,Duchcov,41901,Horská cesta,1243,50.607504,13.741877
393,Alza Box,567515,Duchcov,41901,Osecká,1317,50.606917,13.745167
394,Alza Box,579203,Dvůr Králové nad Labem,54401,Tyršova,634,50.439332,15.822
395,Alza Box,579203,Dvůr Králové nad Labem,54401,Alešova,3083,50.425287,15.809839
396,Alza Box,579203,Dvůr Králové nad Labem,54401,Benešovo nábřeží,2913,50.428107,15.807951
397,Alza Box,579203,Dvůr Králové nad Labem,54401,17. listopadu,3111,50.427701,15.817217
398,Alza Box,558851,Dýšina,33002,Přátelství,129,49.777339,13.496636
399,Alza Box,554529,Františkovy Lázně,35101,Česká,39,50.124364,12.342623
400,Alza Box,599344,Frenštát pod Radhoštěm,74401,Křižíkova,1392,49.542413,18.206217
401,Alza Box,599344,Frenštát pod Radhoštěm,74401,Rožnovská,1824,49.546561,18.212893
402,Alza Box,598003,Frýdek-Místek,73801,Frýdlantská,770,49.671195,18.347163
403,Alza Box,598003,Frýdek-Místek,73801,Příborská,2270,49.672291,18.330316
404,Alza Box,598003,Frýdek-Místek,73801,Nové dvory-Kamenec,3439,49.679023,18.369968
405,Alza Box,598003,Frýdek-Místek,73801,Frýdlantská,2197,49.666875,18.349148
406,Alza Box,598003,Frýdek-Místek,73801,Elišky Krásnohorské,321,49.689855,18.354273
407,Alza Box,598003,Frýdek-Místek,73801,tř. T. G. Masaryka,503,49.685642,18.352199
408,Alza Box,598003,Frýdek-Místek,73801,Na Příkopě,3727,49.680747,18.348225
409,Alza Box,598003,Frýdek-Místek,73801,Slezská,3505,49.677715,18.361266
410,Alza Box,598003,Frýdek-Místek,73801,Slezská,761,49.678326,18.357676
411,Alza Box,598003,Frýdek-Místek,73801,Heydukova,2330,49.690908,18.341828
412,Alza Box,598003,Frýdek-Místek,73801,Ostravská,152,49.673902,18.339824
413,Alza Box,598003,Frýdek-Místek,73801,Nové dvory-Kamenec,3725,49.679806,18.370361
414,Alza Box,564028,Frýdlant,46401,Havlíčkova,1245,50.923064,15.07928
415,Alza Box,564028,Frýdlant,46401,Hejnická,1010,50.919278,15.081342
416,Alza Box,598143,Frýdlant nad Ostravicí,73911,Bezručova,317,49.593531,18.359207
417,Alza Box,545481,Frymburk,38279,Frymburk,2,48.663164,14.168347
418,Alza Box,585211,Fryšták,76316,Holešovská,287,49.287892,17.681046
419,Alza Box,599352,Fulnek,74245,U Sýpky,280,49.715427,17.906654
420,Alza Box,599352,Fulnek,74245,Bílovecká,386,49.716631,17.914281
421,Alza Box,599352,Fulnek,74245,Masarykova,304,49.71533,17.910645
422,Alza Box,568635,Golčův Jeníkov,58282,5. května,8,49.814104,15.478511
423,Alza Box,560359,Habartov,35709,Čs. armády,811,50.183337,12.550738
424,Alza Box,560359,Habartov,35709,1. máje,847,50.183532,12.557514
425,Alza Box,506753,Háj ve Slezsku,74792,Antonína Vaška,74,49.899106,18.092696
426,Alza Box,542679,Halenkov,75603,Halenkov,611,49.317582,18.146452
427,Alza Box,535532,Hanušovice,78833,Hlavní,210,50.076454,16.931691
428,Alza Box,577081,Harrachov,51246,Nový svět,102,50.78085,15.420735
429,Alza Box,555088,Havířov,73601,Studentská,1592,49.77744,18.458384
430,Alza Box,555088,Havířov,73601,Moravská,518,49.801099,18.41985
431,Alza Box,555088,Havířov,73601,Fibichova,225,49.779962,18.42899
432,Alza Box,555088,Havířov,73601,Klidná,787,49.772962,18.436681
433,Alza Box,555088,Havířov,73601,Dlouhá tř.,1026,49.777669,18.444736
434,Alza Box,555088,Havířov,73601,Moskevská,1480,49.786519,18.439729
435,Alza Box,555088,Havířov,73601,Dlouhá tř.,1225,49.775732,18.449549
436,Alza Box,555088,Havířov,73601,U Stadionu,1655,49.770435,18.446672
437,Alza Box,555088,Havířov,73564,Před Tratí,891,49.787979,18.441909
438,Alza Box,555088,Havířov,73601,Šrámkova,1379,49.771612,18.455883
439,Alza Box,555088,Havířov,73601,Svornosti,86,49.782937,18.422493
440,Alza Box,555088,Havířov,73564,U Topolů,687,49.79371,18.457842
441,Alza Box,555088,Havířov,73564,U Skleníků,1490,49.791927,18.439974
442,Alza Box,555088,Havířov,73601,Železničářů,1303,49.791106,18.420214
443,Alza Box,555088,Havířov,73601,17. listopadu,1628,49.781222,18.451222
444,Alza Box,555088,Havířov,73601,M. Pujmanové,1124,49.797071,18.397488
445,Alza Box,555088,Havířov,73601,U Stadionu,1640,49.77157,18.445605
446,Alza Box,568414,Havlíčkův Brod,58001,Reynkova,2823,49.612526,15.579144
447,Alza Box,568414,Havlíčkův Brod,58001,Strojírenská,4417,49.604626,15.602107
448,Alza Box,568414,Havlíčkův Brod,58001,Bělohradská,3855,49.60161,15.586274
449,Alza Box,568414,Havlíčkův Brod,58001,U Cihláře,3358,49.618151,15.575457
450,Alza Box,568414,Havlíčkův Brod,58001,Humpolecká,20,49.603001,15.576546
451,Alza Box,564044,Hejnice,46362,Jizerská,629,50.877632,15.182536
452,Alza Box,564044,Hejnice,46362,Nádražní,598,50.879697,15.183309
453,Alza Box,539325,Jesenice,25242,Vídeňská,679,49.983763,14.496123
454,Alza Box,571385,Heřmanův Městec,53803,U Bažantnice,770,49.947889,15.67175
455,Alza Box,531171,Hlásná Třebaň,26718,Hlásná Třebaň,109,49.922075,14.197917
456,Alza Box,571393,Hlinsko,53901,Poličská,1625,49.76695,15.918148
457,Alza Box,571393,Hlinsko,53901,Resslova,258,49.760815,15.91119
458,Alza Box,571393,Hlinsko,53901,Poličská,1365,49.769778,15.919627
459,Alza Box,571393,Hlinsko,53901,Družstevní,1211,49.76497,15.918178
460,Alza Box,502146,Hlubočky,78365,Kosmonautů,438,49.622471,17.397653
461,Alza Box,502146,Hlubočky,78365,Olomoucká,488,49.617746,17.394863
462,Alza Box,544485,Hluboká nad Vltavou,37341,Podskalí,394,49.050135,14.437897
463,Alza Box,544485,Hluboká nad Vltavou,37341,Potoční,1632,49.057634,14.425159
464,Alza Box,507016,Hlučín,74801,Opavská,1886,49.89867,18.183364
465,Alza Box,507016,Hlučín,74801,Cihelní,1872,49.895788,18.195705
466,Alza Box,592170,Hluk,68725,,,48.987303,17.527303
467,Alza Box,564061,Hodkovice nad Mohelkou,46342,Liberecká,21,50.668925,15.085384
468,Alza Box,564061,Hodkovice nad Mohelkou,46342,Rychnovská ev. č.,44,50.667858,15.095389
469,Alza Box,586021,Hodonín,69501,Dvořákova,4115,48.853127,17.11885
470,Alza Box,586021,Hodonín,69501,Konečná,4010,48.857141,17.137658
471,Alza Box,586021,Hodonín,69501,Brandlova,3410,48.859531,17.136528
472,Alza Box,586021,Hodonín,69501,Cihlářská čtvrť,3216,48.859703,17.117222
473,Alza Box,586021,Hodonín,69501,Masarykovo náměstí,257,48.850211,17.129239
474,Alza Box,586021,Hodonín,69501,,,48.85175,17.121241
475,Alza Box,588458,Holešov,76901,,,49.32789,17.57394
476,Alza Box,588458,Holešov,76901,Palackého,520,49.325672,17.553519
477,Alza Box,588458,Holešov,76901,Grohova,1267,49.329416,17.576483
478,Alza Box,588458,Holešov,76901,Palackého,730,49.328471,17.56769
479,Alza Box,574988,Holice,53401,Nádražní,1035,50.069029,15.989784
480,Alza Box,574988,Holice,53401,Hradecká,1122,50.073268,15.983187
481,Alza Box,559814,Holoubkov,33801,Holoubkov,21,49.775064,13.69126
482,Alza Box,539228,Holubice,25265,Na Návsi,189,50.203098,14.292449
483,Alza Box,539228,Holubice,25265,Holubice,175,50.201829,14.293199
484,Alza Box,553654,Holýšov,34562,Táborová,592,49.591908,13.104283
485,Alza Box,553654,Holýšov,34562,Luční,612,49.596798,13.10506
486,Alza Box,556254,Horažďovice,34101,Šumavská,881,49.325195,13.707662
487,Alza Box,502545,Horka nad Moravou,78335,náměstíOsvobození,79,49.639129,17.209909
488,Alza Box,542687,Horní Bečva,75657,Horní Bečva,503,49.432203,18.286562
489,Alza Box,558885,Horní Bříza,33012,Tovární,146,49.850914,13.381397
490,Alza Box,558885,Horní Bříza,33012,Třída,1,49.84325,13.360583
491,Alza Box,545511,Horní Planá,38226,Náměstí,38,48.765696,14.031637
492,Alza Box,560367,Horní Slavkov,35731,Nová,1016,50.135781,12.796844
493,Alza Box,560367,Horní Slavkov,35731,U Lesoparku,790,50.138535,12.793979
494,Alza Box,599531,Horní Slivno,29479,Horní Slivno,107,50.304068,14.708129
495,Alza Box,552739,Horní Suchá,73535,Těrlická,1280,49.799617,18.478208
496,Alza Box,539236,Horoměřice,25262,Přímá,83,50.132342,14.336933
497,Alza Box,539236,Horoměřice,25262,Suchdolská,1104,50.14199,14.341473
498,Alza Box,539236,Horoměřice,25262,Ke Skále,333,50.131476,14.340337
499,Alza Box,538221,Horoušany,25082,Baumanova,48,50.106438,14.741438
500,Alza Box,553671,Horšovský Týn,34601,Vrchlického,294,49.528478,12.937518
501,Alza Box,553671,Horšovský Týn,34601,Dvořákova,302,49.5273,12.947412
502,Alza Box,572926,Hořice,50801,Aloise Jilemnického,2138,50.367504,15.629347
503,Alza Box,572926,Hořice,50801,Antonína Rudla,1029,50.365444,15.628028
504,Alza Box,531189,Hořovice,26801,Masarykova,1458,49.837128,13.895842
505,Alza Box,531189,Hořovice,26801,Pražská,1349,49.836229,13.906193
506,Alza Box,531189,Hořovice,26801,Fügnerova,1543,49.838504,13.897572
507,Alza Box,579297,Hostinné,54371,Sídliště,892,50.53951,15.729055
508,Alza Box,539244,Hostivice,25301,Čsl. armády,17,50.081576,14.256069
509,Alza Box,539244,Hostivice,25301,Čsl. armády,488,50.080662,14.254159
510,Alza Box,539244,Hostivice,25301,Jetřichova,2462,50.084076,14.233727
511,Alza Box,539244,Hostivice,25301,Čsl. armády,22,50.081332,14.258761
512,Alza Box,539244,Hostivice,25301,Litovická,1233,50.080998,14.249634
513,Alza Box,539244,Hostivice,25301,Sportovců,14,50.082028,14.238611
514,Alza Box,531201,Hostomice,26724,Tyršovo náměstí,503,49.825726,14.045618
515,Alza Box,560758,Bor,34802,Nám. Republiky,498,49.711674,12.774949
516,Alza Box,532347,Hostouň,27353,Hájecká,315,50.112333,14.20093
517,Alza Box,564877,Hoštka,41172,Malé náměstí,154,50.48793,14.33462
518,Alza Box,538230,Hovorčovice,25064,Bořanovická,693,50.178148,14.511846
519,Alza Box,538230,Hovorčovice,25064,Hlavní,697,50.181317,14.517134
520,Alza Box,569810,Hradec Králové,50003,Severní,883,50.220698,15.845582
521,Alza Box,569810,Hradec Králové,50009,Moravská,980,50.199843,15.848616
522,Alza Box,569810,Hradec Králové,50002,Jungmannova,1431,50.200236,15.81642
523,Alza Box,569810,Hradec Králové,50003,Třída SNP,733,50.217177,15.850992
524,Alza Box,569810,Hradec Králové,50311,Dvorská,648,50.220382,15.79718
525,Alza Box,569810,Hradec Králové,50002,Dykova,1328,50.203014,15.812541
526,Alza Box,569810,Hradec Králové,50301,Koutníkova,224,50.224335,15.803298
527,Alza Box,569810,Hradec Králové,50004,Kutnohorská,226,50.198322,15.780678
528,Alza Box,569810,Hradec Králové,50003,Pilnáčkova,436,50.217179,15.839553
529,Alza Box,569810,Hradec Králové,50002,Dukelská tř.,1713,50.212825,15.819197
530,Alza Box,569810,Hradec Králové,50002,Gočárova třída,1754,50.212672,15.811039
531,Alza Box,569810,Hradec Králové,50011,,,50.183897,15.826488
532,Alza Box,569810,Hradec Králové,50341,Jana Černého,8,50.229222,15.836245
533,Alza Box,569810,Hradec Králové,50003,Pospíšilova,318,50.215042,15.846069
534,Alza Box,569810,Hradec Králové,50002,Rašínova tř.,1669,50.189797,15.803047
535,Alza Box,569810,Hradec Králové,50003,Víta Nejedlého,1063,50.211682,15.853537
536,Alza Box,569810,Hradec Králové,50006,M. Horákové,327,50.185569,15.846802
537,Alza Box,569810,Hradec Králové,50009,Brněnská,1825,50.196876,15.847908
538,Alza Box,569810,Hradec Králové,50002,Labská kotlina,1206,50.207917,15.820583
539,Alza Box,569810,Hradec Králové,50012,,,50.200364,15.835381
540,Alza Box,569810,Hradec Králové,50011,Štefánikova,536,50.186917,15.835806
541,Alza Box,569810,Hradec Králové,50002,Pilnáčkova,379,50.217944,15.833556
542,Alza Box,569810,Hradec Králové,50012,tř. E. Beneše,1418,50.192874,15.841232
543,Alza Box,507270,Hradec nad Moravicí,74741,Pod Hanuší,802,49.877222,17.875556
544,Alza Box,564095,Hrádek nad Nisou,46334,Liberecká,736,50.852931,14.857592
545,Alza Box,539252,Hradištko,25209,Brunšov,69,49.856754,14.402051
546,Alza Box,513750,Hranice,75301,Družstevní,2034,49.557421,17.740668
547,Alza Box,513750,Hranice,75301,Družstevní,2072,49.557743,17.744023
548,Alza Box,513750,Hranice,75301,Tř.,1,49.552731,17.736031
549,Alza Box,544558,Hrdějovice,37361,Těšínská,9,49.019861,14.479439
550,Alza Box,571491,Hrochův Týnec,53862,Nádražní,343,49.960167,15.910278
551,Alza Box,574082,Hronov,54931,Hostovského,660,50.476946,16.178655
552,Alza Box,590673,Hrotovice,67555,náměstí,8,49.108508,16.057445
553,Alza Box,535559,Brodce,29473,Dobrovická,377,50.330492,14.8673
554,Alza Box,594156,Hrušovany nad Jevišovkou,67167,náměstíMíru,20,48.830227,16.403011
555,Alza Box,583081,Hrušovany u Brna,66462,Palackého,26,49.036499,16.593322
556,Alza Box,532371,Hřebeč,27345,náměstíDraha,41,50.136207,14.16425
557,Alza Box,588491,Hulín,76824,Záhlinická,1059,49.312877,17.472883
558,Alza Box,588491,Hulín,76824,Eduarda Světlíka,384,49.313111,17.470139
559,Alza Box,547999,Humpolec,39601,Lužická,1536,49.545974,15.357375
560,Alza Box,547999,Humpolec,39601,Okružní,1780,49.538989,15.345486
561,Alza Box,547999,Humpolec,39601,,,49.538454,15.345716
562,Alza Box,547999,Humpolec,39601,Kamarýtova,1329,49.544489,15.356485
563,Alza Box,538256,Husinec,25068,Nad Údolím,140,50.173579,14.361153
564,Alza Box,584495,Hustopeče,69301,,,48.951533,16.724295
565,Alza Box,584495,Hustopeče,69301,Brněnská,12,48.94839,16.728532
566,Alza Box,531243,Hýskov,26706,Na Břasích,58,49.98782,14.048064
567,Alza Box,568007,Chabařovice,40317,Náměstí,9,50.672604,13.94502
568,Alza Box,565784,Charvatce,29445,Charvatce,78,50.322611,14.998437
569,Alza Box,554481,Cheb,35002,Přátelství,2006,50.073965,12.355949
570,Alza Box,554481,Cheb,35002,Jungmannova,913,50.068654,12.363874
571,Alza Box,554481,Cheb,35002,Matěje Kopeckého,1219,50.065338,12.371
572,Alza Box,554481,Cheb,35002,Pražská,2494,50.081486,12.378791
573,Alza Box,554481,Cheb,35002,Májová,2492,50.078349,12.375666
574,Alza Box,554481,Cheb,35002,Dragounská,2529,50.071461,12.36812
575,Alza Box,554481,Cheb,35002,Pivovarská,2396,50.077554,12.379801
576,Alza Box,557781,Chlumčany,33442,Boženy Němcové,334,49.62865,13.310251
577,Alza Box,568015,Chlumec,40339,Muchova,267,50.699375,13.936314
578,Alza Box,570109,Chlumec nad Cidlinou,50351,Klicperovo náměstí,5,50.153275,15.463326
579,Alza Box,570109,Chlumec nad Cidlinou,50351,Pražská,823,50.15826,15.448227
580,Alza Box,580350,Choceň,56501,Pardubická,961,49.993189,16.217755
581,Alza Box,560383,Chodov,35735,U Porcelánky,266,50.234255,12.746865
582,Alza Box,560383,Chodov,35735,Husova,786,50.242707,12.74528
583,Alza Box,560383,Chodov,35735,U Koupaliště,1081,50.244744,12.742064
584,Alza Box,560383,Chodov,35735,Rooseveltova,846,50.239795,12.746873
585,Alza Box,560383,Chodov,35735,Tovární,1179,50.23825,12.743556
586,Alza Box,560901,Chodová Planá,34813,Pohraniční stráže,129,49.893414,12.730286
587,Alza Box,531201,Hostomice,26724,V Koutech,184,49.821972,14.043972
588,Alza Box,562971,Chomutov,43003,Jiráskova,5959,50.466325,13.40643
589,Alza Box,562971,Chomutov,43001,Mostecká,5894,50.464628,13.42121
590,Alza Box,562971,Chomutov,43004,Zahradní,5341,50.486672,13.436357
591,Alza Box,562971,Chomutov,43003,Jiráskova,4170,50.470466,13.398118
592,Alza Box,562971,Chomutov,43001,Farského,4732,50.462058,13.413629
593,Alza Box,562971,Chomutov,43003,Adámkova,4873,50.462337,13.395735
594,Alza Box,562971,Chomutov,43001,Selská,3618,50.461903,13.4204
595,Alza Box,562971,Chomutov,43003,Cihlářská,4092,50.470705,13.406919
596,Alza Box,562971,Chomutov,43004,Březenecká,4834,50.474397,13.411813
597,Alza Box,562971,Chomutov,43003,Černovická,5430,50.457298,13.393267
598,Alza Box,568759,Chotěboř,58301,Havlíčkova,1842,49.711888,15.662781
599,Alza Box,568759,Chotěboř,58301,U Prefy,1708,49.715283,15.665837
600,Alza Box,568759,Chotěboř,58301,Krále Jana,1333,49.717668,15.6699
601,Alza Box,557838,Chotěšov,33214,Plzeňská,88,49.654674,13.198449
602,Alza Box,535931,Chotětov,29428,Husovo náměstí,30,50.337268,14.801543
603,Alza Box,558940,Chotíkov,33017,Chotíkov,300,49.792709,13.317729
604,Alza Box,562971,Chomutov,43001,Kochova,1185,50.45496,13.408681
605,Alza Box,571539,Chrast,53851,Náměstí,16,49.901389,15.934639
606,Alza Box,558966,Chrást,33003,tř. Čs. odboje,558,49.795355,13.49397
607,Alza Box,564117,Chrastava,46331,Nádražní,33,50.814159,14.964329
608,Alza Box,539295,Chrášťany,25219,Severní,255,50.050931,14.259317
609,Alza Box,571164,Chrudim,53701,Palackého,764,49.946928,15.791797
610,Alza Box,571164,Chrudim,53701,Tovární,316,49.955433,15.798652
611,Alza Box,571164,Chrudim,53701,Slov. nár. povstání,1081,49.947804,15.810283
612,Alza Box,571164,Chrudim,53701,Olbrachtova,36,49.953232,15.782493
613,Alza Box,571164,Chrudim,53701,Dr.Milady Horákové,10,49.937194,15.8025
614,Alza Box,571164,Chrudim,53701,Rooseveltova,47,49.949295,15.788949
615,Alza Box,575071,Chvaletice,53312,U Kulturního domu,351,50.035358,15.412713
616,Alza Box,531294,Chyňava,26707,Chyňava,63,50.027753,14.071838
617,Alza Box,558940,Chotíkov,33017,Chotíkov,385,49.777806,13.347833
618,Alza Box,539309,Chýně,25303,Pražská,950,50.055127,14.22986
619,Alza Box,552496,Chýnov,39155,Gabrielovo náměstí,452,49.405849,14.809965
620,Alza Box,583120,Ivančice,66491,Oslavanská,1548,49.103278,16.365
621,Alza Box,593117,Ivanovice na Hané,68323,Palackého náměstí,145,49.305149,17.092103
622,Alza Box,593117,Ivanovice na Hané,68323,,,49.298417,17.09489
623,Alza Box,563510,Jablonec nad Nisou,46601,Skřivánčí,3893,50.721929,15.156711
624,Alza Box,563510,Jablonec nad Nisou,46601,U Muzea,399,50.722542,15.171615
625,Alza Box,563510,Jablonec nad Nisou,46602,Podhorská,5265,50.733137,15.187715
626,Alza Box,563510,Jablonec nad Nisou,46602,Jitřní,4286,50.727622,15.182363
627,Alza Box,563510,Jablonec nad Nisou,46601,Riegrova,2299,50.732504,15.167863
628,Alza Box,563510,Jablonec nad Nisou,46601,Na Vršku,4189,50.725829,15.158799
629,Alza Box,563510,Jablonec nad Nisou,46601,Jateční,5156,50.715696,15.157923
630,Alza Box,563510,Jablonec nad Nisou,46601,U Kostela,4754,50.739015,15.168783
631,Alza Box,563510,Jablonec nad Nisou,46604,Palackého,4570,50.744796,15.15648
632,Alza Box,563510,Jablonec nad Nisou,46601,Jateční,5203,50.715971,15.160773
633,Alza Box,563510,Jablonec nad Nisou,46602,U Přehrady,4003,50.733562,15.182008
634,Alza Box,563510,Jablonec nad Nisou,46601,Komenského,18,50.724306,15.168389
635,Alza Box,580376,Jablonné nad Orlicí,56164,Hradisková,84,50.029144,16.603927
636,Alza Box,561631,Jablonné v Podještědí,47125,Zdislavy z Lemberka,137,50.766237,14.761237
637,Alza Box,598259,Jablunkov,73991,Bukovecká,76,49.577394,18.766849
638,Alza Box,556394,Janovice nad Úhlavou,34021,Sídliště,297,49.342974,13.217202
639,Alza Box,574121,Jaroměř,55101,Dolecká,970,50.345938,15.90649
640,Alza Box,574121,Jaroměř,55101,Na Cihelnách,13,50.349307,15.912069
641,Alza Box,574121,Jaroměř,55101,Knappova,162,50.353178,15.915363
642,Alza Box,590754,Jaroměřice nad Rokytnou,67551,,,49.096544,15.889215
643,Alza Box,581682,Jedovnice,67906,Havlíčkovo náměstí,572,49.341979,16.752594
644,Alza Box,581682,Jedovnice,67906,Na kopci,571,49.340578,16.751907
645,Alza Box,590789,Jemnice,67531,Palackého,829,49.018669,15.574591
646,Alza Box,539317,Jeneč,25261,Sportovní,311,50.089681,14.213055
647,Alza Box,539317,Jeneč,25261,Pavlovská,210,50.087069,14.209973
648,Alza Box,538264,Jenštejn,25073,Hradní,1,50.151996,14.614803
649,Alza Box,539325,Jesenice,25242,Budějovická,137,49.951214,14.539051
650,Alza Box,539325,Jesenice,25242,Pražská,134,49.971217,14.541776
651,Alza Box,539325,Jesenice,25242,Říčanská,1177,49.969109,14.528866
652,Alza Box,539325,Jesenice,25242,Zbraslavská,68,49.967847,14.512657
653,Alza Box,539325,Jesenice,25242,Na Ochoze,1270,49.96569,14.51864
654,Alza Box,536385,Jeseník,79001,Tylova,1154,50.222646,17.197459
655,Alza Box,536385,Jeseník,79001,Fučíkova,1342,50.2253,17.198799
656,Alza Box,536385,Jeseník,79001,,,50.226893,17.207022
657,Alza Box,578193,Jevíčko,56943,Palackého náměstí,638,49.632791,16.713548
658,Alza Box,572659,Jičín,50601,Janouškova,456,50.429292,15.348409
659,Alza Box,572659,Jičín,50601,Husova,1058,50.435087,15.363138
660,Alza Box,572659,Jičín,50601,Hradecká,1092,50.433376,15.387993
661,Alza Box,572659,Jičín,50601,Hradecká,1141,50.43534,15.368701
662,Alza Box,572659,Jičín,50601,Riegrova,1148,50.432283,15.355492
663,Alza Box,586846,Jihlava,58601,Havlíčkova,2335,49.413497,15.596215
664,Alza Box,586846,Jihlava,58601,Jana Masaryka,8,49.396853,15.584915
665,Alza Box,586846,Jihlava,58601,Havlíčkova,1452,49.40057,15.587934
666,Alza Box,586846,Jihlava,58601,Pelhřimovská,70,49.394183,15.55197
667,Alza Box,586846,Jihlava,58601,Na Dolech,109,49.409425,15.567814
668,Alza Box,586846,Jihlava,58601,Kollárova,2762,49.413491,15.592626
669,Alza Box,586846,Jihlava,58601,Romana Havelky,5508,49.407081,15.581328
670,Alza Box,586846,Jihlava,58601,Znojemská,4655,49.385588,15.593582
671,Alza Box,539309,Chýně,25303,Hlavní,200,50.061228,14.225501
672,Alza Box,586846,Jihlava,58601,Březinova,4248,49.40225,15.601722
673,Alza Box,586846,Jihlava,58601,Okružní,4506,49.406222,15.591528
674,Alza Box,586846,Jihlava,58601,Hradební,1,49.392992,15.594666
675,Alza Box,586846,Jihlava,58601,Brněnská,4971,49.396694,15.610306
676,Alza Box,577197,Jilemnice,51401,Čsl. Legií,1258,50.600326,15.519157
677,Alza Box,562564,Jílové,40701,Teplická,326,50.761467,14.106635
678,Alza Box,539333,Jílové u Prahy,25401,Rudných dolů,502,49.89674,14.491977
679,Alza Box,539333,Jílové u Prahy,25401,Pražská,256,49.90625,14.49322
680,Alza Box,539341,Jíloviště,25202,Pražská,232,49.931103,14.34962
681,Alza Box,539341,Jíloviště,25202,Pražská,260,49.926574,14.34137
682,Alza Box,540404,Jince,26223,J. Žižky,390,49.785218,13.979348
683,Alza Box,545881,Jindřichův Hradec,37701,Landfrasova,181,49.130075,15.001734
684,Alza Box,545881,Jindřichův Hradec,37701,9. května,875,49.151244,14.997042
685,Alza Box,545881,Jindřichův Hradec,37701,Jiráskovo Předměstí,630,49.130404,15.018196
686,Alza Box,545881,Jindřichův Hradec,37701,,,49.149062,15.006344
687,Alza Box,545881,Jindřichův Hradec,37701,sídl. Vajgar,595,49.140493,15.01737
688,Alza Box,545881,Jindřichův Hradec,37701,sídl. U Nádraží,940,49.152511,15.006879
689,Alza Box,545881,Jindřichův Hradec,37701,Jáchymova,903,49.143564,15.021083
690,Alza Box,539350,Jinočany,25225,,,50.030215,14.278522
691,Alza Box,563099,Jirkov,43111,K. Marxe,1691,50.505026,13.437404
692,Alza Box,563099,Jirkov,43111,Mládežnická,1596,50.500662,13.430928
693,Alza Box,563099,Jirkov,43111,U Sauny,1739,50.501851,13.450417
694,Alza Box,563099,Jirkov,43111,Vinařická,2152,50.499528,13.444361
695,Alza Box,538272,Jirny,25090,Luční,824,50.110584,14.702641
696,Alza Box,538272,Jirny,25090,Pražská,73,50.118144,14.696581
697,Alza Box,562581,Jiříkov,40753,Starý Jiříkov,487,50.994285,14.573419
698,Alza Box,599506,Jistebník,74282,Jistebník,149,49.753186,18.130795
699,Alza Box,563102,Kadaň,43201,Na Průtahu,1960,50.383864,13.275508
700,Alza Box,563102,Kadaň,43201,Kpt. Jaroše,1366,50.379443,13.270792
701,Alza Box,563102,Kadaň,43201,Kpt. Jaroše,1682,50.384384,13.270238
702,Alza Box,538299,Kamenice,25168,Pražská,400,49.910563,14.584821
703,Alza Box,538299,Kamenice,25168,Hlavní,345,49.920792,14.578845
704,Alza Box,538299,Kamenice,25168,Ringhofferovo náměstí,434,49.904381,14.587743
705,Alza Box,586846,Jihlava,58601,Rantířovská,4787,49.394957,15.566969
706,Alza Box,548111,Kamenice nad Lipou,39470,Táborská,846,49.300503,15.068321
707,Alza Box,548111,Kamenice nad Lipou,39470,Za Kult. domem,640,49.29917,15.071439
708,Alza Box,561681,Kamenický Šenov,47114,9. května,941,50.772277,14.473475
709,Alza Box,532452,Kamenné Žehrovice,27301,Karlovarská třída,554,50.127638,14.015942
710,Alza Box,539368,Kamenný Přívoz,25282,Kamenný Přívoz,285,49.860824,14.503413
711,Alza Box,544663,Kamenný Újezd,37381,Nádražní,49,48.896642,14.448411
712,Alza Box,545562,Kaplice,38241,Míru,756,48.744586,14.490877
713,Alza Box,546542,Kardašova Řečice,37821,Jablonského tř.,8,49.184629,14.85192
714,Alza Box,554961,Karlovy Vary,36005,U Koupaliště,860,50.238204,12.851745
715,Alza Box,554961,Karlovy Vary,36005,Železniční,1007,50.241237,12.852961
716,Alza Box,554961,Karlovy Vary,36005,Dolní Kamenná,1058,50.231479,12.850887
717,Alza Box,554961,Karlovy Vary,36001,Bezručova,1190,50.232585,12.876426
718,Alza Box,554961,Karlovy Vary,36005,Sokolovská,1019,50.233088,12.8415
719,Alza Box,554961,Karlovy Vary,36017,Závodu míru,851,50.244982,12.831824
720,Alza Box,554961,Karlovy Vary,36001,Stará Kysibelská,642,50.236593,12.897815
721,Alza Box,554961,Karlovy Vary,36006,Chebská,370,50.225172,12.822072
722,Alza Box,554961,Karlovy Vary,36010,Sedlecká,758,50.237025,12.86457
723,Alza Box,554961,Karlovy Vary,36001,Západní,1807,50.228347,12.854639
724,Alza Box,554961,Karlovy Vary,36017,Frimlova,963,50.238128,12.837108
725,Alza Box,554961,Karlovy Vary,36001,Lidická,581,50.233991,12.890311
726,Alza Box,554961,Karlovy Vary,36001,Pobřežní,22,50.232994,12.867574
727,Alza Box,542911,Karolinka,75605,Vsetínská,414,49.350837,18.237651
728,Alza Box,598917,Karviná,73401,Kosmonautů,511,49.850919,18.556898
729,Alza Box,598917,Karviná,73301,Mendelova,2873,49.865343,18.552713
730,Alza Box,598917,Karviná,73401,tř. Těreškovové,2233,49.857791,18.55686
731,Alza Box,598917,Karviná,73401,Centrum,2296,49.855959,18.553973
732,Alza Box,598917,Karviná,73301,tř.,17,49.85631,18.540817
733,Alza Box,598917,Karviná,73401,tř.,17,49.845862,18.554059
734,Alza Box,598917,Karviná,73301,Leonovova,2015,49.86288,18.554003
735,Alza Box,559008,Kaznějov,33151,Ke Škále,496,49.892879,13.383888
736,Alza Box,559008,Kaznějov,33151,Poštovní,413,49.895722,13.381639
737,Alza Box,553786,Kdyně,34506,Dělnická,489,49.393488,13.040043
738,Alza Box,553786,Kdyně,34506,Nádražní,747,49.389086,13.036634
739,Alza Box,532053,Kladno,27204,náměstíJana Masaryka,2735,50.139669,14.072554
740,Alza Box,532053,Kladno,27201,P. Bezruče,3388,50.142417,14.1015
741,Alza Box,532053,Kladno,27201,M. Horákové,3303,50.129363,14.112258
742,Alza Box,532053,Kladno,27201,Vančurova,1548,50.141868,14.089676
743,Alza Box,532053,Kladno,27201,Dr. Vrbenského,31,50.146225,14.10467
744,Alza Box,532053,Kladno,27201,Lacinova,750,50.134582,14.118099
745,Alza Box,532053,Kladno,27309,28. října,1542,50.164876,14.108727
746,Alza Box,532053,Kladno,27201,,,50.145382,14.102
747,Alza Box,532053,Kladno,27201,Americká,2445,50.128587,14.115957
748,Alza Box,532053,Kladno,27201,,,50.130802,14.137541
749,Alza Box,532053,Kladno,27201,,,50.135733,14.135794
750,Alza Box,532053,Kladno,27201,Polská,2334,50.131888,14.126735
751,Alza Box,532053,Kladno,27204,Vašíčkova,51,50.141917,14.069583
752,Alza Box,532053,Kladno,27204,Smečenská,1081,50.141608,14.063867
753,Alza Box,532053,Kladno,27201,Arménská,3277,50.133801,14.138769
754,Alza Box,532053,Kladno,27201,Braunova,75,50.150363,14.088814
755,Alza Box,532053,Kladno,27201,Italská,50,50.131624,14.117281
756,Alza Box,532053,Kladno,27201,Štěpánská,2670,50.141971,14.111418
757,Alza Box,532053,Kladno,27201,Ukrajinská,2667,50.129894,14.129069
758,Alza Box,532053,Kladno,27201,Americká,749,50.126279,14.122333
759,Alza Box,532053,Kladno,27309,28. října,166,50.175425,14.107309
760,Alza Box,532053,Kladno,27204,Severní,512,50.145032,14.075025
761,Alza Box,532053,Kladno,27203,,,50.143809,14.124816
762,Alza Box,532053,Kladno,27201,náměstíSítná,3127,50.135626,14.102908
763,Alza Box,532053,Kladno,27201,Vítězná,118,50.140383,14.081284
764,Alza Box,532053,Kladno,27201,Americká,2777,50.126556,14.119451
765,Alza Box,563129,Klášterec nad Ohří,43151,Osvobozená,695,50.389149,13.194086
766,Alza Box,563129,Klášterec nad Ohří,43151,Pražská,394,50.383351,13.194716
767,Alza Box,563129,Klášterec nad Ohří,43151,Chomutovská,210,50.386472,13.176611
768,Alza Box,555771,Klatovy,33901,Plánická,153,49.396107,13.309536
769,Alza Box,555771,Klatovy,33901,Sídliště U Pošty,683,49.39843,13.289764
770,Alza Box,555771,Klatovy,33901,Palackého,780,49.397384,13.297198
771,Alza Box,555771,Klatovy,33901,Šumavská,782,49.388317,13.295043
772,Alza Box,555771,Klatovy,33901,Nádražní,613,49.401595,13.279716
773,Alza Box,555771,Klatovy,33901,5. května,689,49.38229,13.29649
774,Alza Box,555771,Klatovy,33901,Domažlická,909,49.393227,13.285242
775,Alza Box,538311,Klecany,25067,Čsl. armády,374,50.176717,14.420143
776,Alza Box,538329,Klíčany,25069,Hlavní,21,50.202223,14.433773
777,Alza Box,599549,Klimkovice,74283,Lidická,4,49.787854,18.126344
778,Alza Box,599549,Klimkovice,74283,Lidická,917,49.786722,18.129056
779,Alza Box,584550,Klobouky u Brna,69172,náměstíMíru,101,48.995399,16.858211
780,Alza Box,534897,Kly,27741,Krauzovna,260,50.307818,14.514637
781,Alza Box,539384,Kněževes,25268,,,50.121249,14.259745
782,Alza Box,536041,Kněžmost,29402,Hradišťská,194,50.490926,15.037873
783,Alza Box,531537,Mezouň,26716,Mezouň,2,50.004071,14.214613
784,Alza Box,514055,Kojetín,75201,Kroměřížská,120,49.348926,17.307155
785,Alza Box,533165,Kolín,28002,Pražská,302,50.029573,15.190385
786,Alza Box,533165,Kolín,28002,Ke Hřbitovu,1448,50.035535,15.207769
787,Alza Box,533165,Kolín,28002,Ovčárecká,549,50.047919,15.219432
788,Alza Box,533165,Kolín,28002,,,50.023297,15.184313
789,Alza Box,533165,Kolín,28002,Havlíčkova,901,50.015512,15.221302
790,Alza Box,533165,Kolín,28002,Masarykova,987,50.022811,15.189955
791,Alza Box,533165,Kolín,28002,Seifertova,2566,50.02311,15.196992
792,Alza Box,533165,Kolín,28002,V Opletkách,892,50.022999,15.207663
793,Alza Box,533165,Kolín,28002,Benešova,1000,50.021464,15.184642
794,Alza Box,533165,Kolín,28002,náměstíRepubliky,43,50.027735,15.197155
795,Alza Box,533165,Kolín,28002,V Kasárnách,1019,50.032734,15.19034
796,Alza Box,533165,Kolín,28002,Rorejcova,906,50.025843,15.210219
797,Alza Box,531324,Komárov,26762,náměstíMíru,441,49.806259,13.857473
798,Alza Box,531324,Komárov,26762,,,49.809276,13.858562
799,Alza Box,589624,Konice,79852,Švehlova,511,49.589944,16.890825
800,Alza Box,599565,Kopřivnice,74221,Nádražní,228,49.605082,18.148271
801,Alza Box,599565,Kopřivnice,74221,Husova,338,49.594228,18.146311
802,Alza Box,599565,Kopřivnice,74221,Obránců Míru,1,49.604806,18.135944
803,Alza Box,599565,Kopřivnice,74221,Štefánikova,1410,49.600943,18.148124
804,Alza Box,588601,Koryčany,76805,Náměstí,152,49.107089,17.163309
805,Alza Box,570826,Kosmonosy,29306,Průmyslová,993,50.428699,14.935555
806,Alza Box,570826,Kosmonosy,29306,Pod koupalištěm,901,50.441272,14.920619
807,Alza Box,589632,Kostelec na Hané,79841,Třebízského,393,49.512264,17.058319
808,Alza Box,589632,Kostelec na Hané,79841,Tyršova,795,49.5154,17.058723
809,Alza Box,533416,Kostelec nad Černými lesy,28163,Jevanská,190,49.991383,14.854426
810,Alza Box,534935,Kostelec nad Labem,27713,U Pošty,845,50.223656,14.586665
811,Alza Box,534935,Kostelec nad Labem,27713,Neratovická,219,50.229294,14.572832
812,Alza Box,576361,Kostelec nad Orlicí,51741,Rudé armády,1424,50.122116,16.216872
813,Alza Box,537331,Kostomlaty nad Labem,28921,,,50.184505,14.961227
814,Alza Box,567621,Košťany,41723,Mírové náměstí,2,50.655358,13.756005
815,Alza Box,537357,Kounice,28915,Kounice,78,50.108021,14.857293
816,Alza Box,533424,Kouřim,28161,Ruská,198,49.997766,14.97142
817,Alza Box,549517,Kovářov,39855,Kovářov,108,49.517982,14.278728
818,Alza Box,533432,Kozojedy,28163,Kostelecká,301,49.992321,14.818992
819,Alza Box,571792,Kozomín,27745,Kozomín,508,50.242812,14.368073
820,Alza Box,580481,Králíky,56169,Červenovodská,997,50.081028,16.760166
821,Alza Box,580481,Králíky,56169,Moravská,999,50.082001,16.760594
822,Alza Box,559075,Kralovice,33141,Žatecká,946,49.979875,13.490178
823,Alza Box,534951,Kralupy nad Vltavou,27801,Veltruská,815,50.252658,14.318098
824,Alza Box,534951,Kralupy nad Vltavou,27801,Náměstí Jaroslava Seiferta,745,50.247172,14.317177
825,Alza Box,534951,Kralupy nad Vltavou,27801,V Zátiší,735,50.237667,14.302127
826,Alza Box,534951,Kralupy nad Vltavou,27801,,,50.22968,14.293883
827,Alza Box,534951,Kralupy nad Vltavou,27801,Chmelova,1173,50.241039,14.308906
828,Alza Box,534951,Kralupy nad Vltavou,27801,Mostní,814,50.250213,14.318593
829,Alza Box,533203,Králův Dvůr,26701,Plzeňská,370,49.942516,14.027921
830,Alza Box,533203,Králův Dvůr,26701,náměstíMíru,3,49.944718,14.039439
831,Alza Box,560472,Kraslice,35801,náměstí,28,50.329342,12.509879
832,Alza Box,560472,Kraslice,35801,Resslova,1810,50.331045,12.505974
833,Alza Box,562611,Krásná Lípa,40746,Pražská,261,50.911473,14.508439
834,Alza Box,507580,Kravaře,74721,Hlučínská,36,49.930824,18.028079
835,Alza Box,507580,Kravaře,74721,Opavská,3376,49.932239,18.013564
836,Alza Box,529958,Krhanice,25742,Krhanice,149,49.853304,14.55725
837,Alza Box,597520,Krnov,79401,Bezručova,2246,50.09255,17.688366
838,Alza Box,597520,Krnov,79401,Revoluční,2396,50.08844,17.693885
839,Alza Box,597520,Krnov,79401,Opavská,1132,50.087572,17.707809
840,Alza Box,588296,Kroměříž,76701,Moravská,3879,49.288372,17.394769
841,Alza Box,588296,Kroměříž,76701,Hanácké náměstí,475,49.293494,17.388546
842,Alza Box,588296,Kroměříž,76701,Koperníkova,3059,49.301745,17.378475
843,Alza Box,588296,Kroměříž,76701,Oskol,3192,49.297307,17.400489
844,Alza Box,588296,Kroměříž,76701,Albertova,3304,49.289071,17.385596
845,Alza Box,588296,Kroměříž,76701,Kaplanova,1803,49.30693,17.404705
846,Alza Box,588296,Kroměříž,76701,Velehradská,3254,49.284846,17.388567
847,Alza Box,588296,Kroměříž,76701,Obvodová,3310,49.29188,17.404994
848,Alza Box,567639,Krupka,41742,Revoluční,144,50.684467,13.880573
849,Alza Box,567639,Krupka,41742,Lípová,110,50.683631,13.873761
850,Alza Box,567639,Krupka,41741,Bohosudovská,603,50.681056,13.866268
851,Alza Box,567639,Krupka,41742,Revoluční,354,50.684861,13.885917
852,Alza Box,545571,Křemže,38203,Krumlovská,110,48.904929,14.309797
853,Alza Box,545571,Křemže,38203,Náměstí,274,48.905004,14.304529
854,Alza Box,564991,Křenice,25084,,,50.03199,14.668938
855,Alza Box,598356,Kunčice pod Ondřejníkem,73913,Kunčice pod Ondřejníkem,70,49.54236,18.27108
856,Alza Box,538426,Kunice,25163,Na Návsi,124,49.936488,14.668844
857,Alza Box,550744,Kunovice,68604,náměstí Svobody,1457,49.041084,17.465445
858,Alza Box,583251,Kuřim,66434,Blanenská,2030,49.308623,16.53415
859,Alza Box,583251,Kuřim,66434,Legionářská,1020,49.300342,16.530431
860,Alza Box,583251,Kuřim,66434,Tyršova,2048,49.297127,16.547605
861,Alza Box,533955,Kutná Hora,28401,Masarykova,175,49.951382,15.274429
862,Alza Box,533955,Kutná Hora,28401,Masarykova,96,49.955221,15.278585
863,Alza Box,533955,Kutná Hora,28401,K Bělidlu,203,49.948746,15.282222
864,Alza Box,533955,Kutná Hora,28401,Sběrná,654,49.957858,15.275885
865,Alza Box,533955,Kutná Hora,28401,Masarykova,802,49.957338,15.281962
866,Alza Box,533955,Kutná Hora,28401,Ortenova,188,49.96098,15.283389
867,Alza Box,533955,Kutná Hora,28401,Vojtěšská,390,49.947255,15.258234
868,Alza Box,533955,Kutná Hora,28401,Lorecká,655,49.954267,15.270987
869,Alza Box,564982,Květnice,25084,K Dobročovicům,35,50.057275,14.687755
870,Alza Box,586307,Kyjov,69701,Brandlova,1375,49.007645,17.133414
871,Alza Box,586307,Kyjov,69701,Svatoborská,1379,49.004571,17.108146
872,Alza Box,586307,Kyjov,69701,Kollárova,226,49.00767,17.12492
873,Alza Box,560499,Kynšperk nad Ohří,35751,Chebská,897,50.113062,12.531038
874,Alza Box,580511,Lanškroun,56301,Dvořákova,1161,49.911115,16.602029
875,Alza Box,580511,Lanškroun,56301,Husova,999,49.909342,16.611233
876,Alza Box,541991,Lány,27061,Masarykovo náměstí,9,50.124784,13.951078
877,Alza Box,574767,Lázně Bohdaneč,53341,Na Lužci,703,50.06947,15.682653
878,Alza Box,574767,Lázně Bohdaneč,53341,Pernštýnská,656,50.07552,15.679935
879,Alza Box,538914,Lázně Toušeň,25089,Za Školou,287,50.169175,14.71547
880,Alza Box,568988,Ledeč nad Sázavou,58401,Tyršovo nábř.,596,49.694367,15.274249
881,Alza Box,568988,Ledeč nad Sázavou,58401,Pivovarská,703,49.698028,15.281007
882,Alza Box,544736,Ledenice,37311,Budějovická,157,48.935423,14.61122
883,Alza Box,530051,Lešany,25744,Lešany,23,49.842625,14.526916
884,Alza Box,580538,Letohrad,56151,Šedivská,934,50.039545,16.510298
885,Alza Box,580538,Letohrad,56151,Ústecká,850,50.03474,16.5003
886,Alza Box,581917,Letovice,67961,Českobratrská,1062,49.547858,16.575316
887,Alza Box,581917,Letovice,67961,Pražská,1120,49.551119,16.574749
888,Alza Box,539406,Lety,25229,Pražská,559,49.923964,14.26014
889,Alza Box,539414,Libčice nad Vltavou,25266,Chýnovská,683,50.195206,14.353916
890,Alza Box,539414,Libčice nad Vltavou,25266,U Staré školy,108,50.198289,14.365252
891,Alza Box,563889,Liberec,46001,Lípová,595,50.765718,15.059002
892,Alza Box,563889,Liberec,46001,,,50.783484,15.043698
893,Alza Box,563889,Liberec,46015,Olbrachtova,618,50.76082,15.095504
894,Alza Box,563889,Liberec,46001,,,50.774103,15.060693
895,Alza Box,563889,Liberec,46001,Chrastavská,149,50.772731,15.046757
896,Alza Box,563889,Liberec,46001,Voroněžská,1329,50.771876,15.060903
897,Alza Box,563889,Liberec,46001,Londýnská,507,50.774447,15.039193
898,Alza Box,563889,Liberec,46006,Vratislavická,1012,50.748164,15.069675
899,Alza Box,563889,Liberec,46001,,,50.778897,15.062757
900,Alza Box,563889,Liberec,46014,Na Pískovně,646,50.785499,15.062332
901,Alza Box,563889,Liberec,46007,,,50.76327,15.048758
902,Alza Box,563889,Liberec,46311,Zámecký vrch,1170,50.745141,15.094892
903,Alza Box,563889,Liberec,46001,Husova,348,50.770992,15.06511
904,Alza Box,563889,Liberec,46014,náměstíMíru,1106,50.789363,15.067704
905,Alza Box,563889,Liberec,46006,Ježkova,1169,50.75139,15.06249
906,Alza Box,563889,Liberec,46007,Ještědská,535,50.751007,15.032809
907,Alza Box,563889,Liberec,46001,Vrchlického,338,50.780371,15.054105
908,Alza Box,563889,Liberec,46001,Dr. M. Horákové,586,50.752171,15.055729
909,Alza Box,563889,Liberec,46015,Na Bohdalci,715,50.76875,15.087397
910,Alza Box,563889,Liberec,46014,Vrchlického,830,50.784099,15.059892
911,Alza Box,563889,Liberec,46006,Sametová,844,50.761058,15.07082
912,Alza Box,563889,Liberec,46010,Švermova,352,50.763564,15.038162
913,Alza Box,563889,Liberec,46311,Dlouhomostecká,1137,50.742023,15.096305
914,Alza Box,563889,Liberec,46312,Mařanova,387,50.737182,15.052637
915,Alza Box,563889,Liberec,46007,,,50.751776,15.049504
916,Alza Box,563889,Liberec,46006,Dobiášova,1008,50.752171,15.070825
917,Alza Box,563889,Liberec,46312,České mládeže,456,50.740815,15.048802
918,Alza Box,563889,Liberec,46001,náměstí Soukenné,669,50.765221,15.056564
919,Alza Box,563889,Liberec,46006,Ježkova,955,50.750582,15.068895
920,Alza Box,563889,Liberec,46007,Nitranská,410,50.761044,15.053035
921,Alza Box,563889,Liberec,46015,Olbrachtova,808,50.760806,15.090306
922,Alza Box,563889,Liberec,46001,Sousedská,600,50.776691,15.029355
923,Alza Box,563889,Liberec,46001,Polní,604,50.783008,15.038967
924,Alza Box,538442,Líbeznice,25065,Mělnická,35,50.194417,14.494307
925,Alza Box,538442,Líbeznice,25065,Mělnická,395,50.193376,14.493485
926,Alza Box,571784,Libiš,27711,Mělnická,552,50.274172,14.502779
927,Alza Box,565164,Libochovice,41117,Turinského,128,50.406404,14.047964
928,Alza Box,568058,Libouchec,40335,Libouchec,478,50.758333,14.041222
929,Alza Box,532576,Libušín,27306,,,50.169089,14.056826
930,Alza Box,559164,Líně,33021,sady Pionýrů,471,49.694144,13.256049
931,Alza Box,514705,Lipník nad Bečvou,75131,Osecká,1451,49.526185,17.576628
932,Alza Box,514705,Lipník nad Bečvou,75131,Hranická,1443,49.52821,17.593044
933,Alza Box,545597,Lipno nad Vltavou,38278,Lipno nad Vltavou,313,48.638876,14.226073
934,Alza Box,544779,Lišov,37372,tř.,5,49.011528,14.592889
935,Alza Box,544779,Lišov,37372,Nová,635,49.015901,14.610294
936,Alza Box,564567,Litoměřice,41201,,,50.550324,14.126311
937,Alza Box,564567,Litoměřice,41201,Pokratická,1849,50.545051,14.1241
938,Alza Box,564567,Litoměřice,41201,Na Kocandě,2201,50.53593,14.145805
939,Alza Box,564567,Litoměřice,41201,Stránského,1908,50.536728,14.120384
940,Alza Box,564567,Litoměřice,41201,Marie Pomocné,2154,50.53367,14.14306
941,Alza Box,564567,Litoměřice,41201,Žitenická,2084,50.540602,14.142568
942,Alza Box,564567,Litoměřice,41201,Nerudova,1995,50.541122,14.132813
943,Alza Box,564567,Litoměřice,41201,Želetická,2277,50.526615,14.136891
944,Alza Box,578347,Litomyšl,57001,Sokolovská,1166,49.875454,16.305452
945,Alza Box,503444,Litovel,78401,Komárov,820,49.701376,17.071396
946,Alza Box,503444,Litovel,78401,,,49.711045,17.073952
947,Alza Box,503444,Litovel,78401,Dukelská,435,49.705893,17.07398
948,Alza Box,567256,Litvínov,43542,Hamerská,259,50.592744,13.5709
949,Alza Box,567256,Litvínov,43601,Ruská,2121,50.600497,13.607989
950,Alza Box,567256,Litvínov,43601,Jiráskova,877,50.599956,13.616942
951,Alza Box,567256,Litvínov,43601,Mezibořská,2202,50.601635,13.613748
952,Alza Box,567256,Litvínov,43601,Podkrušnohorská,1711,50.608245,13.626067
953,Alza Box,567256,Litvínov,43601,Valdštejnská,2117,50.603878,13.609757
954,Alza Box,567256,Litvínov,43601,Podkrušnohorská,308,50.600816,13.601539
955,Alza Box,567256,Litvínov,43601,U Autodílen,2207,50.59219,13.604803
956,Alza Box,567256,Litvínov,43601,Jiráskova,2181,50.598389,13.617956
957,Alza Box,544795,Litvínovice,37001,Pod Stromovkou,204,48.96366,14.457879
958,Alza Box,531464,Loděnice,26712,Pražská,70,49.997553,14.160754
959,Alza Box,531472,Lochovice,26723,Lochovice,63,49.849996,13.976804
960,Alza Box,560537,Loket,35733,Sportovní,584,50.190903,12.743482
961,Alza Box,577308,Lomnice nad Popelkou,51251,Palackého,657,50.529235,15.376364
962,Alza Box,577308,Lomnice nad Popelkou,51251,Pivovarská,1537,50.532876,15.370529
963,Alza Box,540196,Loštice,78983,Hradská,72,49.744435,16.927377
964,Alza Box,537446,Loučeň,28937,Nymburská,275,50.285884,15.020836
965,Alza Box,538451,Louňovice,25162,Obecní,1,49.982535,14.760543
966,Alza Box,565971,Louny,44001,Husova,2382,50.356978,13.803159
967,Alza Box,565971,Louny,44001,Osvoboditelů,497,50.355392,13.795337
968,Alza Box,565971,Louny,44001,Mírové náměstí,52,50.357679,13.796965
969,Alza Box,565971,Louny,44001,28. října,1792,50.355426,13.816287
970,Alza Box,565971,Louny,44001,Václava Majera,2898,50.353498,13.815567
971,Alza Box,565971,Louny,44001,Komenského náměstí,2771,50.356099,13.802655
972,Alza Box,565229,Lovosice,41002,,,50.506404,14.053609
973,Alza Box,565229,Lovosice,41002,Zámecká,1167,50.516006,14.051343
974,Alza Box,565229,Lovosice,41002,Nádražní,805,50.510213,14.063635
975,Alza Box,565229,Lovosice,41002,K. Maličkého,1227,50.516347,14.04667
976,Alza Box,566438,Lubenec,43983,Karlovarská,25,50.131702,13.314114
977,Alza Box,554634,Luby,35137,Revoluční,465,50.253719,12.402297
978,Alza Box,563692,Lučany nad Nisou,46871,Lučany nad Nisou,692,50.74064,15.224833
979,Alza Box,507971,Ludgeřovice,74714,Markvartovická,1358,49.896792,18.236676
980,Alza Box,507971,Ludgeřovice,74714,Markvartovická,61,49.891099,18.240163
981,Alza Box,585459,Luhačovice,76326,Masarykova,200,49.099116,17.755533
982,Alza Box,536270,Luštěnice,29442,Zelená,414,50.316286,14.912634
983,Alza Box,536270,Luštěnice,29442,Boleslavská,300,50.32006,14.939567
984,Alza Box,503657,Lutín,78349,,,49.557065,17.140268
985,Alza Box,503657,Lutín,78349,Olomoucká,124,49.558355,17.141629
986,Alza Box,571776,Luže,53854,Dukelská,4,49.893777,16.030247
987,Alza Box,535028,Lužec nad Vltavou,27706,9. května,112,50.320877,14.400236
988,Alza Box,537454,Lysá nad Labem,28922,,,50.198526,14.85228
989,Alza Box,537454,Lysá nad Labem,28922,Jedličkova,494,50.199867,14.846348
990,Alza Box,534188,Malešov,28541,Malešov,45,49.910688,15.224687
991,Alza Box,588768,Morkovice-Slížany,76833,Náměstí,30,49.246355,17.204964
992,Alza Box,554642,Mariánské Lázně,35301,,,49.952347,12.703107
993,Alza Box,554642,Mariánské Lázně,35301,Chebská,870,49.963639,12.694943
994,Alza Box,554642,Mariánské Lázně,35301,Tepelská,790,49.947552,12.706288
995,Alza Box,554642,Mariánské Lázně,35301,Chebská,713,49.965292,12.697473
996,Alza Box,539490,Měchenice,25206,Hlavní,191,49.908047,14.389532
997,Alza Box,534676,Mělník,27601,Vodárenská,219,50.35218,14.479981
998,Alza Box,534676,Mělník,27601,Vodárenská,3653,50.353889,14.483778
999,Alza Box,534676,Mělník,27601,Českolipská,3332,50.361576,14.467686
1000,Alza Box,534676,Mělník,27601,Italská,2775,50.342789,14.494788
1001,Alza Box,534676,Mělník,27601,Chloumecká,1715,50.371495,14.497778
1002,Alza Box,534676,Mělník,27601,Sídliště Střed,2595,50.348968,14.481971
1003,Alza Box,534676,Mělník,27601,Klášterní,3630,50.35839,14.47546
1004,Alza Box,534676,Mělník,27601,Českolipská,2735,50.374534,14.466581
1005,Alza Box,534676,Mělník,27601,Mladoboleslavská,3339,50.349333,14.48925
1006,Alza Box,583383,Měnín,66457,Měnín,52,49.080688,16.693289
1007,Alza Box,596116,Měřín,59442,Náměstí,42,49.392183,15.884309
1008,Alza Box,537489,Městec Králové,28903,,,50.206221,15.295872
1009,Alza Box,597635,Město Albrechtice,79395,Míru,12,50.162589,17.573307
1010,Alza Box,500496,Olomouc,77900,Dolní hejčínská,30,49.601835,17.243662
1011,Alza Box,538477,Měšice,25064,Nová,275,50.198976,14.519404
1012,Alza Box,567311,Meziboří,43513,Okružní,392,50.623039,13.593917
1013,Alza Box,554782,Praha,16200,U Vojenské nemocnice,1200,50.088734,14.35938
1014,Alza Box,584649,Mikulov,69201,Pavlovská,1242,48.811065,16.64313
1015,Alza Box,584649,Mikulov,69201,28. října,985,48.803556,16.627306
1016,Alza Box,549576,Milevsko,39901,Darovaná,1436,49.441897,14.360459
1017,Alza Box,549576,Milevsko,39901,náměstíE. Beneše,10,49.449612,14.359824
1018,Alza Box,537501,Milovice,28924,Mírová,74,50.227369,14.882662
1019,Alza Box,537501,Milovice,28924,Armádní,529,50.229601,14.869401
1020,Alza Box,537501,Milovice,28924,Dukelská,306,50.230385,14.886291
1021,Alza Box,537501,Milovice,28924,Spojovací,574,50.228854,14.864867
1022,Alza Box,537501,Milovice,28924,Armádní,192,50.227139,14.879444
1023,Alza Box,561835,Mimoň,47124,Sídliště pod Ralskem,655,50.655228,14.732491
1024,Alza Box,561835,Mimoň,47124,Mírová,78,50.656306,14.724313
1025,Alza Box,561835,Mimoň,47124,Husova,669,50.653647,14.730255
1026,Alza Box,594458,Miroslav,67172,Nádražní,1178,48.940348,16.325216
1027,Alza Box,538485,Mirošovice,25166,,,49.910857,14.720214
1028,Alza Box,549592,Mirovice,39806,Masarykovo náměstí,134,49.51557,14.035207
1029,Alza Box,539911,Příbram,26101,Jana Drdy,528,49.675333,13.983972
1030,Alza Box,535419,Mladá Boleslav,29301,Havlíčkova,1308,50.433808,14.91712
1031,Alza Box,535419,Mladá Boleslav,29301,Jana Palacha,1297,50.428331,14.918582
1032,Alza Box,535419,Mladá Boleslav,29301,Jičínská,1025,50.410202,14.925678
1033,Alza Box,535419,Mladá Boleslav,29301,,,50.412246,14.932483
1034,Alza Box,535419,Mladá Boleslav,29301,,,50.397028,14.88739
1035,Alza Box,535419,Mladá Boleslav,29301,Na Radouči,1451,50.4337,14.907686
1036,Alza Box,535419,Mladá Boleslav,29301,Jičínská,1354,50.409817,14.930839
1037,Alza Box,535419,Mladá Boleslav,29301,tř. Václava Klementa,1459,50.419739,14.915733
1038,Alza Box,535419,Mladá Boleslav,29301,Na Radouči,1120,50.431015,14.906061
1039,Alza Box,535419,Mladá Boleslav,29301,U Stadionu,1276,50.425312,14.912105
1040,Alza Box,535419,Mladá Boleslav,29301,Máchova,693,50.425071,14.913567
1041,Alza Box,535419,Mladá Boleslav,29301,Jiráskova,1280,50.431839,14.922522
1042,Alza Box,535419,Mladá Boleslav,29301,tř. Václava Klementa,1459,50.420943,14.915575
1043,Alza Box,554782,Praha,15300,Grafitová,,49.987368,14.363229
1044,Alza Box,535419,Mladá Boleslav,29301,Jičínská,1350,50.408556,14.939944
1045,Alza Box,552704,Mladá Vožice,39143,Obránců míru,337,49.527679,14.808572
1046,Alza Box,538493,Mnichovice,25164,Ondřejovská,700,49.931861,14.714111
1047,Alza Box,536326,Mnichovo Hradiště,29501,Jiráskova,265,50.522193,14.976904
1048,Alza Box,536326,Mnichovo Hradiště,29501,Nádražní,282,50.521021,14.974597
1049,Alza Box,536326,Mnichovo Hradiště,29501,Černá silnice,369,50.516118,14.964159
1050,Alza Box,536326,Mnichovo Hradiště,29501,V. Nejedlého,1618,50.516676,14.973186
1051,Alza Box,540765,Mníšek pod Brdy,25210,,,49.871466,14.261883
1052,Alza Box,540765,Mníšek pod Brdy,25210,Pražská,1634,49.86839,14.267689
1053,Alza Box,598267,Modletice,25101,Modletice,6,49.97009,14.5914
1054,Alza Box,583391,Modřice,66442,náměstíSvobody,8,49.127377,16.615376
1055,Alza Box,583391,Modřice,66442,U Dálnice,777,49.138651,16.63389
1056,Alza Box,540471,Mohelnice,78985,Družstevní,1389,49.775214,16.933634
1057,Alza Box,540471,Mohelnice,78985,Zábřežská,776,49.777189,16.922248
1058,Alza Box,540471,Mohelnice,78985,1. máje,20,49.775264,16.932003
1059,Alza Box,584665,Moravská Nová Ves,69155,,,48.812644,17.007304
1060,Alza Box,578444,Moravská Třebová,57101,Jiráskova,1352,49.760206,16.650122
1061,Alza Box,578444,Moravská Třebová,57101,,,49.756449,16.645369
1062,Alza Box,578444,Moravská Třebová,57101,Lanškrounská,1447,49.75999,16.664601
1063,Alza Box,578444,Moravská Třebová,57101,Svitavská,1501,49.757033,16.65342
1064,Alza Box,591181,Moravské Budějovice,67602,Mánesova,1500,49.046581,15.816381
1065,Alza Box,591181,Moravské Budějovice,67602,1. máje,118,49.056306,15.808972
1066,Alza Box,591181,Moravské Budějovice,67602,Janáčkova,1331,49.051969,15.812196
1067,Alza Box,594482,Moravský Krumlov,67201,Tiskárenská,1275,49.037861,16.308321
1068,Alza Box,559211,Město Touškov,33033,Čemínská,21,49.776194,13.25148
1069,Alza Box,599689,Mořkov,74272,Dolní,310,49.538844,18.059327
1070,Alza Box,567027,Most,43401,Čsl. armády,1553,50.514758,13.638085
1071,Alza Box,567027,Most,43401,Jana Kubelíka,1091,50.504294,13.65895
1072,Alza Box,567027,Most,43401,Albrechtická,1075,50.489393,13.645626
1073,Alza Box,567027,Most,43401,Velebudická,1241,50.489651,13.653528
1074,Alza Box,567027,Most,43401,Česká,1077,50.48754,13.650234
1075,Alza Box,567027,Most,43401,Tyršova,3460,50.498925,13.631488
1076,Alza Box,567027,Most,43401,Čsl. armády,1831,50.507564,13.633719
1077,Alza Box,567027,Most,43401,Višňová,1011,50.495785,13.656364
1078,Alza Box,567027,Most,43401,V. Nejedlého,1186,50.498056,13.638962
1079,Alza Box,567027,Most,43401,Radniční,3401,50.502193,13.64023
1080,Alza Box,567027,Most,43401,Kabátnická,1701,50.512434,13.64649
1081,Alza Box,567027,Most,43401,Z. Fibicha,2832,50.495883,13.63231
1082,Alza Box,567027,Most,43401,Jaroslava Haška,608,50.504608,13.661562
1083,Alza Box,567027,Most,43401,Jana Opletala,1684,50.514509,13.630543
1084,Alza Box,567027,Most,43401,Chomutovská,1316,50.515482,13.643444
1085,Alza Box,567027,Most,43401,Višňová,3129,50.493348,13.656215
1086,Alza Box,567027,Most,43401,U Stadionu,1563,50.508788,13.647322
1087,Alza Box,567027,Most,43401,J. E. Purkyně,270,50.507893,13.626198
1088,Alza Box,567027,Most,43401,Velebudická,1247,50.486889,13.655889
1089,Alza Box,567027,Most,43401,tř. Budovatelů,991,50.50503,13.640866
1090,Alza Box,598453,Mosty u Jablunkova,73998,Mosty u Jablunkova,800,49.525784,18.752927
1091,Alza Box,538515,Mratín,25063,Kostelecká,222,50.200609,14.546309
1092,Alza Box,565318,Mšené-lázně,41119,Mládežnická,406,50.365325,14.125874
1093,Alza Box,538523,Mukařov,25162,Choceradská,472,49.989234,14.742934
1094,Alza Box,586412,Mutěnice,69611,Dubňanská,595,48.907411,17.033832
1095,Alza Box,560014,Mýto,33805,Náměstí,3,49.789034,13.734788
1096,Alza Box,573868,Náchod,54701,Hrašeho,15,50.417435,16.163761
1097,Alza Box,573868,Náchod,54701,Plhovská,1098,50.418326,16.168693
1098,Alza Box,573868,Náchod,54701,Polská,379,50.424163,16.191401
1099,Alza Box,573868,Náchod,54701,Pražská,373,50.408891,16.157308
1100,Alza Box,573868,Náchod,54701,Růžová,278,50.405269,16.162276
1101,Alza Box,573868,Náchod,54701,Kostelecká,1204,50.423039,16.166318
1102,Alza Box,573868,Náchod,54701,Němcové,2020,50.412364,16.16297
1103,Alza Box,504505,Náměšť na Hané,78344,Sokolská,496,49.601828,17.064953
1104,Alza Box,591211,Náměšť nad Oslavou,67571,Nádražní,683,49.206914,16.151325
1105,Alza Box,585513,Napajedla,76361,Na Kapli,1434,49.172915,17.511873
1106,Alza Box,585513,Napajedla,76361,Palackého,1357,49.177736,17.516952
1107,Alza Box,571911,Nasavrky,53825,Slatiňanská,261,49.84811,15.808911
1108,Alza Box,554014,Návsí,73992,Návsí,288,49.586641,18.759585
1109,Alza Box,538540,Nehvizdy,25081,Pražská,1143,50.133138,14.743907
1110,Alza Box,538540,Nehvizdy,25081,Pražská,702,50.130478,14.733066
1111,Alza Box,555380,Nejdek,36222,Karlovarská,1193,50.319092,12.742265
1112,Alza Box,555380,Nejdek,36221,náměstíKarla IV.,1245,50.324092,12.732392
1113,Alza Box,535079,Nelahozeves,27751,,,50.279011,14.311856
1114,Alza Box,535079,Nelahozeves,27751,Kralupská,305,50.261,14.298842
1115,Alza Box,553158,Neplachovice,74774,Hlavní,220,49.993456,17.812998
1116,Alza Box,558109,Nepomuk,33501,náměstíAugustina Němejce,505,49.485643,13.581291
1117,Alza Box,536351,Nepřevázka,29301,Nepřevázka,49,50.379539,14.917792
1118,Alza Box,535087,Neratovice,27711,Byškovická,1363,50.254924,14.499352
1119,Alza Box,535087,Neratovice,27711,Dr. E. Beneše,1159,50.253564,14.515834
1120,Alza Box,535087,Neratovice,27711,Na Výsluní,1368,50.252494,14.511891
1121,Alza Box,535087,Neratovice,27711,28. října,919,50.25724,14.512716
1122,Alza Box,535087,Neratovice,27711,Mládežnická,422,50.258972,14.518028
1123,Alza Box,550442,Netolice,38411,Obecní,75,49.050002,14.196632
1124,Alza Box,558141,Nezvěstice,33204,Nezvěstice,299,49.640083,13.521939
1125,Alza Box,592439,Nivnice,68751,náměstíMíru,176,48.976938,17.643859
1126,Alza Box,531596,Nižbor,26705,Křivoklátská,71,49.999772,14.00246
1127,Alza Box,546798,Nová Bystřice,37833,Žižkova,820,49.020023,15.099658
1128,Alza Box,573248,Nová Paka,50901,Husitská,1922,50.486949,15.512679
1129,Alza Box,573248,Nová Paka,50901,Krkonošská,1826,50.494587,15.521773
1130,Alza Box,555398,Nová Role,36225,Chodovská,235,50.270976,12.784305
1131,Alza Box,546801,Nová Včelnice,37842,Čechova,479,49.239611,15.068528
1132,Alza Box,535117,Nová Ves,27752,Nová Ves,608,50.314127,14.307973
1133,Alza Box,538558,Nová Ves,25063,Nová Ves,427,50.219145,14.533986
1134,Alza Box,540889,Nová Ves pod Pleší,26204,Tyršova,123,49.828345,14.273515
1135,Alza Box,544868,Nové Hrady,37333,Vitorazská,295,48.789556,14.783004
1136,Alza Box,596230,Nové Město na Moravě,59231,Křičkova,1556,49.567271,16.079937
1137,Alza Box,596230,Nové Město na Moravě,59231,Brněnská,110,49.560932,16.075663
1138,Alza Box,574279,Nové Město nad Metují,54901,Dukelská,662,50.353877,16.154135
1139,Alza Box,574279,Nové Město nad Metují,54901,Malecí,578,50.356704,16.147035
1140,Alza Box,574279,Nové Město nad Metují,54901,,,50.351901,16.150975
1141,Alza Box,574279,Nové Město nad Metují,54901,T. G. Masaryka,2002,50.359748,16.146959
1142,Alza Box,574279,Nové Město nad Metují,54901,Nahořanská,414,50.353389,16.124611
1143,Alza Box,564265,Nové Město pod Smrkem,46365,Švermova,953,50.925728,15.228602
1144,Alza Box,560570,Nové Sedlo,35734,Masarykova,502,50.208348,12.742069
1145,Alza Box,542164,Nové Strašecí,27101,Nové Strašecí,1170,50.157072,13.895125
1146,Alza Box,542164,Nové Strašecí,27101,1. máje,816,50.148525,13.899696
1147,Alza Box,567752,Novosedlice,41731,Vrchoslavská,60,50.660116,13.823466
1148,Alza Box,505781,Zápy,25061,Zápy,275,50.175667,14.671139
1149,Alza Box,561860,Nový Bor,47301,B. Egermanna,231,50.76266,14.550627
1150,Alza Box,561860,Nový Bor,47301,Tř. T. G. Masaryka,8,50.757443,14.555581
1151,Alza Box,561860,Nový Bor,47301,B. Egermanna,881,50.766312,14.544685
1152,Alza Box,570508,Nový Bydžov,50401,J. Nerudy,1650,50.245915,15.492262
1153,Alza Box,570508,Nový Bydžov,50401,Jana Maláta,1910,50.242799,15.48407
1154,Alza Box,544566,Nový Hrozenkov,75604,Nový Hrozenkov,764,49.338877,18.20138
1155,Alza Box,599191,Nový Jičín,74101,B. Martinů,2097,49.585769,18.003216
1156,Alza Box,599191,Nový Jičín,74101,Gen. Hlaďo,1849,49.593578,18.012699
1157,Alza Box,599191,Nový Jičín,74101,,,49.597141,18.010141
1158,Alza Box,599191,Nový Jičín,74101,Přemyslovců,1,49.600282,18.010542
1159,Alza Box,540901,Nový Knín,26203,Na Smíchově,93,49.78729,14.288635
1160,Alza Box,531618,Nučice,25216,Tyršova,234,50.015682,14.22368
1161,Alza Box,564907,Nupaky,25101,Benická,519,49.99567,14.602998
1162,Alza Box,537004,Nymburk,28802,Jurije Gagarina,4001,50.185862,15.027871
1163,Alza Box,537004,Nymburk,28802,,,50.193527,15.037924
1164,Alza Box,537004,Nymburk,28802,Sadová,2167,50.19129,15.030161
1165,Alza Box,537004,Nymburk,28802,Mládežnická,2086,50.185138,15.030529
1166,Alza Box,538299,Kamenice,25168,Táhlá,883,49.891823,14.564786
1167,Alza Box,556831,Nýrsko,34022,Klatovská,662,49.293791,13.145146
1168,Alza Box,556831,Nýrsko,34022,Sídl. II,853,49.296415,13.149257
1169,Alza Box,559300,Nýřany,33023,Revoluční,924,49.712117,13.196767
1170,Alza Box,559300,Nýřany,33023,Revoluční,1213,49.713194,13.205874
1171,Alza Box,535133,Obříství,27742,Svatopluka Čecha,36,50.295954,14.477439
1172,Alza Box,538574,Odolena Voda,25070,K Šálku,331,50.223814,14.416788
1173,Alza Box,538574,Odolena Voda,25070,Dolní náměstí,166,50.233499,14.410106
1174,Alza Box,538574,Odolena Voda,25070,Ke Stadionu,519,50.226775,14.409904
1175,Alza Box,599701,Odry,74235,Nádražní,865,49.666939,17.831331
1176,Alza Box,539503,Ohrobec,25245,Károvská,128,49.943581,14.432084
1177,Alza Box,500496,Olomouc,77900,Schweitzerova,538,49.582861,17.249332
1178,Alza Box,500496,Olomouc,77900,Čajkovského,591,49.576915,17.233452
1179,Alza Box,500496,Olomouc,77900,,,49.571158,17.251929
1180,Alza Box,500496,Olomouc,77900,Chválkovická,223,49.606769,17.28085
1181,Alza Box,500496,Olomouc,77900,Sokolovská,80,49.599764,17.267189
1182,Alza Box,500496,Olomouc,77900,U Kovárny,909,49.595702,17.227826
1183,Alza Box,500496,Olomouc,77900,Polská,346,49.585118,17.253208
1184,Alza Box,500496,Olomouc,77900,Na Šibeníku,914,49.597188,17.236222
1185,Alza Box,538345,Kojetice,25072,Ke kněžihorce,119,50.237018,14.498505
1186,Alza Box,500496,Olomouc,77900,Brněnská,483,49.578539,17.239603
1187,Alza Box,500496,Olomouc,77900,tř. Svornosti,1177,49.593156,17.228657
1188,Alza Box,500496,Olomouc,77900,Wolkerova,37,49.587895,17.245621
1189,Alza Box,569810,Hradec Králové,50009,Na Drahách,656,50.203768,15.857999
1190,Alza Box,596230,Nové Město na Moravě,59231,Komenského náměstí,999,49.563083,16.075644
1191,Alza Box,500496,Olomouc,77900,Rooseveltova,520,49.577128,17.256708
1192,Alza Box,500496,Olomouc,77900,8. května,465,49.594764,17.250153
1193,Alza Box,500496,Olomouc,77900,Kafkova,1223,49.574863,17.229129
1194,Alza Box,500496,Olomouc,77900,Jeremenkova,40,49.590098,17.277459
1195,Alza Box,500496,Olomouc,77900,Dlouhá,524,49.601473,17.25727
1196,Alza Box,500496,Olomouc,77900,Pasteurova,905,49.599033,17.272001
1197,Alza Box,500496,Olomouc,77900,Polská,1,49.586472,17.258056
1198,Alza Box,500496,Olomouc,77900,Horní Lán,9,49.575131,17.231509
1199,Alza Box,500496,Olomouc,77900,Pražská,39,49.601455,17.221774
1200,Alza Box,575429,Opatovice nad Labem,53345,Vavřinecká,279,50.147696,15.791246
1201,Alza Box,575429,Opatovice nad Labem,53345,Hradecká,83,50.154188,15.791985
1202,Alza Box,505927,Opava,74601,Zámecký okruh,996,49.937971,17.911288
1203,Alza Box,505927,Opava,74707,Krnovská,566,49.953954,17.868232
1204,Alza Box,505927,Opava,74601,Olomoucká,2995,49.930548,17.874217
1205,Alza Box,505927,Opava,74705,Na Pastvisku,1571,49.948065,17.908148
1206,Alza Box,505927,Opava,74705,Hlučínská,1710,49.944672,17.928425
1207,Alza Box,505927,Opava,74601,Ratibořská,1475,49.941659,17.911117
1208,Alza Box,505927,Opava,74601,Rybářská,2903,49.942351,17.898276
1209,Alza Box,505927,Opava,74601,Těšínská,2830,49.928773,17.94006
1210,Alza Box,505927,Opava,74706,Bílovecká,758,49.919194,17.911528
1211,Alza Box,505927,Opava,74601,Těšínská,2914,49.93275,17.917194
1212,Alza Box,576590,Opočno,51773,Mírová,650,50.271455,16.112733
1213,Alza Box,576590,Opočno,51773,Dobrušská,724,50.271087,16.119394
1214,Alza Box,599069,Orlová,73514,Okružní,1430,49.88012,18.431943
1215,Alza Box,599069,Orlová,73514,Masarykova tř.,795,49.870818,18.425573
1216,Alza Box,599069,Orlová,73514,Slezská,1300,49.860969,18.425763
1217,Alza Box,599069,Orlová,73514,F. S. Tůmy,1200,49.876596,18.437145
1218,Alza Box,599069,Orlová,73514,Okružní,1440,49.878472,18.432694
1219,Alza Box,583561,Ořechov,66444,Zahradní,216,49.111972,16.51848
1220,Alza Box,567779,Osek,41705,Tyršova,683,50.625312,13.691199
1221,Alza Box,563129,Klášterec nad Ohří,43151,Jana Ámose Komenského,697,50.389352,13.186873
1222,Alza Box,583588,Oslavany,66412,,,49.120565,16.336213
1223,Alza Box,554821,Ostrava,70900,Novoveská,101,49.836317,18.255937
1224,Alza Box,554821,Ostrava,70030,Pavlovova,3048,49.795976,18.240635
1225,Alza Box,554821,Ostrava,70200,Hornopolní,3358,49.83742,18.274694
1226,Alza Box,554821,Ostrava,70030,Hasičská,551,49.792333,18.259514
1227,Alza Box,554821,Ostrava,70900,28. října,2020,49.827122,18.25257
1228,Alza Box,554821,Ostrava,70030,Lužická,590,49.777128,18.220207
1229,Alza Box,554821,Ostrava,70900,Karasova,1130,49.829368,18.250046
1230,Alza Box,554821,Ostrava,72000,Paskovská,39,49.773599,18.282543
1231,Alza Box,554821,Ostrava,70300,Rudná,2,49.80776,18.270902
1232,Alza Box,554821,Ostrava,70800,Skautská,6093,49.823364,18.177875
1233,Alza Box,554821,Ostrava,72100,,,49.820217,18.208305
1234,Alza Box,554821,Ostrava,70030,Zimmlerova,313,49.809021,18.236399
1235,Alza Box,554821,Ostrava,70800,Miroslava Bajera,6040,49.844519,18.168528
1236,Alza Box,554821,Ostrava,70800,Sokolovská,1333,49.836558,18.181371
1237,Alza Box,554821,Ostrava,70800,17. listopadu,6236,49.824692,18.16005
1238,Alza Box,554821,Ostrava,70900,U Dvoru,2031,49.833144,18.253777
1239,Alza Box,554821,Ostrava,70800,Heyrovského,6174,49.841762,18.177751
1240,Alza Box,554821,Ostrava,70030,Gurťjevova,2299,49.792868,18.233907
1241,Alza Box,554821,Ostrava,72300,Martinovská,3168,49.853753,18.183603
1242,Alza Box,554821,Ostrava,72400,Proskovická,1169,49.762381,18.20464
1243,Alza Box,554821,Ostrava,70900,Grmelova,2100,49.834728,18.249601
1244,Alza Box,554821,Ostrava,70800,Hlavní třída,1196,49.826333,18.179811
1245,Alza Box,554821,Ostrava,71200,Švédská,749,49.851461,18.302864
1246,Alza Box,554821,Ostrava,70800,Bedřicha Nikodema,360,49.842875,18.170191
1247,Alza Box,554821,Ostrava,70030,Výškovická,3086,49.799809,18.230741
1248,Alza Box,554821,Ostrava,70030,Klegova,771,49.788513,18.266559
1249,Alza Box,554821,Ostrava,71300,Vrbická,614,49.859483,18.329904
1250,Alza Box,554821,Ostrava,70800,Oty Synka,1876,49.845456,18.160639
1251,Alza Box,554821,Ostrava,70200,Kolejní,3254,49.834195,18.283919
1252,Alza Box,554821,Ostrava,70030,Zimmlerova,2907,49.811072,18.232866
1253,Alza Box,554821,Ostrava,71600,Těšínská,1403,49.817155,18.33339
1254,Alza Box,554821,Ostrava,72400,Blanická,973,49.763288,18.237383
1255,Alza Box,554821,Ostrava,70030,Mjr. Nováka,1262,49.781172,18.266003
1256,Alza Box,554821,Ostrava,70030,Plzeňská,2622,49.791684,18.246492
1257,Alza Box,554821,Ostrava,71000,Hladnovská,1944,49.844276,18.306409
1258,Alza Box,554821,Ostrava,70800,Studentská,1770,49.836806,18.156944
1259,Alza Box,554821,Ostrava,70030,náměstíSlovenského národního povstání,4368,49.791055,18.238018
1260,Alza Box,554821,Ostrava,70200,P. Křičky,2863,49.828197,18.274431
1261,Alza Box,554821,Ostrava,70030,Dr. Martínka,1656,49.783166,18.259903
1262,Alza Box,554821,Ostrava,71800,Škrobálkova,61,49.808036,18.295014
1263,Alza Box,554821,Ostrava,70800,Otakara Jeremiáše,1973,49.843934,18.156083
1264,Alza Box,554821,Ostrava,70030,Jugoslávská,3038,49.804714,18.240993
1265,Alza Box,554821,Ostrava,70200,,,49.855268,18.276043
1266,Alza Box,554821,Ostrava,70900,Grmelova,2032,49.835886,18.248306
1267,Alza Box,554821,Ostrava,70200,Masarykovo náměstí,3090,49.836868,18.292672
1268,Alza Box,554821,Ostrava,70800,Čkalovova,20,49.829722,18.176198
1269,Alza Box,554821,Ostrava,70030,Horní,300,49.775349,18.249473
1270,Alza Box,554821,Ostrava,70030,Závodní,1587,49.794391,18.265086
1271,Alza Box,554821,Ostrava,70030,U Hrůbků,154,49.807804,18.232004
1272,Alza Box,554821,Ostrava,71000,Lechova,1596,49.834333,18.337833
1273,Alza Box,554821,Ostrava,70800,Martinovská,6186,49.837778,18.188167
1274,Alza Box,554821,Ostrava,70030,,,49.787796,18.25732
1275,Alza Box,554821,Ostrava,70030,Výškovická,3067,49.790214,18.227528
1276,Alza Box,554821,Ostrava,70200,Novinářská,3178,49.833033,18.266663
1277,Alza Box,554821,Ostrava,70030,Rudná,114,49.802518,18.227196
1278,Alza Box,554821,Ostrava,70800,Opavská,1140,49.83277,18.177318
1279,Alza Box,554821,Ostrava,70900,1. máje,6,49.827765,18.257644
1280,Alza Box,554821,Ostrava,70800,17. listopadu,6225,49.83729,18.169475
1281,Alza Box,554821,Ostrava,70200,Nádražní,3234,49.849259,18.276976
1282,Alza Box,554821,Ostrava,70200,Vítkovická,3278,49.829788,18.279885
1283,Alza Box,554821,Ostrava,72100,Sjízdná,5554,49.82737,18.201234
1284,Alza Box,554821,Ostrava,70030,Jugoslávská,3019,49.80141,18.243205
1285,Alza Box,554821,Ostrava,72000,Prodloužená,807,49.773961,18.264854
1286,Alza Box,554821,Ostrava,72527,Spojovací,396,49.848444,18.14525
1287,Alza Box,554821,Ostrava,70030,Patrice Lumumby,2717,49.788142,18.227923
1288,Alza Box,554821,Ostrava,70800,Opavská,6201,49.82919,18.188195
1289,Alza Box,554821,Ostrava,70030,Horní,298,49.780182,18.254437
1290,Alza Box,598542,Ostravice,73914,Ostravice,292,49.53942,18.392823
1291,Alza Box,555428,Ostrov,36301,Hlavní třída,714,50.31003,12.945119
1292,Alza Box,555428,Ostrov,36301,Klínovecká,1204,50.306266,12.949897
1293,Alza Box,555428,Ostrov,36301,Jáchymovská,1497,50.315199,12.945156
1294,Alza Box,555428,Ostrov,36301,Lidická,1285,50.307206,12.944622
1295,Alza Box,555428,Ostrov,36301,Jáchymovská,1460,50.314694,12.947028
1296,Alza Box,592463,Ostrožská Nová Ves,68722,Lhotská,920,49.004478,17.435612
1297,Alza Box,537969,Otovice,36001,Hroznětínská,181,50.254355,12.873865
1298,Alza Box,585599,Otrokovice,76502,Dr. E. Beneše,1914,49.200535,17.535511
1299,Alza Box,563277,Otvice,43111,Obchodní zóna,266,50.483679,13.444092
1300,Alza Box,533572,Ovčáry,28002,,,50.060132,15.232139
1301,Alza Box,533572,Ovčáry,28002,Ovčáry č.p.,304,50.062222,15.229167
1302,Alza Box,548511,Pacov,39501,,,49.469972,15.002056
1303,Alza Box,548511,Pacov,39501,Na Blatech,834,49.478587,15.006031
1304,Alza Box,598551,Palkovice,73941,Palkovice,322,49.637259,18.31788
1305,Alza Box,538604,Panenské Břežany,25070,Hlavní,17,50.214034,14.441035
1306,Alza Box,555134,Pardubice,53002,Masarykovo náměstí,2799,50.037204,15.768945
1307,Alza Box,555134,Pardubice,53003,Spojilská,1616,50.034217,15.805281
1308,Alza Box,555134,Pardubice,53009,Karla Šípka,291,50.052358,15.758326
1309,Alza Box,555134,Pardubice,53012,Jana Zajíce,982,50.043479,15.809003
1310,Alza Box,555134,Pardubice,53003,Staré náměstí,1,50.012598,15.795951
1311,Alza Box,555134,Pardubice,53009,Ohrazenická,310,50.049973,15.763387
1312,Alza Box,555134,Pardubice,53002,17. listopadu,2821,50.032613,15.77006
1313,Alza Box,555134,Pardubice,53002,Masarykovo náměstí,2799,50.036579,15.769425
1314,Alza Box,555134,Pardubice,53301,S. K. Neumanna,2819,50.025593,15.779975
1315,Alza Box,555134,Pardubice,53002,Na Spravedlnosti,1533,50.029237,15.77587
1316,Alza Box,555134,Pardubice,53003,Kyjevská,45,50.02909,15.790565
1317,Alza Box,555134,Pardubice,53002,Teplého,2806,50.027012,15.761387
1318,Alza Box,555134,Pardubice,53002,Semtín,112,50.061435,15.727567
1319,Alza Box,555134,Pardubice,53002,S. K. Neumanna,2869,50.022595,15.778856
1320,Alza Box,555134,Pardubice,53002,,,50.014279,15.771718
1321,Alza Box,555134,Pardubice,53006,Kostnická,495,50.027429,15.731046
1322,Alza Box,555134,Pardubice,53006,Pražská,200,50.021024,15.729766
1323,Alza Box,555134,Pardubice,53009,,,50.046752,15.766004
1324,Alza Box,555134,Pardubice,53009,Poděbradská,293,50.058751,15.752736
1325,Alza Box,555134,Pardubice,53012,Jana Zajíce,875,50.045074,15.806891
1326,Alza Box,555134,Pardubice,53002,Bělehradská,628,50.047172,15.75097
1327,Alza Box,598569,Paskov,73921,Nádražní,146,49.732482,18.293095
1328,Alza Box,579581,Pec pod Sněžkou,54221,Velká Úpa,330,50.693254,15.746809
1329,Alza Box,537641,Pečky,28911,,,50.097445,15.039772
1330,Alza Box,537641,Pečky,28911,J. A. Komenského,706,50.090337,15.027196
1331,Alza Box,537641,Pečky,28911,Chvalovická,483,50.092,15.029917
1332,Alza Box,547492,Pelhřimov,39301,Pražská,2017,49.43768,15.213888
1333,Alza Box,547492,Pelhřimov,39301,Pražská,2276,49.440006,15.210955
1334,Alza Box,547492,Pelhřimov,39301,Solní,1924,49.432276,15.222658
1335,Alza Box,547492,Pelhřimov,39301,Průběžná,2271,49.429618,15.2269
1336,Alza Box,599077,Petrovice u Karviné,73572,Dolní Marklovice,244,49.882593,18.547551
1337,Alza Box,599085,Petřvald,73541,Závodní,1843,49.829243,18.38912
1338,Alza Box,599085,Petřvald,73541,Březinská,1721,49.83393,18.387712
1339,Alza Box,532720,Pchery,27308,5.května,361,50.188501,14.110711
1340,Alza Box,570826,Kosmonosy,29306,Havlíčkova,1255,50.434222,14.915444
1341,Alza Box,549240,Písek,39701,Jablonského,472,49.315027,14.142855
1342,Alza Box,549240,Písek,39701,Hradišťská,2689,49.30258,14.139306
1343,Alza Box,549240,Písek,39701,Budějovické Předměstí,2598,49.297115,14.159707
1344,Alza Box,549240,Písek,39701,Nábřeží,1,49.312904,14.145809
1345,Alza Box,549240,Písek,39701,Šobrova,2144,49.303514,14.159179
1346,Alza Box,549240,Písek,39701,U Nádraží,2565,49.298037,14.142867
1347,Alza Box,561134,Planá,34815,Plzeňská,916,49.863472,12.735972
1348,Alza Box,552828,Planá nad Lužnicí,39111,Čsla.,119,49.354605,14.701318
1349,Alza Box,552828,Planá nad Lužnicí,39111,,,49.350986,14.703974
1350,Alza Box,559351,Plasy,33101,Plzeňská,472,49.932719,13.38737
1351,Alza Box,532738,Pletený Újezd,27351,,,50.109257,14.116444
1352,Alza Box,589896,Plumlov,79803,Tyršovo náměstí,544,49.466168,17.014963
1353,Alza Box,554791,Plzeň,30100,Konzumní,173,49.692456,13.322482
1354,Alza Box,554791,Plzeň,32600,Lobezská,984,49.737318,13.400248
1355,Alza Box,554791,Plzeň,32600,,,49.72293,13.401556
1356,Alza Box,554791,Plzeň,32300,Lidická,854,49.767373,13.37321
1357,Alza Box,554791,Plzeň,30100,Dobřanská,137,49.708608,13.331553
1358,Alza Box,554791,Plzeň,32300,Žlutická,1840,49.775921,13.3605
1359,Alza Box,554791,Plzeň,32300,Gerská,1247,49.778751,13.370052
1360,Alza Box,554791,Plzeň,30100,,,49.739828,13.372711
1361,Alza Box,554791,Plzeň,30100,Kollárova,355,49.747406,13.369972
1362,Alza Box,554791,Plzeň,30100,Majerova,2525,49.727805,13.37377
1363,Alza Box,554791,Plzeň,32600,Houškova,2594,49.737344,13.391293
1364,Alza Box,554791,Plzeň,31800,Karla Steinera,1075,49.743125,13.32987
1365,Alza Box,554791,Plzeň,32600,Štefánikova,662,49.696308,13.416272
1366,Alza Box,554791,Plzeň,31800,Františka Kováříka,1331,49.747182,13.318275
1367,Alza Box,554791,Plzeň,32600,Úslavská,431,49.742892,13.389887
1368,Alza Box,554791,Plzeň,30100,Brožíkova,2615,49.733092,13.361545
1369,Alza Box,554791,Plzeň,32300,,,49.780257,13.3759
1370,Alza Box,554791,Plzeň,32200,Chebská,286,49.756021,13.306394
1371,Alza Box,554791,Plzeň,32600,Pěnkavova,535,49.709578,13.414772
1372,Alza Box,554791,Plzeň,30100,E. Beneše,2438,49.726435,13.376525
1373,Alza Box,554791,Plzeň,31800,Macháčkova,944,49.745338,13.327376
1374,Alza Box,554791,Plzeň,32600,Jedlová,985,49.735389,13.389633
1375,Alza Box,554791,Plzeň,32300,Studentská,1921,49.774914,13.361928
1376,Alza Box,554791,Plzeň,32600,Papírnická,2570,49.737198,13.387002
1377,Alza Box,554791,Plzeň,31200,Lesní,1131,49.756667,13.422674
1378,Alza Box,554791,Plzeň,31800,,,49.746158,13.350417
1379,Alza Box,554791,Plzeň,31200,Masarykova,1201,49.751763,13.415042
1380,Alza Box,554791,Plzeň,30100,Lochotínská,1108,49.75232,13.37767
1381,Alza Box,554791,Plzeň,32300,Brněnská,1078,49.761957,13.35447
1382,Alza Box,554791,Plzeň,31200,Rokycanská,1424,49.74612,13.438286
1383,Alza Box,554791,Plzeň,32600,Částkova,1185,49.734848,13.405334
1384,Alza Box,554791,Plzeň,30100,Radčická,2,49.749056,13.369159
1385,Alza Box,554791,Plzeň,32300,Žlutická,1712,49.779662,13.361101
1386,Alza Box,554791,Plzeň,32100,Klatovská,22,49.699223,13.355148
1387,Alza Box,554791,Plzeň,32600,Sušická,119,49.731653,13.420468
1388,Alza Box,554791,Plzeň,32300,Sokolovská,74,49.771941,13.369986
1389,Alza Box,554791,Plzeň,32600,Nepomucká,53,49.712336,13.411311
1390,Alza Box,554791,Plzeň,32300,,,49.770792,13.398702
1391,Alza Box,554791,Plzeň,32300,alej Svobody,923,49.763488,13.379824
1392,Alza Box,554791,Plzeň,30100,Edvarda Beneše,1128,49.731776,13.376664
1393,Alza Box,554791,Plzeň,30100,U Prazdroje,1,49.746424,13.390157
1394,Alza Box,554791,Plzeň,30100,Doudlevecká,2834,49.734517,13.379323
1395,Alza Box,554791,Plzeň,32600,Písecká,972,49.701336,13.426818
1396,Alza Box,554791,Plzeň,31800,Vejprnická,1157,49.744186,13.339688
1397,Alza Box,554791,Plzeň,31800,Domažlická,168,49.73575,13.328152
1398,Alza Box,554791,Plzeň,30100,Americká,2186,49.744245,13.384603
1399,Alza Box,554791,Plzeň,32300,Alej Svobody,770,49.767873,13.364303
1400,Alza Box,554791,Plzeň,30100,Skupova,490,49.722953,13.373606
1401,Alza Box,554791,Plzeň,32300,Lidická,1233,49.766611,13.374222
1402,Alza Box,554791,Plzeň,31200,Masarykova,1201,49.75245,13.415485
1403,Alza Box,554791,Plzeň,30100,Sukova,2895,49.728373,13.361482
1404,Alza Box,554791,Plzeň,32300,Gerská,1845,49.775836,13.368584
1405,Alza Box,554791,Plzeň,32600,náměstíGenerála Píky,2703,49.732622,13.400948
1406,Alza Box,548561,Počátky,39464,,,49.259037,15.229893
1407,Alza Box,566616,Podbořany,44101,Dělnická,313,50.222597,13.408299
1408,Alza Box,566616,Podbořany,44101,Dukelská,99,50.229372,13.40915
1409,Alza Box,537683,Poděbrady,29001,Kunštátská,1135,50.152843,15.131339
1410,Alza Box,537683,Poděbrady,29001,U Garáží,839,50.152968,15.117866
1411,Alza Box,537683,Poděbrady,29001,Družstevní,5,50.147961,15.124261
1412,Alza Box,537683,Poděbrady,29001,Bílkova,289,50.134602,15.102575
1413,Alza Box,537683,Poděbrady,29001,U Bažantnice,1506,50.145494,15.130985
1414,Alza Box,537683,Poděbrady,29001,Bílkova,270,50.134889,15.098
1415,Alza Box,537683,Poděbrady,29001,Na Valech,54,50.143467,15.116299
1416,Alza Box,584801,Pohořelice,69123,Vídeňská,996,48.979999,16.516719
1417,Alza Box,584801,Pohořelice,69123,,,48.9775,16.501875
1418,Alza Box,538639,Polerady,25063,Polerady,25,50.200234,14.59652
1419,Alza Box,574341,Police nad Metují,54954,Komenského náměstí,110,50.539162,16.232755
1420,Alza Box,578576,Polička,57201,Jiráskova,820,49.708761,16.264546
1421,Alza Box,578576,Polička,57201,Tyršova,60,49.717747,16.266594
1422,Alza Box,578576,Polička,57201,Hegerova,923,49.718575,16.27636
1423,Alza Box,578576,Polička,57201,Starohradská,359,49.714485,16.260382
1424,Alza Box,587711,Polná,58813,Palackého,1210,49.485691,15.730611
1425,Alza Box,583669,Popůvky,66441,Náves,426,49.178321,16.488768
1426,Alza Box,537705,Poříčany,28914,Českobrodská,437,50.111079,14.919651
1427,Alza Box,530441,Poříčí nad Sázavou,25721,Pražská,21,49.839213,14.674453
1428,Alza Box,566624,Postoloprty,43942,B. Němcové,594,50.360501,13.696274
1429,Alza Box,540773,Postřelmov,78969,Komenského,137,49.908609,16.91249
1430,Alza Box,538647,Postřižín,25070,Teplická,112,50.232607,14.387867
1431,Alza Box,568155,Povrly,40332,Mírová,13,50.67314,14.161312
1432,Alza Box,583677,Pozořice,66407,Na Městečku,57,49.20982,16.791019
1433,Alza Box,554782,Praha,11000,Purkyňova,2121,50.081725,14.419827
1434,Alza Box,554782,Praha,11000,Vodičkova,710,50.081453,14.423924
1435,Alza Box,554782,Praha,11000,Na Florenci,2116,50.089008,14.434846
1436,Alza Box,554782,Praha,11000,Hybernská,1033,50.087329,14.431518
1437,Alza Box,554782,Praha,11800,Nosticova,634,50.084518,14.406366
1438,Alza Box,554782,Praha,11800,Dlabačov,294,50.086426,14.385944
1439,Alza Box,554782,Praha,11000,náměstí Republiky,1,50.089316,14.429472
1440,Alza Box,554782,Praha,10000,U Slavie,1527,50.067683,14.46905
1441,Alza Box,554782,Praha,10600,,,50.060273,14.494146
1442,Alza Box,554782,Praha,11101,,,50.058316,14.554382
1443,Alza Box,554782,Praha,10000,Litevská,1281,50.071695,14.476646
1444,Alza Box,554782,Praha,10000,Průběžná,387,50.067939,14.493672
1445,Alza Box,554782,Praha,10600,Švehlova,1454,50.061156,14.506324
1446,Alza Box,554782,Praha,10800,Průmyslová,614,50.077257,14.538595
1447,Alza Box,554782,Praha,10800,Akademická,696,50.085663,14.502098
1448,Alza Box,554782,Praha,10000,Nad Kapličkou,3324,50.083807,14.489783
1449,Alza Box,554782,Praha,10000,Na Padesátém,789,50.064958,14.505187
1450,Alza Box,554782,Praha,10800,Nad Vodovodem,455,50.082077,14.496742
1451,Alza Box,554782,Praha,10000,Ruská,1561,50.073426,14.471959
1452,Alza Box,554782,Praha,10000,Dubečská,1390,50.066411,14.50041
1453,Alza Box,554782,Praha,10800,Počernická,687,50.082045,14.500125
1454,Alza Box,554782,Praha,10800,Sazečská,598,50.082384,14.519865
1455,Alza Box,554782,Praha,10000,Brigádníků,2,50.07461,14.496286
1456,Alza Box,554782,Praha,10000,,,50.064511,14.49455
1457,Alza Box,554782,Praha,10000,Ruská,2580,50.073363,14.467151
1458,Alza Box,554782,Praha,10600,Švehlova,3309,50.058072,14.512301
1459,Alza Box,554782,Praha,10000,Saratovská,3066,50.073653,14.492919
1460,Alza Box,554782,Praha,10600,V Korytech,157,50.056124,14.493311
1461,Alza Box,554782,Praha,10000,Dobročovická,1671,50.070668,14.507593
1462,Alza Box,599051,Bohumín,73581,Šunychelská,845,49.909958,18.356664
1463,Alza Box,554782,Praha,10800,Sazečská,247,50.076038,14.519142
1464,Alza Box,554782,Praha,10900,Kurčatovova,323,50.032768,14.563867
1465,Alza Box,554782,Praha,10000,,,50.072645,14.491232
1466,Alza Box,554782,Praha,10100,Slovenská,2,50.072624,14.447825
1467,Alza Box,554782,Praha,10600,Jabloňová,2136,50.057391,14.496404
1468,Alza Box,554782,Praha,10000,Vinohradská,3217,50.077371,14.487615
1469,Alza Box,554782,Praha,10000,Pod Altánem,2406,50.069603,14.489375
1470,Alza Box,554782,Praha,10000,V Olšinách,3140,50.072483,14.497384
1471,Alza Box,554782,Praha,10600,Švehlova,3125,50.060229,14.506436
1472,Alza Box,554782,Praha,10000,Goyova,2238,50.06808,14.509737
1473,Alza Box,554782,Praha,10000,,,50.075086,14.507415
1474,Alza Box,554782,Praha,10100,Vršovická,1462,50.067467,14.4623
1475,Alza Box,554782,Praha,10000,Přetlucká,3422,50.062903,14.511386
1476,Alza Box,554782,Praha,10000,Bělocerkevská,1301,50.072262,14.471565
1477,Alza Box,554782,Praha,10000,Turnovského,497,50.075425,14.500466
1478,Alza Box,554782,Praha,10000,Tuklatská,2104,50.077856,14.498724
1479,Alza Box,554782,Praha,10000,Vladivostocká,1460,50.068816,14.4779
1480,Alza Box,554782,Praha,10000,Na hroudě,3340,50.070185,14.486886
1481,Alza Box,554782,Praha,10000,V Předpolí,279,50.071711,14.482567
1482,Alza Box,554782,Praha,10800,Počernická,473,50.083426,14.50686
1483,Alza Box,554782,Praha,10100,Vršovické náměstí,111,50.068611,14.453472
1484,Alza Box,554782,Praha,10600,Záběhlická,72,50.054235,14.486421
1485,Alza Box,554782,Praha,10600,Topolová,2915,50.056836,14.507535
1486,Alza Box,554782,Praha,10000,Přetlucká,3295,50.070283,14.510244
1487,Alza Box,554782,Praha,14900,Majerského,2047,50.038428,14.508535
1488,Alza Box,554782,Praha,14900,Ke Kateřinkám,1411,50.022697,14.515632
1489,Alza Box,554782,Praha,14900,Türkova,2318,50.037221,14.492384
1490,Alza Box,554782,Praha,14900,Prašná,980,50.03555,14.520868
1491,Alza Box,554782,Praha,14900,Mendelova,555,50.032942,14.532404
1492,Alza Box,554782,Praha,14900,Ke Kateřinkám,2423,50.022444,14.518008
1493,Alza Box,554782,Praha,14900,Ke Stáčírně,2292,50.036659,14.508347
1494,Alza Box,554782,Praha,14900,Hlavatého,664,50.030237,14.534432
1495,Alza Box,554782,Praha,14900,Tatarkova,721,50.028894,14.529396
1496,Alza Box,554782,Praha,14900,Chilská,1,50.028074,14.508019
1497,Alza Box,554782,Praha,14800,U Kunratického lesa,1,50.021523,14.492036
1498,Alza Box,554782,Praha,14900,Osvětová,670,49.996889,14.517109
1499,Alza Box,554782,Praha,14900,Bohúňova,1550,50.025882,14.521045
1500,Alza Box,554782,Praha,14800,Krejnická,2021,50.032908,14.482009
1501,Alza Box,554782,Praha,14900,Donovalská,1725,50.035655,14.499971
1502,Alza Box,554782,Praha,14900,K Horkám,2284,50.041107,14.510915
1503,Alza Box,554782,Praha,14900,Brandlova,1599,50.032888,14.51868
1504,Alza Box,554782,Praha,14900,Valentova,1726,50.032976,14.507234
1505,Alza Box,554782,Praha,14800,Babákova,2150,50.036251,14.48746
1506,Alza Box,554782,Praha,14900,Arkalycká,757,50.032045,14.528838
1507,Alza Box,554782,Praha,14800,Vojtíškova,1783,50.025895,14.492905
1508,Alza Box,554782,Praha,14900,Opatovská,1753,50.02525,14.516091
1509,Alza Box,554782,Praha,14800,Roztylská,2232,50.031333,14.492111
1510,Alza Box,554782,Praha,14300,Mezi Vodami,23,50.010666,14.400988
1511,Alza Box,554782,Praha,14200,K lesu,345,50.011228,14.44589
1512,Alza Box,554782,Praha,14300,Mezi Vodami,2035,50.014539,14.401091
1513,Alza Box,554782,Praha,14300,Komořanská,2168,49.990923,14.410029
1514,Alza Box,554782,Praha,14300,Darwinova,1808,50.008432,14.4052
1515,Alza Box,554782,Praha,14200,Cílkova,865,50.015025,14.443463
1516,Alza Box,554782,Praha,14300,Hrazanská,128,49.987693,14.445213
1517,Alza Box,554782,Praha,14200,Zdislavická,963,50.016761,14.443477
1518,Alza Box,554782,Praha,14200,Cholupická,431,50.019074,14.438397
1519,Alza Box,554782,Praha,14300,Lhotecká,2109,50.013579,14.419528
1520,Alza Box,554782,Praha,14300,K Otočce,779,50.014183,14.415809
1521,Alza Box,554782,Praha,14300,Sofijské náměstí,3400,50.005518,14.418884
1522,Alza Box,554782,Praha,14300,Branišovská,233,49.97226,14.43364
1523,Alza Box,554782,Praha,14300,Rilská,3172,50.008892,14.428184
1524,Alza Box,554782,Praha,14200,Mariánská,1000,50.018035,14.436071
1525,Alza Box,554782,Praha,14300,Pertoldova,3344,50.00024,14.427118
1526,Alza Box,554782,Praha,14200,Libušská,400,50.002365,14.465016
1527,Alza Box,554782,Praha,14300,Čs. exilu,1912,50.0165,14.402861
1528,Alza Box,554782,Praha,14300,Kyslíková,2225,49.991046,14.411436
1529,Alza Box,554782,Praha,14000,Freiwaldova,627,50.009183,14.454121
1530,Alza Box,554782,Praha,14300,Obchodní náměstí,1590,50.005143,14.405579
1531,Alza Box,554782,Praha,14300,,,50.014534,14.425419
1532,Alza Box,554782,Praha,15500,Prusíkova,2577,50.038204,14.338295
1533,Alza Box,554782,Praha,15500,Bucharova,1093,50.055061,14.34159
1534,Alza Box,554782,Praha,15800,Běhounkova,2307,50.053975,14.344933
1535,Alza Box,554782,Praha,15800,V hůrkách,2144,50.049272,14.346476
1536,Alza Box,554782,Praha,15800,Sluneční náměstí,2560,50.050524,14.341965
1537,Alza Box,554782,Praha,15500,Jeremiášova,2722,50.043907,14.337165
1538,Alza Box,554782,Praha,15500,K Řeporyjím,14,50.045385,14.279832
1539,Alza Box,554782,Praha,15500,Pavrovského,2445,50.03587,14.336803
1540,Alza Box,554782,Praha,15500,Bellušova,1877,50.041432,14.325077
1541,Alza Box,554782,Praha,15500,Pod Hranicí,1304,50.051966,14.335914
1542,Alza Box,554782,Praha,15500,Chlupova,1800,50.043142,14.32401
1543,Alza Box,554782,Praha,15800,Petržílkova,2564,50.050357,14.342645
1544,Alza Box,554782,Praha,15500,Hábova,2345,50.046547,14.311295
1545,Alza Box,554782,Praha,15500,Jeremiášova,947,50.055023,14.310826
1546,Alza Box,554782,Praha,15800,Butovická,837,50.051995,14.360908
1547,Alza Box,554782,Praha,15800,Pekařská,16,50.054629,14.350881
1548,Alza Box,554782,Praha,15000,Radlická,520,50.048429,14.355196
1549,Alza Box,554782,Praha,15500,K Třebonicům,611,50.035364,14.305451
1550,Alza Box,554782,Praha,15500,Plzeňská,1110,50.061519,14.309056
1551,Alza Box,554782,Praha,15500,Tlumačovská,1298,50.039578,14.331544
1552,Alza Box,554782,Praha,15500,Mukařovského,2590,50.045789,14.322199
1553,Alza Box,554782,Praha,15500,Bucharova,2946,50.055424,14.341838
1554,Alza Box,554782,Praha,15800,Bucharova,2817,50.051033,14.350983
1555,Alza Box,554782,Praha,15500,náměstíJunkových,2772,50.046389,14.305667
1556,Alza Box,554782,Praha,19800,Chlumecká,765,50.108217,14.58622
1557,Alza Box,554782,Praha,19800,Dvořišťská,964,50.095045,14.540715
1558,Alza Box,554782,Praha,19800,Slévačská,1683,50.105887,14.554107
1559,Alza Box,554782,Praha,19800,Vašátkova,1012,50.102589,14.569879
1560,Alza Box,554782,Praha,19012,,,50.088198,14.583602
1561,Alza Box,554782,Praha,19800,Pospíchalova,1093,50.107129,14.568915
1562,Alza Box,554782,Praha,19800,Vybíralova,578,50.103458,14.579991
1563,Alza Box,554782,Praha,19800,Cíglerova,1082,50.106714,14.563483
1564,Alza Box,554782,Praha,19800,Klánovická,485,50.105474,14.543051
1565,Alza Box,554782,Praha,19800,Kardašovská,490,50.106243,14.548091
1566,Alza Box,554782,Praha,19800,Lomnická,363,50.087428,14.562958
1567,Alza Box,554782,Praha,19800,Vašátkova,1020,50.102025,14.566901
1568,Alza Box,554782,Praha,19800,Za černým mostem,1150,50.108056,14.555958
1569,Alza Box,554782,Praha,19800,Rožmberská,1272,50.093829,14.542218
1570,Alza Box,554782,Praha,19800,Kolbenova,1094,50.107607,14.547161
1571,Alza Box,554782,Praha,19800,Travná,1217,50.087349,14.554534
1572,Alza Box,554782,Praha,19800,Bratří Venclíků,1139,50.10552,14.559146
1573,Alza Box,554782,Praha,19800,Kolbenova,1141,50.108996,14.544511
1574,Alza Box,554782,Praha,19012,Českobrodská,920,50.085267,14.578604
1575,Alza Box,554782,Praha,19800,Breitcetlova,771,50.105741,14.574201
1576,Alza Box,554782,Praha,10200,Hostivařská,1109,50.053592,14.532063
1577,Alza Box,554782,Praha,10200,Hornoměcholupská,528,50.052192,14.532765
1578,Alza Box,554782,Praha,10700,K Vilkám,10,50.05346,14.579977
1579,Alza Box,554782,Praha,10900,Parmská,387,50.041755,14.563455
1580,Alza Box,554782,Praha,10900,,,50.047221,14.555429
1581,Alza Box,554782,Praha,10900,,,50.043077,14.565939
1582,Alza Box,554782,Praha,10900,Lochotínská,699,50.045063,14.557833
1583,Alza Box,554782,Praha,10200,Švehlova,1391,50.052955,14.518736
1584,Alza Box,554782,Praha,10200,U Továren,256,50.056191,14.539247
1585,Alza Box,554782,Praha,10200,Plukovníka Mráze,1182,50.050184,14.54381
1586,Alza Box,554782,Praha,10200,Hostivařská,92,50.050692,14.526025
1587,Alza Box,554782,Praha,10200,U Dvojdomů,1324,50.05121,14.541291
1588,Alza Box,554782,Praha,10200,Průmyslová,1477,50.063932,14.537722
1589,Alza Box,554782,Praha,10700,Starodubečská,400,50.061503,14.588801
1590,Alza Box,554782,Praha,10200,Nákupní,389,50.072509,14.542113
1591,Alza Box,554782,Praha,10900,Honzíkova,635,50.066889,14.554194
1592,Alza Box,554782,Praha,10900,Kutnohorská,371,50.057711,14.561452
1593,Alza Box,554782,Praha,10900,Kutnohorská,641,50.066589,14.549754
1594,Alza Box,554782,Praha,10900,Hornoměcholupská,763,50.044558,14.568193
1595,Alza Box,554782,Praha,10200,Švehlova,34,50.053373,14.519331
1596,Alza Box,554782,Praha,15531,Josefa Houdka,900,49.963767,14.363903
1597,Alza Box,554782,Praha,15600,Žitavského,497,49.973872,14.395314
1598,Alza Box,554782,Praha,15900,Kazínská,8,50.012028,14.385739
1599,Alza Box,554782,Praha,15600,Pod Třešňovkou,234,49.970055,14.383386
1600,Alza Box,554782,Praha,15600,Elišky Přemyslovny,1343,49.964931,14.3832
1601,Alza Box,554782,Praha,15300,Sídliště,1100,49.980338,14.353972
1602,Alza Box,554782,Praha,15300,U starého stadiónu,1585,49.981417,14.357302
1603,Alza Box,554782,Praha,15300,Výpadová,1676,49.983448,14.366447
1604,Alza Box,554782,Praha,15531,Na Bambouzku,264,49.959976,14.359003
1605,Alza Box,554782,Praha,15900,,,50.022485,14.393346
1606,Alza Box,554782,Praha,15300,Vrážská,1507,49.985322,14.36509
1607,Alza Box,554782,Praha,15600,Elišky Přemyslovny,1269,49.967892,14.386553
1608,Alza Box,554782,Praha,16300,Na Moklině,681,50.069043,14.298549
1609,Alza Box,554782,Praha,15521,Hrozenkovská,282,50.059945,14.293592
1610,Alza Box,554782,Praha,16300,Karlovarská,47,50.075665,14.313104
1611,Alza Box,554782,Praha,15521,Na radosti,486,50.058544,14.291944
1612,Alza Box,554782,Praha,16300,Makovského,1338,50.065972,14.303056
1613,Alza Box,554782,Praha,16300,Makovského,1179,50.065511,14.308132
1614,Alza Box,554782,Praha,16300,Španielova,1378,50.069468,14.304101
1615,Alza Box,554782,Praha,16300,Nevanova,1050,50.064837,14.315751
1616,Alza Box,554782,Praha,15521,Skandinávská,144,50.050434,14.295044
1617,Alza Box,554782,Praha,15500,Sárská,5,50.052791,14.295841
1618,Alza Box,554782,Praha,16300,Karlovarská,1711,50.076562,14.305449
1619,Alza Box,554782,Praha,15521,Řevnická,1,50.05325,14.286667
1620,Alza Box,554782,Praha,16300,,,50.066297,14.309173
1621,Alza Box,554782,Praha,19900,Dobratická,523,50.131028,14.508907
1622,Alza Box,554782,Praha,19600,Cukrovarská,580,50.150895,14.533202
1623,Alza Box,554782,Praha,19900,Místecká,366,50.138699,14.510809
1624,Alza Box,554782,Praha,19800,,,50.141944,14.515556
1625,Alza Box,554782,Praha,19900,Fryčovická,461,50.138285,14.505548
1626,Alza Box,554782,Praha,19600,,,50.163665,14.524149
1627,Alza Box,554782,Praha,19900,Malkovského,583,50.141909,14.510346
1628,Alza Box,554782,Praha,19900,Krausova,714,50.141007,14.507617
1629,Alza Box,554782,Praha,19600,Bermanova,985,50.156147,14.517067
1630,Alza Box,554782,Praha,19700,Toužimská,856,50.135349,14.519351
1631,Alza Box,554782,Praha,19600,Ke stadionu,837,50.147496,14.525314
1632,Alza Box,554782,Praha,19900,Rýmařovská,561,50.135936,14.510449
1633,Alza Box,554782,Praha,19600,Všetatská,169,50.156569,14.54254
1634,Alza Box,554782,Praha,19900,Beranových,130,50.133102,14.513601
1635,Alza Box,554782,Praha,19600,Kostelecká,822,50.150963,14.506821
1636,Alza Box,554782,Praha,19900,Veselská,663,50.135116,14.499699
1637,Alza Box,554782,Praha,19700,Toužimská,1023,50.134551,14.542516
1638,Alza Box,554782,Praha,19700,Žacléřská,1040,50.132456,14.550246
1639,Alza Box,554782,Praha,19700,Mladoboleslavská,73,50.130395,14.54909
1640,Alza Box,554782,Praha,19017,Bohdanečská,97,50.144015,14.577334
1641,Alza Box,554782,Praha,19015,Budovatelská,286,50.1245,14.567301
1642,Alza Box,554782,Praha,19700,Semilská,4,50.134213,14.547626
1643,Alza Box,554782,Praha,19017,Mladoboleslavská,514,50.144724,14.580861
1644,Alza Box,554782,Praha,19017,U Cukrovaru,935,50.152578,14.590081
1645,Alza Box,554782,Praha,19700,,,50.129199,14.544331
1646,Alza Box,554782,Praha,12000,Bělehradská,222,50.076399,14.432047
1647,Alza Box,554782,Praha,12000,Wilsonova,300,50.083853,14.434931
1648,Alza Box,554782,Praha,12000,Wenzigova,1982,50.070318,14.432132
1649,Alza Box,554782,Praha,12000,Na Folimance,2490,50.066764,14.431646
1650,Alza Box,554782,Praha,12000,Karlovo náměstí,293,50.07603,14.418911
1651,Alza Box,554782,Praha,12800,,,50.065866,14.430597
1652,Alza Box,554782,Praha,14000,Závišova,2518,50.067412,14.437499
1653,Alza Box,554782,Praha,12800,Na Slupi,2102,50.066307,14.422695
1654,Alza Box,554782,Praha,12000,Italská,2581,50.084717,14.439861
1655,Alza Box,554782,Praha,12000,Legerova,802,50.075369,14.430328
1656,Alza Box,554782,Praha,12000,Vinohradská,1318,50.077245,14.448855
1657,Alza Box,554782,Praha,12800,Vyšehradská,3,50.068098,14.416715
1658,Alza Box,554782,Praha,12000,Polská,2400,50.078917,14.441917
1659,Alza Box,554782,Praha,19300,Lhotská,1702,50.111673,14.601355
1660,Alza Box,554782,Praha,19800,Skorkovská,2438,50.110433,14.576381
1661,Alza Box,554782,Praha,19300,Ratibořická,1167,50.110959,14.610718
1662,Alza Box,554782,Praha,19300,Tlustého,20,50.117918,14.629187
1663,Alza Box,554782,Praha,19300,Náchodská,2410,50.111056,14.590607
1664,Alza Box,554782,Praha,19300,Spojenců,1420,50.109061,14.605564
1665,Alza Box,554782,Praha,19300,Chodovická,2311,50.112484,14.617575
1666,Alza Box,554782,Praha,19300,Náchodská,1880,50.115632,14.61304
1667,Alza Box,554782,Praha,19300,Náchodská,2086,50.112814,14.600781
1668,Alza Box,554782,Praha,19300,Náchodská,2500,50.118074,14.636988
1669,Alza Box,554782,Praha,19300,Do Čertous,2658,50.122391,14.607299
1670,Alza Box,554782,Praha,19016,Zaříčanská,597,50.075403,14.664282
1671,Alza Box,554782,Praha,19016,Starokolínská,1816,50.077664,14.649144
1672,Alza Box,554782,Praha,19016,Novosibřinská,2266,50.074096,14.67125
1673,Alza Box,554782,Praha,19016,Starokolínská,306,50.079618,14.642589
1674,Alza Box,554782,Praha,19016,V Lipách,250,50.061715,14.641434
1675,Alza Box,554782,Praha,14900,,,50.014246,14.5457
1676,Alza Box,554782,Praha,19011,Českobrodská,162,50.081218,14.610599
1677,Alza Box,554782,Praha,19016,,,50.078148,14.648324
1678,Alza Box,554782,Praha,10300,,,50.017472,14.625238
1679,Alza Box,554782,Praha,10400,Přátelství,1300,50.032985,14.596603
1680,Alza Box,554782,Praha,10400,Františka Diviše,1323,50.033436,14.58896
1681,Alza Box,554782,Praha,10400,,,50.008202,14.569303
1682,Alza Box,554782,Praha,19014,Slavětínská,620,50.091641,14.668071
1683,Alza Box,554782,Praha,10300,Nad Zbrojnicí,390,50.012447,14.623991
1684,Alza Box,554782,Praha,10400,Přátelství,1613,50.031056,14.610916
1685,Alza Box,554782,Praha,10400,Podleská,1546,50.036411,14.580852
1686,Alza Box,554782,Praha,13000,Vinohradská,151,50.078,14.46136
1687,Alza Box,554782,Praha,13000,Vinohradská,2807,50.07851,14.469756
1688,Alza Box,554782,Praha,13000,Ambrožova,2912,50.08812,14.472586
1689,Alza Box,554782,Praha,13000,Hartigova,1958,50.091958,14.487894
1690,Alza Box,554782,Praha,13000,Štítného,361,50.085301,14.450732
1691,Alza Box,554782,Praha,13000,Hartigova,2747,50.090034,14.465891
1692,Alza Box,554782,Praha,13000,Seifertova,93,50.084225,14.453046
1693,Alza Box,554782,Praha,13000,Vinohradská,2828,50.079066,14.460726
1694,Alza Box,554782,Praha,13000,Roháčova,167,50.08709,14.456608
1695,Alza Box,554782,Praha,13000,Malešická,2887,50.085244,14.465893
1696,Alza Box,554782,Praha,13000,Hartigova,2502,50.091444,14.497386
1697,Alza Box,554782,Praha,13000,Mahlerovy sady,1,50.080915,14.450977
1698,Alza Box,554782,Praha,13000,U Viktorie,3,50.084512,14.445605
1699,Alza Box,554782,Praha,13000,Na Balkáně,2103,50.09508,14.492682
1700,Alza Box,554782,Praha,13000,K Červenému dvoru,3265,50.084715,14.481601
1701,Alza Box,554782,Praha,13000,Hartigova,2495,50.092546,14.49104
1702,Alza Box,554782,Praha,13000,V Zahrádkách,1953,50.091765,14.48594
1703,Alza Box,554782,Praha,13000,Hartigova,2660,50.091752,14.474895
1704,Alza Box,554782,Praha,13000,Malešická,2816,50.087468,14.482054
1705,Alza Box,554782,Praha,14200,Štúrova,1701,50.029217,14.450222
1706,Alza Box,554782,Praha,14000,Pujmanové,1221,50.046243,14.434596
1707,Alza Box,554782,Praha,14100,Kremnická,3031,50.049164,14.478237
1708,Alza Box,554782,Praha,14000,5. května,1110,50.055161,14.437883
1709,Alza Box,554782,Praha,14000,Bartákova,1121,50.047113,14.438374
1710,Alza Box,554782,Praha,14000,Pacovská,108,50.045832,14.441555
1711,Alza Box,554782,Praha,14900,Brodského,1665,50.037445,14.505052
1712,Alza Box,554782,Praha,14700,Vrbova,1427,50.031988,14.427649
1713,Alza Box,554782,Praha,14000,Nuselská,143,50.062534,14.44483
1714,Alza Box,554782,Praha,14900,Brandlova,1640,50.032174,14.514212
1715,Alza Box,554782,Praha,14200,Novodvorská,803,50.022679,14.441217
1716,Alza Box,554782,Praha,14700,Bezová,1658,50.033437,14.411481
1717,Alza Box,554782,Praha,14200,Drůbežářská,551,50.010276,14.461118
1718,Alza Box,554782,Praha,14900,Květnového vítězství,1000,50.03579,14.523425
1719,Alza Box,554782,Praha,14100,Žilinská,5,50.047647,14.474211
1720,Alza Box,554782,Praha,14000,Křesomyslova,1676,50.065093,14.434459
1721,Alza Box,554782,Praha,14000,Bartoškova ev. č.,18,50.063621,14.447011
1722,Alza Box,554782,Praha,14000,Budějovická,1495,50.046462,14.447537
1723,Alza Box,554782,Praha,14000,Podolská,90,50.05384,14.418647
1724,Alza Box,554782,Praha,14900,Türkova,2399,50.032601,14.501198
1725,Alza Box,554782,Praha,14100,Severní I,2907,50.047888,14.481965
1726,Alza Box,554782,Praha,14700,U staré pošty,8,50.036047,14.412554
1727,Alza Box,554782,Praha,14700,Ohnivcova,62,50.025834,14.426241
1728,Alza Box,554782,Praha,14000,,,50.053743,14.430903
1729,Alza Box,554782,Praha,14100,Hrusická,2616,50.048697,14.484138
1730,Alza Box,554782,Praha,14700,Branická,1319,50.034234,14.4173
1731,Alza Box,554782,Praha,14700,Pod Lysinami,518,50.021962,14.413921
1732,Alza Box,554782,Praha,14000,,,50.049209,14.452936
1733,Alza Box,554782,Praha,14000,U Plynárny,1432,50.056479,14.470331
1734,Alza Box,554782,Praha,14100,Hlavní,2930,50.047442,14.489586
1735,Alza Box,554782,Praha,14000,Lomnického,1,50.056962,14.431087
1736,Alza Box,554782,Praha,14200,Libušská,319,50.001181,14.466673
1737,Alza Box,554782,Praha,14700,Pod Pekařkou,107,50.046026,14.422019
1738,Alza Box,554782,Praha,14700,Podolské nábř.,6,50.061182,14.419069
1739,Alza Box,554782,Praha,14000,,,50.043503,14.440189
1740,Alza Box,554782,Praha,14000,,,50.065346,14.440503
1741,Alza Box,554782,Praha,14000,Vídeňská,1958,50.021671,14.46252
1742,Alza Box,554782,Praha,14700,Podolská,27,50.059084,14.421055
1743,Alza Box,554782,Praha,14100,Na Úlehli,1274,50.04675,14.461167
1744,Alza Box,554782,Praha,14000,Táborská,31,50.062457,14.437443
1745,Alza Box,554782,Praha,14000,Na Pankráci,86,50.051449,14.437638
1746,Alza Box,554782,Praha,14000,Pujmanové,1218,50.048299,14.435309
1747,Alza Box,554782,Praha,14800,Tomíčkova,2144,50.03887,14.476927
1748,Alza Box,554782,Praha,14200,Novodvorská,1062,50.01645,14.450578
1749,Alza Box,554782,Praha,14000,Za Brumlovkou,266,50.046583,14.456976
1750,Alza Box,554782,Praha,14700,Podolské nábř.,9999,50.051087,14.415583
1751,Alza Box,554782,Praha,14000,Jeremenkova,90,50.043304,14.430159
1752,Alza Box,554782,Praha,14000,Jihlavská,1558,50.044092,14.459026
1753,Alza Box,554782,Praha,14200,Za Dvorem,1856,50.018793,14.462699
1754,Alza Box,554782,Praha,14100,Struhařovská,2942,50.044746,14.4902
1755,Alza Box,554782,Praha,14000,Na Hřebenech II,1718,50.05174,14.430634
1756,Alza Box,554782,Praha,14000,A. Staška,1859,50.040761,14.440558
1757,Alza Box,554782,Praha,14000,Ohradní,1394,50.052792,14.457718
1758,Alza Box,554782,Praha,14200,Novodvorská,1013,50.024493,14.433291
1759,Alza Box,554782,Praha,14200,Na Rovinách,1003,50.022558,14.444696
1760,Alza Box,554782,Praha,14100,Pekárenská,1164,50.049209,14.462492
1761,Alza Box,554782,Praha,14200,Vavřenova,1172,50.024439,14.427021
1762,Alza Box,554782,Praha,14000,V Občanském domově,1511,50.055953,14.440554
1763,Alza Box,554782,Praha,14000,Budějovická,1667,50.043685,14.448696
1764,Alza Box,554782,Praha,14200,Štúrova,1282,50.023747,14.452045
1765,Alza Box,554782,Praha,14700,Vltavanů,1542,50.027634,14.403604
1766,Alza Box,554782,Praha,14000,Budějovická,615,50.042204,14.459744
1767,Alza Box,554782,Praha,14800,Velenická,72,50.013614,14.486937
1768,Alza Box,554782,Praha,14200,Novodvorská,1800,50.027263,14.432255
1769,Alza Box,554782,Praha,14000,Olbrachtova,2006,50.04525,14.447972
1770,Alza Box,554782,Praha,14800,Dobronická ev. č.,504,50.011456,14.475968
1771,Alza Box,554782,Praha,14000,Nuselská,20,50.062898,14.443611
1772,Alza Box,554782,Praha,14200,Zálesí,100,50.024358,14.441523
1773,Alza Box,554782,Praha,14100,,,50.055703,14.471426
1774,Alza Box,554782,Praha,14000,5. května,1640,50.06116,14.42774
1775,Alza Box,554782,Praha,15800,Ovčí hájek,2154,50.049735,14.349337
1776,Alza Box,554782,Praha,15200,Wassermannova,1273,50.027655,14.366408
1777,Alza Box,554782,Praha,15400,,,50.024778,14.354056
1778,Alza Box,554782,Praha,15000,Radlická,1932,50.061091,14.399358
1779,Alza Box,554782,Praha,15200,V Remízku,982,50.030552,14.369432
1780,Alza Box,554782,Praha,15000,,,50.067836,14.40366
1781,Alza Box,554782,Praha,15000,Xaveriova,3369,50.064012,14.398156
1782,Alza Box,554782,Praha,15200,Grussova,829,50.035769,14.373112
1783,Alza Box,554782,Praha,15000,Ostrovského,253,50.068741,14.402121
1784,Alza Box,554782,Praha,15800,Jinonická,804,50.060468,14.376063
1785,Alza Box,554782,Praha,15000,U Slévárny,144,50.057387,14.383876
1786,Alza Box,554782,Praha,15000,K Závěrce,2774,50.056584,14.402412
1787,Alza Box,554782,Praha,15200,Wassermannova,1038,50.03013,14.367665
1788,Alza Box,554782,Praha,15800,,,50.064262,14.386546
1789,Alza Box,554782,Praha,15000,,,50.06209,14.410466
1790,Alza Box,554782,Praha,15000,Plzeňská,1270,50.071225,14.384983
1791,Alza Box,554782,Praha,15000,Kartouzská,233,50.074074,14.402173
1792,Alza Box,554782,Praha,15000,Mezi Lány,15,50.051473,14.368792
1793,Alza Box,554782,Praha,15000,Viktora Huga,287,50.075346,14.403299
1794,Alza Box,554782,Praha,15000,Naskové,1100,50.063009,14.3608
1795,Alza Box,554782,Praha,15000,Radlická,333,50.058071,14.388651
1796,Alza Box,554782,Praha,15000,Plzeňská,290,50.068008,14.349797
1797,Alza Box,554782,Praha,15400,Ke Smíchovu,461,50.021517,14.363527
1798,Alza Box,554782,Praha,15200,Högerova,1098,50.031291,14.374702
1799,Alza Box,554782,Praha,15000,V Úvalu,84,50.073961,14.341479
1800,Alza Box,554782,Praha,15400,Ke Smíchovu,1144,50.020253,14.354519
1801,Alza Box,554782,Praha,15000,Radlická,3179,50.071276,14.40127
1802,Alza Box,554782,Praha,15200,Hugo Haase,1266,50.029694,14.363361
1803,Alza Box,554782,Praha,15500,Kačírkova,934,50.056722,14.375651
1804,Alza Box,554782,Praha,15000,,,50.069806,14.360389
1805,Alza Box,554782,Praha,15000,Tilleho náměstí,793,50.034383,14.378202
1806,Alza Box,554782,Praha,15000,Nádražní,279,50.060332,14.408799
1807,Alza Box,554782,Praha,15800,Radlická,222,50.04933,14.35495
1808,Alza Box,554782,Praha,15200,K Barrandovu,10,50.026769,14.365731
1809,Alza Box,554782,Praha,16100,Fajtlova,1090,50.093321,14.290786
1810,Alza Box,537004,Nymburk,28802,Kolínská,2507,50.177519,15.044622
1811,Alza Box,554782,Praha,16100,Dědinská,894,50.090775,14.301881
1812,Alza Box,554782,Praha,16100,Aviatická,1082,50.107635,14.269978
1813,Alza Box,554782,Praha,16000,Nad Lávkou,105,50.098491,14.341193
1814,Alza Box,554782,Praha,16400,K Juliáně,98,50.118358,14.29928
1815,Alza Box,554782,Praha,16500,Štěpnice,355,50.131424,14.364881
1816,Alza Box,554782,Praha,16500,Kamýcká,131,50.130761,14.381764
1817,Alza Box,554782,Praha,16200,Střešovická,668,50.093011,14.377605
1818,Alza Box,554782,Praha,16200,Evropská,267,50.092637,14.328698
1819,Alza Box,554782,Praha,16200,,,50.08619,14.349041
1820,Alza Box,554782,Praha,16900,Břevnovská,1088,50.084525,14.363886
1821,Alza Box,554782,Praha,16900,Bělohorská,1650,50.08416,14.368859
1822,Alza Box,554782,Praha,16000,,,50.107423,14.401809
1823,Alza Box,554782,Praha,16200,,,50.088345,14.351557
1824,Alza Box,554782,Praha,16100,Drnovská,161,50.09072,14.299392
1825,Alza Box,554782,Praha,16900,Pod Marjánkou,1676,50.0844,14.371312
1826,Alza Box,554782,Praha,16900,Na Petynce,2303,50.088257,14.370522
1827,Alza Box,554782,Praha,16200,Za Zahradou,3,50.08796,14.353055
1828,Alza Box,554782,Praha,16000,Evropská,696,50.096238,14.350297
1829,Alza Box,554782,Praha,16900,Moravanů,2,50.078525,14.330282
1830,Alza Box,554782,Praha,16000,Pod Paťankou,2743,50.111371,14.393352
1831,Alza Box,554782,Praha,16000,Pod kaštany,236,50.097885,14.405114
1832,Alza Box,554782,Praha,16000,Papírenská,1120,50.108808,14.403262
1833,Alza Box,554782,Praha,16000,Kladenská,699,50.094903,14.355245
1834,Alza Box,554782,Praha,16000,Evropská,689,50.098328,14.35949
1835,Alza Box,554782,Praha,16000,Jugoslávských partyzánů,1580,50.104227,14.394287
1836,Alza Box,554782,Praha,16000,Na Rozdílu,752,50.096097,14.364013
1837,Alza Box,554782,Praha,16000,Na Beránce,57,50.100622,14.364483
1838,Alza Box,554782,Praha,16500,Suchdolská,1143,50.134811,14.383142
1839,Alza Box,554782,Praha,16000,Evropská,2588,50.099431,14.378615
1840,Alza Box,554782,Praha,16200,Na Petřinách,55,50.087488,14.344812
1841,Alza Box,554782,Praha,16500,Suchdolská,692,50.137948,14.380819
1842,Alza Box,554782,Praha,16900,Radimova,2322,50.087731,14.365626
1843,Alza Box,554782,Praha,16000,Evropská,178,50.094877,14.339699
1844,Alza Box,554782,Praha,16200,Libocká,64,50.089001,14.325785
1845,Alza Box,554782,Praha,16000,Matějská,2352,50.112395,14.379857
1846,Alza Box,554782,Praha,16400,Nebušická,491,50.111276,14.323089
1847,Alza Box,554782,Praha,16100,Žukovského,887,50.090552,14.30879
1848,Alza Box,554782,Praha,16900,Bělohorská,2426,50.077073,14.339666
1849,Alza Box,554782,Praha,16500,Kamýcká,1077,50.132085,14.376553
1850,Alza Box,554782,Praha,16900,Chaloupeckého,13,50.080257,14.391451
1851,Alza Box,554782,Praha,16000,Bechyňova,2571,50.105647,14.389334
1852,Alza Box,554782,Praha,16000,Etiopská,686,50.097018,14.354637
1853,Alza Box,554782,Praha,17000,Veletržní,200,50.101966,14.430911
1854,Alza Box,554782,Praha,17000,Dukelských Hrdinů,359,50.098183,14.432706
1855,Alza Box,554782,Praha,17000,Dělnická,791,50.102981,14.449411
1856,Alza Box,554782,Praha,17000,Tovární,1342,50.102385,14.446162
1857,Alza Box,554782,Praha,17000,Jateční,33,50.100306,14.449381
1858,Alza Box,554782,Praha,17000,,,50.107446,14.441621
1859,Alza Box,554782,Praha,17000,,,50.11097,14.438718
1860,Alza Box,554782,Praha,17100,Trojská,632,50.116761,14.421874
1861,Alza Box,554782,Praha,17000,Kostelní,1300,50.097388,14.42282
1862,Alza Box,554782,Praha,17000,U Pergamenky,1629,50.110333,14.446778
1863,Alza Box,554782,Praha,17000,Dělnická,217,50.103711,14.443953
1864,Alza Box,554782,Praha,17000,Jankovcova,1518,50.104384,14.456363
1865,Alza Box,554782,Praha,17000,U Pergamenky,1522,50.10845,14.451655
1866,Alza Box,554782,Praha,17000,Letenské náměstí,38,50.100225,14.423345
1867,Alza Box,554782,Praha,18100,Lodžská,6,50.12772,14.417286
1868,Alza Box,554782,Praha,18600,Křižíkova,2110,50.08926,14.440085
1869,Alza Box,554782,Praha,18200,Střelničná,761,50.127307,14.472116
1870,Alza Box,554782,Praha,18100,Čimická,769,50.129795,14.43144
1871,Alza Box,554782,Praha,18200,Kurkova,1206,50.12878,14.465226
1872,Alza Box,554782,Praha,18200,Květnová,48,50.143253,14.47778
1873,Alza Box,554782,Praha,18200,Chabařovická,1796,50.130159,14.475875
1874,Alza Box,554782,Praha,18400,Osecká,713,50.147251,14.448297
1875,Alza Box,554782,Praha,18600,Pernerova,673,50.091792,14.454487
1876,Alza Box,554782,Praha,18000,Sokolovská,1273,50.09937,14.469989
1877,Alza Box,554782,Praha,18000,Pivovarnická,166,50.109708,14.476591
1878,Alza Box,554782,Praha,18200,Klapkova,473,50.125834,14.457129
1879,Alza Box,554782,Praha,18200,Pátkova,2135,50.11641,14.443123
1880,Alza Box,554782,Praha,18200,Za Vodárnou,1013,50.12375,14.473676
1881,Alza Box,554782,Praha,18200,Zenklova,2492,50.119617,14.460043
1882,Alza Box,554782,Praha,18200,Na Hlavní,1,50.165072,14.484582
1883,Alza Box,554782,Praha,18600,Sokolovská,663,50.096707,14.462987
1884,Alza Box,554782,Praha,18100,Lodžská,399,50.13063,14.423166
1885,Alza Box,554782,Praha,18100,Chvatěrubská,350,50.135448,14.431582
1886,Alza Box,554782,Praha,18000,Lodžská,598,50.12835,14.416497
1887,Alza Box,554782,Praha,18200,Klapkova,314,50.129521,14.455028
1888,Alza Box,554782,Praha,18100,,,50.139737,14.431496
1889,Alza Box,554782,Praha,18100,Cafourkova,520,50.131852,14.410665
1890,Alza Box,554782,Praha,18600,Křižíkova,213,50.092521,14.453272
1891,Alza Box,554782,Praha,18100,Mazurská,488,50.126513,14.413438
1892,Alza Box,554782,Praha,18400,Za Pískovnou,1205,50.139672,14.450196
1893,Alza Box,554782,Praha,18000,Zenklova,286,50.104779,14.473211
1894,Alza Box,554782,Praha,18000,Zenklova,351,50.103105,14.47412
1895,Alza Box,554782,Praha,18200,Střelničná,1680,50.125019,14.459101
1896,Alza Box,554782,Praha,18600,Karolinská,654,50.094061,14.445498
1897,Alza Box,554782,Praha,18200,Vršní,1052,50.124888,14.454454
1898,Alza Box,554782,Praha,18200,Maškova,1798,50.133011,14.452121
1899,Alza Box,554782,Praha,18100,Hnězdenská,658,50.126596,14.422173
1900,Alza Box,554782,Praha,18400,Žernosecká,2364,50.132816,14.474502
1901,Alza Box,554782,Praha,18100,Bukolská,570,50.130265,14.433499
1902,Alza Box,554782,Praha,18200,Pod Statky,17,50.122662,14.457927
1903,Alza Box,554782,Praha,18200,Opálkova,1658,50.127023,14.467867
1904,Alza Box,554782,Praha,18000,Chlumčanského,497,50.114346,14.46735
1905,Alza Box,554782,Praha,18200,Ďáblická,553,50.131234,14.480495
1906,Alza Box,554782,Praha,18200,,,50.1224,14.470726
1907,Alza Box,554782,Praha,18400,Dopraváků,723,50.137259,14.450204
1908,Alza Box,554782,Praha,18200,Osinalická,1104,50.145235,14.48282
1909,Alza Box,554782,Praha,18000,,,50.114503,14.471867
1910,Alza Box,554782,Praha,18100,Křivenická,50,50.142901,14.434626
1911,Alza Box,554782,Praha,18000,U Libeňského pivovaru,63,50.106724,14.47596
1912,Alza Box,554782,Praha,18400,K Ďáblicům,1117,50.146457,14.45164
1913,Alza Box,554782,Praha,18600,Pobřežní,620,50.093111,14.441472
1914,Alza Box,554782,Praha,18000,Voctářova,2401,50.102564,14.468311
1915,Alza Box,554782,Praha,18200,Trousilova,1031,50.126861,14.450944
1916,Alza Box,554782,Praha,18200,Ďáblická,1061,50.160388,14.484635
1917,Alza Box,554782,Praha,18600,Molákova,578,50.097361,14.465361
1918,Alza Box,554782,Praha,18200,Střelničná,2270,50.12771,14.4817
1919,Alza Box,554782,Praha,19000,Českomoravská,2420,50.103519,14.491309
1920,Alza Box,554782,Praha,19000,Novoborská,610,50.124687,14.502355
1921,Alza Box,554782,Praha,19000,Kytlická,779,50.125879,14.505379
1922,Alza Box,554782,Praha,19000,,,50.122473,14.512739
1923,Alza Box,554782,Praha,19000,,,50.10375,14.527857
1924,Alza Box,554782,Praha,19000,Freyova,12,50.107261,14.50245
1925,Alza Box,554782,Praha,19000,Podvinný mlýn,1418,50.106782,14.486231
1926,Alza Box,554782,Praha,19600,Schoellerova,1027,50.157167,14.522694
1927,Alza Box,554782,Praha,19000,Odkolkova,1046,50.113301,14.503826
1928,Alza Box,554782,Praha,19000,U Elektry,7,50.10193,14.519628
1929,Alza Box,554782,Praha,19000,Teplická,494,50.125446,14.485541
1930,Alza Box,554782,Praha,19000,,,50.110166,14.515563
1931,Alza Box,554782,Praha,19000,Pešlova,363,50.112011,14.501597
1932,Alza Box,554782,Praha,19000,,,50.108618,14.515703
1933,Alza Box,554782,Praha,19000,Prosecká,430,50.11456,14.489161
1934,Alza Box,554782,Praha,19000,Moravcových,1015,50.111778,14.515806
1935,Alza Box,554782,Praha,19000,Verneřická,408,50.1239,14.49625
1936,Alza Box,554782,Praha,19800,Českobrodská,50,50.092855,14.527313
1937,Alza Box,554782,Praha,19000,Prosecká,824,50.122331,14.507175
1938,Alza Box,554782,Praha,19000,Jablonecká,423,50.125819,14.49381
1939,Alza Box,554782,Praha,19800,Waltariho,1148,50.108876,14.524768
1940,Alza Box,554782,Praha,19000,Veltruská,557,50.121918,14.493305
1941,Alza Box,554782,Praha,19000,Čakovická,783,50.118013,14.505184
1942,Alza Box,554782,Praha,19000,Českomoravská,2258,50.103569,14.485926
1943,Alza Box,554782,Praha,19000,Lovosická,628,50.128722,14.492389
1944,Alza Box,554782,Praha,19000,Poděbradská,1011,50.102737,14.517412
1945,Alza Box,554782,Praha,19000,Poděbradská,489,50.105361,14.537861
1946,Alza Box,554782,Praha,19000,Českomoravská,316,50.1017,14.501505
1947,Alza Box,554782,Praha,19000,Vysočanská,382,50.119586,14.498843
1948,Alza Box,554782,Praha,19000,Freyova,945,50.110083,14.500773
1949,Alza Box,554782,Praha,19000,V Třešňovce,232,50.093306,14.498901
1950,Alza Box,500496,Olomouc,77900,Hněvotínská,984,49.584399,17.225256
1951,Alza Box,550094,Prachatice,38301,Česká,673,49.017112,13.998746
1952,Alza Box,550094,Prachatice,38301,Vodňanská,46,49.014019,14.00033
1953,Alza Box,550094,Prachatice,38301,Krumlovská,1103,49.009347,14.000317
1954,Alza Box,567787,Proboštov,41712,náměstíSvobody,5,50.667423,13.83415
1955,Alza Box,589250,Prostějov,79601,Za Plumlovskou,3614,49.471878,17.087098
1956,Alza Box,589250,Prostějov,79604,Aloise Fišárka,4053,49.477119,17.090644
1957,Alza Box,589250,Prostějov,79601,Bohumíra Šmerala,3773,49.467948,17.098673
1958,Alza Box,500496,Olomouc,77900,Štursova,1124,49.588572,17.272503
1959,Alza Box,589250,Prostějov,79601,sídl. Svobody,3576,49.471536,17.095838
1960,Alza Box,589250,Prostějov,79601,Okružní,4262,49.463027,17.117623
1961,Alza Box,589250,Prostějov,79601,Dukelská brána,25,49.472268,17.113507
1962,Alza Box,567779,Osek,41705,Dolejšova,710,50.623829,13.70109
1963,Alza Box,589250,Prostějov,79601,Fanderlíkova,3246,49.475778,17.103412
1964,Alza Box,589250,Prostějov,79601,Anenská,25,49.46917,17.090822
1965,Alza Box,589250,Prostějov,79604,Západní,3,49.467491,17.084038
1966,Alza Box,589250,Prostějov,79601,Janáčkova,3159,49.472615,17.128832
1967,Alza Box,589250,Prostějov,79601,Plumlovská,4210,49.4725,17.091556
1968,Alza Box,549771,Protivín,39811,,,49.196026,14.213376
1969,Alza Box,539571,Průhonice,25243,Uhříněveská,850,50.004062,14.566283
1970,Alza Box,538655,Předboj,25072,Hlavní,115,50.22595,14.478873
1971,Alza Box,536491,Předměřice nad Jizerou,29474,Předměřice nad Jizerou,204,50.254285,14.780163
1972,Alza Box,575500,Přelouč,53501,Sportovní,1699,50.04125,15.566472
1973,Alza Box,575500,Přelouč,53501,28. října,1531,50.037879,15.564466
1974,Alza Box,511382,Přerov,75002,,,49.440812,17.457849
1975,Alza Box,511382,Přerov,75124,Teličkova,491,49.465465,17.441513
1976,Alza Box,511382,Přerov,75002,Želatovská,3564,49.449446,17.474309
1977,Alza Box,511382,Přerov,75002,Čechova,929,49.450369,17.454972
1978,Alza Box,511382,Přerov,75002,Lipnická,2936,49.463314,17.444218
1979,Alza Box,511382,Přerov,75002,Velká Dlážka,527,49.458611,17.444611
1980,Alza Box,511382,Přerov,75002,Kojetínská,3133,49.449599,17.443302
1981,Alza Box,511382,Přerov,75002,tř. gen. Janouška,2854,49.450757,17.470145
1982,Alza Box,511382,Přerov,75002,tř.,17,49.453492,17.456782
1983,Alza Box,558249,Přeštice,33401,Tř.,1,49.583337,13.328224
1984,Alza Box,538671,Přezletice,25073,Horní náves,45,50.156211,14.575483
1985,Alza Box,599808,Příbor,74258,Místecká,1118,49.642171,18.150702
1986,Alza Box,599808,Příbor,74258,Jičínská,1524,49.639931,18.141362
1987,Alza Box,539911,Příbram,26101,Brodská,140,49.669334,13.996195
1988,Alza Box,539911,Příbram,26101,Jiráskovy sady,16,49.689125,14.012295
1989,Alza Box,539911,Příbram,26101,Seifertova,532,49.675794,13.997102
1990,Alza Box,539911,Příbram,26101,Brodská,601,49.666678,13.996054
1991,Alza Box,539911,Příbram,26101,Husova,622,49.692373,13.99794
1992,Alza Box,539911,Příbram,26101,,,49.676363,14.000176
1993,Alza Box,539911,Příbram,26101,Politických vězňů,150,49.677916,13.992141
1994,Alza Box,539911,Příbram,26101,,,49.695208,14.006879
1995,Alza Box,549240,Písek,39701,Nádražní,2590,49.296888,14.145171
1996,Alza Box,539911,Příbram,26101,Milínská,134,49.686597,14.008906
1997,Alza Box,539597,Psáry,25244,Na Návsi,17,49.936312,14.512636
1998,Alza Box,539597,Psáry,25244,Pražská,187,49.942331,14.516253
1999,Alza Box,554782,Praha,10000,Šrobárova,1150,50.076208,14.475637
2000,Alza Box,532789,Ptice,25218,Souběžná,369,50.051817,14.171666
2001,Alza Box,560120,Radnice,33828,Sokolská,362,49.856893,13.601719
2002,Alza Box,538701,Radonice,25073,Pavlova,255,50.145896,14.612714
2003,Alza Box,554782,Praha,19800,Bezdrevská,26,50.086549,14.55782
2004,Alza Box,589250,Prostějov,79601,Konečná,4619,49.482497,17.123407
2005,Alza Box,583758,Rajhrad,66461,Masarykova,1000,49.089521,16.603427
2006,Alza Box,541656,Rakovník,26901,Dukel. hrdinů,200,50.107919,13.713687
2007,Alza Box,541656,Rakovník,26901,Trojanova,2568,50.103086,13.726733
2008,Alza Box,541656,Rakovník,26901,Luženská,2819,50.109802,13.737429
2009,Alza Box,558419,Držovice,79607,Sebastiniho,439,49.485279,17.124194
2010,Alza Box,541656,Rakovník,26901,Luženská,2725,50.110166,13.735708
2011,Alza Box,541656,Rakovník,26901,Dukel. hrdinů,2078,50.10567,13.723501
2012,Alza Box,540862,Rapotín,78814,Družstevní,569,49.997123,17.017822
2013,Alza Box,564371,Raspenava,46401,Fučíkova,647,50.897473,15.139648
2014,Alza Box,549665,Raškovice,73904,Raškovice,401,49.61081,18.485042
2015,Alza Box,586510,Ratíškovice,69602,Rohatecká,829,48.918314,17.165674
2016,Alza Box,586528,Rohatec,69601,Hodonínská,840,48.877645,17.180522
2017,Alza Box,559717,Rokycany,33701,,,49.743272,13.586074
2018,Alza Box,559717,Rokycany,33701,Boženy Němcové,531,49.733676,13.589791
2019,Alza Box,559717,Rokycany,33701,Tymákovská,612,49.736683,13.583495
2020,Alza Box,559717,Rokycany,33701,Josefa Růžičky,1226,49.738915,13.600781
2021,Alza Box,577456,Rokytnice nad Jizerou,51244,Horní Rokytnice,495,50.728737,15.45074
2022,Alza Box,583782,Rosice,66501,Trávníky,64,49.183567,16.390073
2023,Alza Box,583782,Rosice,66501,Brněnská,1247,49.184475,16.402302
2024,Alza Box,560600,Rotava,35701,Sídliště,648,50.305254,12.552116
2025,Alza Box,570745,Roudnice,50327,Roudnice,44,50.171684,15.645578
2026,Alza Box,565555,Roudnice nad Labem,41301,Alej,17,50.424024,14.237875
2027,Alza Box,565555,Roudnice nad Labem,41301,Hornická,2487,50.426071,14.239856
2028,Alza Box,565555,Roudnice nad Labem,41301,Nám.,28,50.423807,14.267366
2029,Alza Box,565555,Roudnice nad Labem,41301,Kratochvílova,1991,50.421417,14.254667
2030,Alza Box,593559,Rousínov,68301,Sušilovo náměstí,20,49.204828,16.8837
2031,Alza Box,593559,Rousínov,68301,Slavkovská,1205,49.200941,16.876175
2032,Alza Box,539627,Roztoky,25263,Lidická,1036,50.160967,14.38673
2033,Alza Box,539627,Roztoky,25263,Lidická,2368,50.16017,14.378999
2034,Alza Box,539627,Roztoky,25263,Masarykova,1379,50.163611,14.389667
2035,Alza Box,537756,Rožďalovice,28934,Náměstí,55,50.303208,15.169319
2036,Alza Box,541231,Rožmitál pod Třemšínem,26242,Pod topoly,8,49.600237,13.872645
2037,Alza Box,541231,Rožmitál pod Třemšínem,26242,Sladkovského,42,49.603147,13.865127
2038,Alza Box,544841,Rožnov pod Radhoštěm,75661,Kulturní,1794,49.465005,18.136876
2039,Alza Box,544841,Rožnov pod Radhoštěm,75661,Meziříčská,730,49.459094,18.132736
2040,Alza Box,544841,Rožnov pod Radhoštěm,75661,1. máje,1426,49.4625,18.136056
2041,Alza Box,544841,Rožnov pod Radhoštěm,75661,,,49.460167,18.129111
2042,Alza Box,531723,Rudná,25219,Hořelické náměstí,1130,50.026345,14.224117
2043,Alza Box,531723,Rudná,25219,Masarykova,1008,50.038928,14.243028
2044,Alza Box,531723,Rudná,25219,Masarykova,613,50.027131,14.212544
2045,Alza Box,531723,Rudná,25219,Havlíčkovo náměstí,948,50.034151,14.23077
2046,Alza Box,544981,Rudolfov,37371,,,48.992276,14.535645
2047,Alza Box,562777,Rumburk,40801,Pražská,1677,50.947043,14.557892
2048,Alza Box,562777,Rumburk,40801,SNP,1647,50.951215,14.559934
2049,Alza Box,576069,Rychnov nad Kněžnou,51601,Mírová,1474,50.16233,16.284214
2050,Alza Box,576069,Rychnov nad Kněžnou,51601,Štemberkova,1640,50.157152,16.275592
2051,Alza Box,576069,Rychnov nad Kněžnou,51601,Štemberkova,1605,50.154123,16.278207
2052,Alza Box,576069,Rychnov nad Kněžnou,51601,Havlíčkova,1496,50.161174,16.274391
2053,Alza Box,563790,Rychnov u Jablonce nad Nisou,46802,náměstíMíru,616,50.683821,15.150894
2054,Alza Box,597783,Rýmařov,79501,Opavská,1300,49.937822,17.271536
2055,Alza Box,539643,Řevnice,25230,Mníšecká,929,49.912531,14.233801
2056,Alza Box,542351,Řevničov,27054,Karlovarská,51,50.183478,13.808684
2057,Alza Box,538728,Říčany,25101,,,49.997256,14.675118
2058,Alza Box,538728,Říčany,25101,Marie Pujmanové,2045,49.99111,14.676703
2059,Alza Box,538728,Říčany,25101,Černokostelecká,154,49.999451,14.667299
2060,Alza Box,538728,Říčany,25101,U Mostu,186,49.991642,14.667783
2061,Alza Box,538728,Říčany,25101,Na Obci,1778,49.989536,14.651256
2062,Alza Box,538728,Říčany,25101,Černokostelecká,2110,50.002636,14.658706
2063,Alza Box,539651,Řitka,25203,Pražská,74,49.893754,14.298641
2064,Alza Box,537764,Sadská,28912,,,50.136593,14.984614
2065,Alza Box,537764,Sadská,28912,,,50.1338,14.972311
2066,Alza Box,534382,Sázava,28506,Pražská,362,49.873377,14.885531
2067,Alza Box,534382,Sázava,28506,Poznaňská,496,49.878525,14.905496
2068,Alza Box,534382,Sázava,28506,Sklářská,333,49.875798,14.904149
2069,Alza Box,541281,Sedlčany,26401,Církvičská,386,49.661121,14.424065
2070,Alza Box,541281,Sedlčany,26401,Příbramská,1177,49.653151,14.423738
2071,Alza Box,576964,Semily,51301,Bavlnářská,540,50.610244,15.324205
2072,Alza Box,576964,Semily,51301,Luční,12,50.602885,15.329434
2073,Alza Box,576964,Semily,51206,Bořkovská,573,50.598917,15.327389
2074,Alza Box,538752,Senohraby,25166,Hlavní,19,49.895387,14.720749
2075,Alza Box,575640,Sezemice,53304,Havlíčkova,3,50.064769,15.8534
2076,Alza Box,575640,Sezemice,53304,Masarykova,134,50.066537,15.852875
2077,Alza Box,553069,Sezimovo Ústí,39102,Dukelská,686,49.37891,14.703269
2078,Alza Box,553069,Sezimovo Ústí,39102,náměstíTomáše Bati,424,49.377019,14.700231
2079,Alza Box,538761,Sibřina,25084,Říčanská,149,50.056044,14.669715
2080,Alza Box,572241,Skuteč,53973,Smetanova,271,49.84672,15.995348
2081,Alza Box,572241,Skuteč,53973,Obchvatová,995,49.849694,15.991167
2082,Alza Box,532819,Slaný,27401,Jungmannova,705,50.233386,14.075061
2083,Alza Box,532819,Slaný,27401,Pražská,763,50.229029,14.092666
2084,Alza Box,532819,Slaný,27401,Třebízského,625,50.233512,14.080122
2085,Alza Box,532819,Slaný,27401,Wilsonova,1675,50.229093,14.078934
2086,Alza Box,532819,Slaný,27401,Ouvalova,1844,50.227571,14.088676
2087,Alza Box,539660,Slapy,25208,Slapy,280,49.814025,14.396172
2088,Alza Box,572268,Slatiňany,53821,Vítězství,119,49.921034,15.814446
2089,Alza Box,585751,Slavičín,76321,Hrádecká,253,49.080005,17.887065
2090,Alza Box,585751,Slavičín,76321,Mladotické nábř.,752,49.087913,17.877361
2091,Alza Box,593583,Slavkov u Brna,68401,Křenovická,1854,49.152525,16.864165
2092,Alza Box,593583,Slavkov u Brna,68401,Polní,1465,49.150869,16.881398
2093,Alza Box,593583,Slavkov u Brna,68401,Špitálská,1853,49.1507,16.867221
2094,Alza Box,580325,Sloupnice,56553,Horní Sloupnice,335,49.921486,16.314317
2095,Alza Box,538779,Sluhy,25063,Sluhy,52,50.192053,14.558024
2096,Alza Box,585777,Slušovice,76315,Na Výpusti,209,49.248991,17.800862
2097,Alza Box,532835,Smečno,27305,Slánská,532,50.188806,14.043409
2098,Alza Box,570877,Smiřice,50303,Palackého,27,50.299827,15.863773
2099,Alza Box,563811,Smržovka,46851,Smetanova,824,50.737188,15.247356
2100,Alza Box,553131,Soběslav,39201,Obchodní,878,49.263702,14.711554
2101,Alza Box,553131,Soběslav,39201,Nová,710,49.254105,14.718674
2102,Alza Box,553131,Soběslav,39201,Obchodní,1000,49.263944,14.714778
2103,Alza Box,573493,Sobotka,50743,Předměstská,286,50.468239,15.178926
2104,Alza Box,583898,Sokolnice,66452,Průchodní,197,49.114903,16.721929
2105,Alza Box,560286,Sokolov,35601,Mánesova,1769,50.173508,12.675858
2106,Alza Box,560286,Sokolov,35601,Boženy Němcové,1808,50.176817,12.647236
2107,Alza Box,560286,Sokolov,35601,K. H. Borovského,2087,50.176696,12.675538
2108,Alza Box,560286,Sokolov,35601,Malé náměstí,2270,50.17207,12.647069
2109,Alza Box,560286,Sokolov,35601,Závod míru,2058,50.172509,12.664406
2110,Alza Box,560286,Sokolov,35601,Křížová,109,50.179653,12.638039
2111,Alza Box,560286,Sokolov,35601,M. Majerové,2241,50.175194,12.668
2112,Alza Box,576808,Solnice,51701,,,50.203839,16.236528
2113,Alza Box,563340,Spořice,43101,U Koupaliště,494,50.445193,13.38733
2114,Alza Box,575682,Srch,53352,Srch,261,50.083548,15.774803
2115,Alza Box,554294,Staňkov,34561,Americká,235,49.551257,13.067222
2116,Alza Box,598739,Stará Ves nad Ondřejnicí,73923,Krmelínská,631,49.728593,18.1968
2117,Alza Box,550752,Staré Město,68603,Východní,2132,49.077582,17.45485
2118,Alza Box,533700,Starý Kolín,28123,U Sokolovny,152,50.010403,15.295002
2119,Alza Box,558371,Starý Plzenec,33202,Boženy Němcové,795,49.691948,13.476901
2120,Alza Box,558371,Starý Plzenec,33202,Smetanova,888,49.697396,13.474899
2121,Alza Box,539686,Statenice,25262,Statenická,210,50.14164,14.318586
2122,Alza Box,539686,Statenice,25262,Kralupská,233,50.148742,14.32789
2123,Alza Box,532851,Stehelčeves,27342,,,50.16778,14.2003
2124,Alza Box,532851,Stehelčeves,27342,Vrapická,28,50.170686,14.190852
2125,Alza Box,558389,Stod,33301,Stříbrská,45,49.641139,13.16381
2126,Alza Box,532860,Stochov,27303,Školní,433,50.146685,13.952815
2127,Alza Box,532860,Stochov,27303,Osvobození,540,50.144639,13.966889
2128,Alza Box,550787,Strakonice,38601,Bezděkovská,30,49.257566,13.905191
2129,Alza Box,550787,Strakonice,38601,Katovická,1404,49.262519,13.89015
2130,Alza Box,550787,Strakonice,38601,Smetanova,883,49.265875,13.904096
2131,Alza Box,550787,Strakonice,38601,Volyňská,192,49.251126,13.912376
2132,Alza Box,550787,Strakonice,38601,Na Ohradě,2,49.258092,13.906152
2133,Alza Box,550787,Strakonice,38601,,,49.257211,13.91398
2134,Alza Box,538809,Strančice,25163,Všechromy,76,49.947094,14.653167
2135,Alza Box,538809,Strančice,25163,Revoluční,593,49.946358,14.670661
2136,Alza Box,560162,Strašice,33845,Strašice,40,49.736401,13.756122
2137,Alza Box,544477,Stráž nad Nisou,46303,U Kina,144,50.79154,15.025687
2138,Alza Box,562092,Stráž pod Ralskem,47127,Jižní,298,50.699671,14.805468
2139,Alza Box,562092,Stráž pod Ralskem,47127,Revoluční,157,50.702135,14.802564
2140,Alza Box,586587,Strážnice,69662,náměstí,17,48.902722,17.317732
2141,Alza Box,586587,Strážnice,69662,Kostelní,1407,48.900451,17.315
2142,Alza Box,538825,Struhařov,25164,Mnichovická,175,49.955755,14.748731
2143,Alza Box,539708,Středokluky,25268,Školská,258,50.132108,14.234391
2144,Alza Box,561215,Stříbro,34901,Tř.,5,49.753389,12.990705
2145,Alza Box,554871,Střítež,67401,Spojovací,1347,49.199877,15.88978
2146,Alza Box,547263,Studená,37856,náměstíSv. J. Nepomuckého,526,49.184031,15.286181
2147,Alza Box,599921,Studénka,74213,Poštovní,822,49.715385,18.050311
2148,Alza Box,599921,Studénka,74213,Sjednocení,889,49.712778,18.054861
2149,Alza Box,547280,Suchdol nad Lužnicí,37806,Tyršova,504,48.892464,14.880241
2150,Alza Box,547280,Suchdol nad Lužnicí,37806,Nám. T. G. Masaryka,9,48.888466,14.874361
2151,Alza Box,557153,Sušice,34201,Hrádecká,1310,49.241024,13.521635
2152,Alza Box,557153,Sušice,34201,Lerchova,926,49.230316,13.515628
2153,Alza Box,557153,Sušice,34201,Nádražní,1375,49.237844,13.524537
2154,Alza Box,586625,Svatobořice-Mistřín,69604,Hlavní,205,48.980764,17.093128
2155,Alza Box,538841,Světice,25101,U Hřiště,151,49.971728,14.665317
2156,Alza Box,569569,Světlá nad Sázavou,58291,Zámecká,1116,49.667573,15.413316
2157,Alza Box,569569,Světlá nad Sázavou,58291,Na Bradle,994,49.669153,15.398381
2158,Alza Box,569569,Světlá nad Sázavou,58291,Zámecká,1259,49.668189,15.409844
2159,Alza Box,569631,Sviadnov,73925,Ostravská,159,49.68975,18.326889
2160,Alza Box,577731,Svitavy,56802,Riegrova,1624,49.759771,16.460918
2161,Alza Box,577731,Svitavy,56802,Purkyňova,2136,49.754244,16.466717
2162,Alza Box,577731,Svitavy,56802,A. Slavíčka,892,49.753063,16.477797
2163,Alza Box,577731,Svitavy,56802,R. Kloudy,1639,49.755423,16.462674
2164,Alza Box,577731,Svitavy,56802,Brněnská,801,49.7529,16.4751
2165,Alza Box,579734,Svoboda nad Úpou,54224,,,50.624079,15.818204
2166,Alza Box,586641,Šardice,69613,Šardice,436,48.962,17.034028
2167,Alza Box,598798,Šenov,73934,Těšínská,1154,49.794307,18.369983
2168,Alza Box,598798,Šenov,73934,Radniční náměstí,30,49.784837,18.37481
2169,Alza Box,554171,Šenov u Nového Jičína,74242,Dukelská,672,49.601444,18.006412
2170,Alza Box,538876,Šestajovice,25092,Tyršova,391,50.105704,14.681647
2171,Alza Box,538876,Šestajovice,25092,9. května,25,50.110628,14.67981
2172,Alza Box,538876,Šestajovice,25092,Revoluční,1412,50.115137,14.676236
2173,Alza Box,545121,Ševětín,37363,náměstí Šimona Lomnického,2,49.09945,14.57202
2174,Alza Box,538884,Škvorec,25083,Masarykovo náměstí,26,50.045312,14.72923
2175,Alza Box,583952,Šlapanice,66451,Brněnská,1898,49.169003,16.714496
2176,Alza Box,562858,Šluknov,40777,Sladovnická,1101,51.004989,14.453525
2177,Alza Box,562858,Šluknov,40777,Rumburská,783,51.003199,14.459417
2178,Alza Box,558427,Šťáhlavy,33203,Nezvěstická,612,49.670281,13.502047
2179,Alza Box,539732,Štěchovice,25207,Vltavská,388,49.85151,14.412453
2180,Alza Box,539732,Štěchovice,25207,Hlavní,401,49.850545,14.406664
2181,Alza Box,558435,Štěnovice,33209,Plzeňská,23,49.671747,13.402387
2182,Alza Box,505161,Štěpánov,78313,Dolní,11,49.681876,17.223666
2183,Alza Box,505188,Šternberk,78501,Nádražní,1934,49.723994,17.291944
2184,Alza Box,505188,Šternberk,78501,Průmyslová,2699,49.71226,17.291561
2185,Alza Box,505188,Šternberk,78501,Obchodní,2554,49.720689,17.290718
2186,Alza Box,505188,Šternberk,78501,ČSA,114,49.729067,17.297595
2187,Alza Box,565709,Štětí,41108,Husovo náměstí,711,50.451134,14.373006
2188,Alza Box,569593,Štoky,58253,,,49.503519,15.589972
2189,Alza Box,599948,Štramberk,74266,Nádražní,976,49.583539,18.131829
2190,Alza Box,523704,Šumperk,78701,Šumavská,3152,49.970738,16.97117
2191,Alza Box,523704,Šumperk,78701,Temenická,2588,49.970548,16.961927
2192,Alza Box,523704,Šumperk,78701,Fialova,2974,49.962181,16.980235
2193,Alza Box,523704,Šumperk,78701,Dr. E. Beneše,2871,49.96432,16.975532
2194,Alza Box,523704,Šumperk,78701,Žerotínova,2833,49.957481,16.973515
2195,Alza Box,523704,Šumperk,78701,Temenická,2601,49.966583,16.966167
2196,Alza Box,523704,Šumperk,78701,Vítězná,2886,49.974145,16.975662
2197,Alza Box,557200,Švihov,34012,Čsl. legií,202,49.481312,13.284311
2198,Alza Box,552046,Tábor,39002,Chýnovská,3049,49.408508,14.687599
2199,Alza Box,552046,Tábor,39002,Chýnovská,3192,49.409667,14.686889
2200,Alza Box,552046,Tábor,39001,Volgogradská,2972,49.39329,14.688333
2201,Alza Box,552046,Tábor,39002,Soběslavská,3038,49.396648,14.684091
2202,Alza Box,552046,Tábor,39001,náměstíF. Křižíka,2840,49.412568,14.66469
2203,Alza Box,552046,Tábor,39005,Světlogorská,2769,49.390891,14.685616
2204,Alza Box,552046,Tábor,39002,9. května,2886,49.41256,14.671344
2205,Alza Box,552046,Tábor,39005,U Čápova dvora,3125,49.394902,14.689596
2206,Alza Box,552046,Tábor,39003,Kpt. Nálepky,2397,49.420281,14.65086
2207,Alza Box,552046,Tábor,39005,Soběslavská,3073,49.388509,14.693744
2208,Alza Box,531821,Tachlovice,25217,Jakubská náves,8,50.010886,14.2445
2209,Alza Box,560715,Tachov,34701,Hornická,1449,49.799516,12.626065
2210,Alza Box,560715,Tachov,34701,Jana Ziky,1732,49.790883,12.640945
2211,Alza Box,560715,Tachov,34701,Mánesova,2159,49.798843,12.634635
2212,Alza Box,560715,Tachov,34701,,,49.803364,12.640974
2213,Alza Box,560715,Tachov,34701,Zámecká,2111,49.797642,12.631568
2214,Alza Box,563820,Tanvald,46841,Krkonošská,668,50.735888,15.305354
2215,Alza Box,538892,Tehov,25101,Tehov,3,49.970947,14.693011
2216,Alza Box,599719,Tehovec,25162,U Mototechny,89,49.991309,14.72508
2217,Alza Box,588024,Telč,58856,Dačická,613,49.173152,15.456227
2218,Alza Box,588024,Telč,58856,Myslibořská,299,49.185683,15.465701
2219,Alza Box,545155,Temelín,37305,,,49.181847,14.383095
2220,Alza Box,555631,Teplá,36461,Husova,185,49.98023,12.864961
2221,Alza Box,567442,Teplice,41510,Bohosudovská,29,50.661774,13.854056
2222,Alza Box,567442,Teplice,41501,Unčínská,1518,50.66075,13.842722
2223,Alza Box,567442,Teplice,41501,Maršovská,1539,50.65748,13.845496
2224,Alza Box,567442,Teplice,41501,Průřezná,298,50.632861,13.843671
2225,Alza Box,567442,Teplice,41501,Antonína Sochora,1870,50.647666,13.85355
2226,Alza Box,567442,Teplice,41501,Bílinská,3140,50.627146,13.827583
2227,Alza Box,567442,Teplice,41501,Nádražní náměstí,845,50.646142,13.83028
2228,Alza Box,567442,Teplice,41501,Nákladní,36201,50.64585,13.822467
2229,Alza Box,567442,Teplice,41501,Duchcovská,962,50.635984,13.811912
2230,Alza Box,567442,Teplice,41501,Pražská,300,50.633327,13.847087
2231,Alza Box,567442,Teplice,41501,Čs. dobrovolců,3356,50.638783,13.81973
2232,Alza Box,567442,Teplice,41501,Trnovanská,1269,50.649848,13.853746
2233,Alza Box,567442,Teplice,41501,Kollárova,2807,50.643004,13.831452
2234,Alza Box,567442,Teplice,41501,Jateční,465,50.640849,13.807748
2235,Alza Box,567442,Teplice,41510,Srbická,464,50.661306,13.86475
2236,Alza Box,567442,Teplice,41501,Přítkovská,1613,50.653568,13.846476
2237,Alza Box,567442,Teplice,41501,náměstíSvobody,3312,50.640818,13.824476
2238,Alza Box,565717,Terezín,41201,,,50.513728,14.135369
2239,Alza Box,565717,Terezín,41155,náměstíČSA,215,50.51031,14.151124
2240,Alza Box,599158,Těrlicko,73542,Májová,474,49.752333,18.482721
2241,Alza Box,535222,Tišice,27715,Labská,10,50.256619,14.560506
2242,Alza Box,535222,Tišice,27715,Mělnická,241,50.269206,14.556588
2243,Alza Box,584002,Tišnov,66601,Mlýnská,2291,49.348305,16.421149
2244,Alza Box,584002,Tišnov,66601,Dřínová,1683,49.354478,16.425092
2245,Alza Box,559491,Tlučná,33026,Na Čampuli,824,49.719881,13.242685
2246,Alza Box,585858,Tlumačov,76362,,,49.261466,17.495475
2247,Alza Box,531855,Tmaň,26721,Sídliště,184,49.907189,14.03559
2248,Alza Box,539597,Psáry,25244,Sportovců,343,49.947877,14.526928
2249,Alza Box,555657,Toužim,36401,Malé náměstí,469,50.060619,12.987102
2250,Alza Box,545171,Trhové Sviny,37401,Trocnovská,1288,48.844485,14.629432
2251,Alza Box,545171,Trhové Sviny,37401,Budovatelská,916,48.839904,14.642778
2252,Alza Box,553697,Trmice,40004,Tyršova,869,50.651248,14.00057
2253,Alza Box,505293,Troubelice,78383,Troubelice,352,49.816563,17.081984
2254,Alza Box,584029,Troubsko,66441,Jihlavská,712,49.176697,16.506822
2255,Alza Box,579025,Trutnov,54101,Polská,96,50.565309,15.924041
2256,Alza Box,579025,Trutnov,54101,Palackého,201,50.559786,15.909084
2257,Alza Box,579025,Trutnov,54101,Horská,92,50.5729,15.898167
2258,Alza Box,579025,Trutnov,54101,J. R. z Dubé,561,50.563225,15.895348
2259,Alza Box,579025,Trutnov,54102,Horská,647,50.583279,15.890543
2260,Alza Box,579025,Trutnov,54101,Říční,56,50.564783,15.911387
2261,Alza Box,571041,Třebechovice pod Orebem,50346,Hradecká,1027,50.202176,15.981973
2262,Alza Box,571041,Třebechovice pod Orebem,50346,Žižkova,1378,50.200897,15.989987
2263,Alza Box,571041,Třebechovice pod Orebem,50346,Orlická,245,50.200791,15.988905
2264,Alza Box,565768,Třebenice,41113,Sokolská,87,50.47843,13.989435
2265,Alza Box,537896,Třebestovice,28912,Železniční,300,50.124774,14.958855
2266,Alza Box,590266,Třebíč,67401,Smila Osovského,199,49.215797,15.884872
2267,Alza Box,590266,Třebíč,67401,Brněnská,241,49.216147,15.899014
2268,Alza Box,590266,Třebíč,67401,Okružní,934,49.206033,15.846074
2269,Alza Box,590266,Třebíč,67401,Modřínová,600,49.218996,15.891736
2270,Alza Box,590266,Třebíč,67401,Táborská,111,49.223522,15.871459
2271,Alza Box,590266,Třebíč,67401,Hrotovická,1202,49.207901,15.895028
2272,Alza Box,590266,Třebíč,67401,Brněnská,360,49.215275,15.895428
2273,Alza Box,582239,Rájec-Jestřebí,67902,Sportovní,604,49.407301,16.6362
2274,Alza Box,547336,Třeboň,37901,Svobody,1023,49.003529,14.761452
2275,Alza Box,547336,Třeboň,37901,Jiráskova,1315,49.010467,14.759348
2276,Alza Box,559521,Třemošná,33011,Plzeňská,1080,49.808236,13.392334
2277,Alza Box,559521,Třemošná,33011,Plzeňská,1084,49.81557,13.395125
2278,Alza Box,572411,Třemošnice,53843,Náměstí,353,49.869242,15.581181
2279,Alza Box,588032,Třešť,58901,Revoluční,1206,49.290408,15.483075
2280,Alza Box,598810,Třinec,73961,Dukelská,993,49.663592,18.681437
2281,Alza Box,598810,Třinec,73961,Havlíčkova,321,49.679524,18.66659
2282,Alza Box,598810,Třinec,73961,Tyršova,1019,49.671357,18.669528
2283,Alza Box,598810,Třinec,73961,Za Tratí,1357,49.669668,18.682933
2284,Alza Box,598810,Třinec,73961,Oldřichovice,632,49.661168,18.650009
2285,Alza Box,598810,Třinec,73961,Dukelská,1137,49.666717,18.678388
2286,Alza Box,598810,Třinec,73961,Frýdecká,77,49.675792,18.661561
2287,Alza Box,541656,Rakovník,26901,Plzeňská,2809,50.091197,13.725893
2288,Alza Box,532983,Tuchlovice,27302,Karlovarská,34,50.138103,13.989078
2289,Alza Box,539767,Tuchoměřice,25267,Ke Kopanině,421,50.125556,14.281139
2290,Alza Box,539767,Tuchoměřice,25267,,,50.122401,14.28523
2291,Alza Box,577626,Turnov,51101,Průmyslová,3002,50.595504,15.132452
2292,Alza Box,577626,Turnov,51101,Sobotecká,221,50.585945,15.154406
2293,Alza Box,577626,Turnov,51101,Sobotecká,2086,50.580212,15.154547
2294,Alza Box,577626,Turnov,51101,Studentská,1727,50.588659,15.138695
2295,Alza Box,577626,Turnov,51101,Jičínská,2148,50.580516,15.155374
2296,Alza Box,577626,Turnov,51101,Havlíčkovo náměstí,1765,50.587952,15.159506
2297,Alza Box,539775,Tursko,25265,Ke Statkům,146,50.192034,14.323024
2298,Alza Box,545201,Týn nad Vltavou,37501,Hlinecká,745,49.226278,14.426893
2299,Alza Box,545201,Týn nad Vltavou,37501,Orlická,555,49.217664,14.418778
2300,Alza Box,530841,Týnec nad Sázavou,25741,K Lesíku,594,49.838109,14.580811
2301,Alza Box,530841,Týnec nad Sázavou,25741,Družstevní,198,49.836067,14.588387
2302,Alza Box,576859,Týniště nad Orlicí,51721,Okružní,931,50.155434,16.082729
2303,Alza Box,576859,Týniště nad Orlicí,51721,Mostecká,329,50.147688,16.06933
2304,Alza Box,592005,Uherské Hradiště,68601,Města Mayen,1496,49.070519,17.474521
2305,Alza Box,592005,Uherské Hradiště,68601,Města Mayen,1496,49.071455,17.473362
2306,Alza Box,592005,Uherské Hradiště,68601,Tř. Maršála Malinovského,1304,49.062048,17.468186
2307,Alza Box,592005,Uherské Hradiště,68601,Velehradská tř.,1300,49.070248,17.463732
2308,Alza Box,592731,Uherský Brod,68801,Rybářská,2481,49.022942,17.656076
2309,Alza Box,592731,Uherský Brod,68801,Vlčnovská,2514,49.021343,17.641892
2310,Alza Box,592731,Uherský Brod,68801,,,49.025778,17.66087
2311,Alza Box,592731,Uherský Brod,68801,Partyzánů,2031,49.02956,17.651156
2312,Alza Box,592749,Uherský Ostroh,68724,Ve Dvoře,838,48.98574,17.401638
2313,Alza Box,534498,Uhlířské Janovice,28504,Komenského,400,49.881964,15.061164
2314,Alza Box,584045,Újezd u Brna,66453,Nádražní,1107,49.107707,16.74403
2315,Alza Box,533017,Unhošť,27351,Pražská,1525,50.085457,14.13535
2316,Alza Box,533017,Unhošť,27351,Pražská,836,50.08544,14.132786
2317,Alza Box,533017,Unhošť,27351,Pražská,1545,50.087375,14.142453
2318,Alza Box,505587,Uničov,78391,J. z Poděbrad,1372,49.773376,17.11782
2319,Alza Box,505587,Uničov,78391,Litovelská,1279,49.764889,17.111583
2320,Alza Box,505587,Uničov,78391,Šumperská,527,49.775778,17.122556
2321,Alza Box,579777,Úpice,54232,Revoluční,1117,50.513901,16.012218
2322,Alza Box,590126,Určice,79804,Určice č.p.,350,49.429898,17.080156
2323,Alza Box,554804,Ústí nad Labem,40011,Krušnohorská,2890,50.676524,14.031391
2324,Alza Box,554804,Ústí nad Labem,40011,SNP,2451,50.667543,14.040503
2325,Alza Box,554804,Ústí nad Labem,40003,Novosedlické náměstí,1390,50.649554,14.059857
2326,Alza Box,554804,Ústí nad Labem,40321,U Točny,24,50.620159,14.078495
2327,Alza Box,554804,Ústí nad Labem,40001,Klíšská,3418,50.66316,14.029701
2328,Alza Box,554804,Ústí nad Labem,40331,Peškova,504,50.679436,14.103185
2329,Alza Box,554804,Ústí nad Labem,40001,Masarykova,624,50.683549,14.002082
2330,Alza Box,554804,Ústí nad Labem,40010,Všebořická,389,50.68442,13.994398
2331,Alza Box,554804,Ústí nad Labem,40001,Okružní,3368,50.663011,14.020929
2332,Alza Box,554804,Ústí nad Labem,40001,Klíšská,940,50.666356,14.014927
2333,Alza Box,554804,Ústí nad Labem,40007,Krčínova,841,50.668026,14.073197
2334,Alza Box,554804,Ústí nad Labem,40001,Skorotická,784,50.681163,14.00795
2335,Alza Box,554804,Ústí nad Labem,40007,Neštěmická,825,50.668193,14.067916
2336,Alza Box,554804,Ústí nad Labem,40011,Sociální péče,3316,50.680193,14.022454
2337,Alza Box,554804,Ústí nad Labem,40331,Seifertova,574,50.675916,14.10921
2338,Alza Box,554804,Ústí nad Labem,40011,Šrámkova,3218,50.674736,14.057771
2339,Alza Box,554804,Ústí nad Labem,40011,Stříbrnická,3382,50.677021,14.03744
2340,Alza Box,554804,Ústí nad Labem,40011,Hornická,2515,50.672597,14.028643
2341,Alza Box,554804,Ústí nad Labem,40001,Masarykova,592,50.668867,14.025958
2342,Alza Box,554804,Ústí nad Labem,40007,Příkopy,425,50.667721,14.078407
2343,Alza Box,554804,Ústí nad Labem,40331,Seifertova,567,50.671479,14.103644
2344,Alza Box,554804,Ústí nad Labem,40011,Mírová,3465,50.682326,14.028138
2345,Alza Box,554804,Ústí nad Labem,40003,Železničářská,1602,50.653682,14.047996
2346,Alza Box,554804,Ústí nad Labem,40010,Bílinská,3490,50.658542,14.039666
2347,Alza Box,554804,Ústí nad Labem,40010,Masarykova,974,50.677609,14.013597
2348,Alza Box,554804,Ústí nad Labem,40010,Havířská,352,50.689377,13.983328
2349,Alza Box,579891,Ústí nad Orlicí,56206,Popradská,1378,49.974312,16.408361
2350,Alza Box,579891,Ústí nad Orlicí,56201,17. listopadu,70,49.974328,16.398617
2351,Alza Box,579891,Ústí nad Orlicí,56201,Cihlářská,1516,49.978528,16.402639
2352,Alza Box,538957,Úvaly,25082,Pražská,2284,50.072119,14.706084
2353,Alza Box,538957,Úvaly,25082,Škvorecká,2000,50.067031,14.736226
2354,Alza Box,538957,Úvaly,25082,náměstíSvobody,1452,50.074833,14.717528
2355,Alza Box,535257,Úžice,27745,Hlavní,23,50.252383,14.37864
2356,Alza Box,585891,Valašské Klobouky,76601,Cyrilometodějská,772,49.14241,18.012637
2357,Alza Box,545058,Valašské Meziříčí,75701,Štěpánov,728,49.464687,17.980996
2358,Alza Box,545058,Valašské Meziříčí,75701,Na Tržnici,758,49.474184,17.973195
2359,Alza Box,545058,Valašské Meziříčí,75701,Králova,1276,49.469282,17.971088
2360,Alza Box,545058,Valašské Meziříčí,75701,Rožnovská,916,49.477326,17.982903
2361,Alza Box,545058,Valašské Meziříčí,75701,Na Křižanově pile,944,49.474694,17.962425
2362,Alza Box,545058,Valašské Meziříčí,75701,U Nákladního nádraží,848,49.47723,17.963885
2363,Alza Box,545058,Valašské Meziříčí,75701,Máchova,699,49.469731,17.974403
2364,Alza Box,584975,Valtice,69142,P. Bezruče,182,48.74277,16.75857
2365,Alza Box,584975,Valtice,69142,,,48.74241,16.75572
2366,Alza Box,576883,Vamberk,51754,Jiráskova,412,50.114983,16.298304
2367,Alza Box,576883,Vamberk,51754,Tyršova,955,50.116094,16.289831
2368,Alza Box,576883,Vamberk,51754,Struha,700,50.116639,16.292931
2369,Alza Box,562882,Varnsdorf,40747,Kmochova,2369,50.907555,14.619418
2370,Alza Box,562882,Varnsdorf,40747,Čs. mládeže,3500,50.913446,14.612148
2371,Alza Box,562882,Varnsdorf,40747,Otáhalova,3157,50.910357,14.6231
2372,Alza Box,545228,Včelná,37382,Jiříčkova,663,48.928161,14.457411
2373,Alza Box,559580,Vejprnice,33027,Mírová,17,49.729495,13.276557
2374,Alza Box,563404,Vejprty,43191,Potoční,1299,50.497611,13.030563
2375,Alza Box,563404,Vejprty,43191,Nám. T. G. Masaryka,1242,50.494716,13.032226
2376,Alza Box,538965,Veleň,25063,Hlavní,201,50.175287,14.557178
2377,Alza Box,545821,Velešín,38232,Sídliště,679,48.833463,14.457203
2378,Alza Box,545821,Velešín,38232,Budějovická,400,48.830001,14.462205
2379,Alza Box,533831,Velim,28101,Palackého,409,50.061903,15.12005
2380,Alza Box,596973,Velká Bíteš,59501,Vlkovská,608,49.296747,16.218763
2381,Alza Box,505609,Velká Bystřice,78353,ČSA,987,49.589304,17.348853
2382,Alza Box,590266,Třebíč,67401,Tomáše Bati,1090,49.206465,15.857272
2383,Alza Box,539279,Velká Hleďsebe,35301,Pohraniční stráže,333,49.961535,12.669189
2384,Alza Box,586714,Velká nad Veličkou,69674,Velká nad Veličkou,406,48.880575,17.517754
2385,Alza Box,584983,Velké Bílovice,69102,náměstíOsvoboditelů,336,48.850676,16.890604
2386,Alza Box,563838,Velké Hamry,46845,Velké Hamry,402,50.717443,15.315435
2387,Alza Box,541265,Velké Losiny,78815,Rudé armády,19,50.031783,17.040982
2388,Alza Box,597007,Velké Meziříčí,59401,,,49.346476,16.039797
2389,Alza Box,597007,Velké Meziříčí,59401,U Tržiště,2204,49.348396,16.023843
2390,Alza Box,597007,Velké Meziříčí,59401,K Novému nádraží,2014,49.348471,16.020065
2391,Alza Box,585009,Velké Němčice,69163,Brněnská,435,48.991728,16.675944
2392,Alza Box,582646,Velké Opatovice,67963,náměstíMíru,653,49.611448,16.679651
2393,Alza Box,585017,Velké Pavlovice,69106,Hlavní,49,48.904809,16.818297
2394,Alza Box,538981,Velké Popovice,25169,Masarykova,87,49.921658,14.644055
2395,Alza Box,547646,Velké Poříčí,54932,Náměstí,563,50.460967,16.189754
2396,Alza Box,539813,Velké Přílepy,25264,Dvořákova,238,50.156764,14.317898
2397,Alza Box,539813,Velké Přílepy,25264,Pražská,177,50.15826,14.314368
2398,Alza Box,539813,Velké Přílepy,25264,Roztocká,1026,50.158524,14.317179
2399,Alza Box,539813,Velké Přílepy,25264,Kladenská,215,50.160083,14.310278
2400,Alza Box,535265,Velký Borek,27731,Vrutická,4,50.345145,14.515673
2401,Alza Box,533840,Velký Osek,28151,Komenského,715,50.099761,15.188006
2402,Alza Box,505650,Velký Týnec,78372,,,49.551518,17.333927
2403,Alza Box,505650,Velký Týnec,78372,Olomoucká,90,49.558834,17.307174
2404,Alza Box,535273,Veltrusy,27746,Palackého,95,50.27115,14.328332
2405,Alza Box,535273,Veltrusy,27746,Palackého,563,50.266269,14.335789
2406,Alza Box,533041,Velvary,27324,Na Průhoně,45,50.280865,14.239795
2407,Alza Box,533041,Velvary,27324,Školní,719,50.281592,14.23833
2408,Alza Box,554928,Vendryně,73994,Vendryně,928,49.655181,18.696327
2409,Alza Box,553271,Veselí nad Lužnicí,39181,Tř. Československé armády,903,49.186891,14.70707
2410,Alza Box,553271,Veselí nad Lužnicí,39181,Budějovická,650,49.1805,14.692306
2411,Alza Box,586722,Veselí nad Moravou,69801,Stolářská,1758,48.951141,17.3846
2412,Alza Box,513458,Vestec,25250,Vídeňská,689,49.983089,14.49478
2413,Alza Box,553239,Tučapy,39126,,,49.292028,14.805574
2414,Alza Box,545830,Větřní,38211,Šumavská,284,48.775359,14.289074
2415,Alza Box,584100,Veverská Bítýška,66471,Boční,620,49.276924,16.435546
2416,Alza Box,550647,Vimperk,38501,Nádražní,528,49.056482,13.786577
2417,Alza Box,550647,Vimperk,38501,Sušická,617,49.059,13.778417
2418,Alza Box,533025,,27361,Lesní,383,50.106031,14.069672
2419,Alza Box,511021,Vítkov,74901,Opavská,1019,49.77871,17.75507
2420,Alza Box,585939,Vizovice,76312,Zlínská,1227,49.217846,17.847871
2421,Alza Box,585939,Vizovice,76312,Říčanská,294,49.216928,17.854111
2422,Alza Box,530883,Vlašim,25801,Dolnokralovická,1291,49.702094,14.895628
2423,Alza Box,530883,Vlašim,25801,Havlíčkova,2044,49.702305,14.902361
2424,Alza Box,530883,Vlašim,25801,Divišovská,328,49.711288,14.893961
2425,Alza Box,530883,Vlašim,25801,Lidická,1792,49.700864,14.899686
2426,Alza Box,530883,Vlašim,25801,Okružní,1884,49.700622,14.906604
2427,Alza Box,586757,Vnorovy,69661,Vinohradní,670,48.93027,17.350697
2428,Alza Box,551953,Vodňany,38901,Dr. Hajného,1285,49.147828,14.181122
2429,Alza Box,539015,Vodochody,25069,Průběžná,5,50.201901,14.406257
2430,Alza Box,559601,Vochov,33023,Vochov,325,49.756563,13.268718
2431,Alza Box,559601,Vochov,33023,Vochov,26,49.755332,13.274463
2432,Alza Box,535290,Vojkovice,27744,Vojkovice,18,50.296111,14.374944
2433,Alza Box,550671,Volary,38451,V Kasárnách,670,48.910515,13.887547
2434,Alza Box,551970,Volyně,38701,Karla Čapka,599,49.164649,13.882608
2435,Alza Box,551970,Volyně,38701,náměstí Svobody,36,49.165667,13.886306
2436,Alza Box,530905,Votice,25901,Komenského náměstí,657,49.639,14.642673
2437,Alza Box,530905,Votice,25901,Husova,471,49.638113,14.636784
2438,Alza Box,586765,Vracov,69642,Okružní,593,48.973932,17.217371
2439,Alza Box,539848,Vrané nad Vltavou,25246,U Pošty,358,49.938936,14.383875
2440,Alza Box,585033,Vranovice,69125,Školní,1,48.968027,16.605517
2441,Alza Box,598879,Vratimov,73932,Strmá,900,49.768817,18.312751
2442,Alza Box,531944,Vráž,26711,Květnová,320,49.981858,14.124238
2443,Alza Box,597961,Vrbno pod Pradědem,79326,Jesenická,647,50.121437,17.381226
2444,Alza Box,534587,Vrdy,28571,Školská,108,49.923872,15.46701
2445,Alza Box,534587,Vrdy,28571,Chrudimska,189,49.925118,15.4639
2446,Alza Box,579858,Vrchlabí,54301,A. Jiráska,1474,50.618592,15.612264
2447,Alza Box,579858,Vrchlabí,54301,Lánovská,1545,50.620317,15.618016
2448,Alza Box,579858,Vrchlabí,54301,Lánovská,1656,50.620993,15.624158
2449,Alza Box,541630,Vsetín,75501,,,49.331542,17.986446
2450,Alza Box,541630,Vsetín,75501,Jasenická,311,49.332879,18.006569
2451,Alza Box,541630,Vsetín,75501,Štěpánská,192,49.335347,17.987638
2452,Alza Box,541630,Vsetín,75501,Benátky,1578,49.338458,17.981323
2453,Alza Box,541630,Vsetín,75501,Školní,1893,49.340328,17.988905
2454,Alza Box,541630,Vsetín,75501,Smetanova,1484,49.335481,17.995639
2455,Alza Box,539856,Všenory,25231,U Silnice,151,49.933281,14.307937
2456,Alza Box,535320,Všetaty,27716,Na Náměstí,28,50.282355,14.591919
2457,Alza Box,581186,Vysoké Mýto,56601,Pivovarská,524,49.951748,16.145378
2458,Alza Box,581186,Vysoké Mýto,56601,Masarykovo náměstí,155,49.948497,16.153294
2459,Alza Box,581186,Vysoké Mýto,56601,Husova,144,49.946113,16.16049
2460,Alza Box,581186,Vysoké Mýto,56601,Palackého,458,49.950561,16.16636
2461,Alza Box,531961,Vysoký Újezd,26716,Vysoký Újezd,934,49.991411,14.217208
2462,Alza Box,592889,Vyškov,68201,Brněnská,514,49.273081,16.992753
2463,Alza Box,592889,Vyškov,68201,Puškinova,409,49.276766,16.9829
2464,Alza Box,592889,Vyškov,68201,Nádražní,238,49.277527,16.994693
2465,Alza Box,592889,Vyškov,68201,Cukrovarská,492,49.27459,16.994655
2466,Alza Box,545848,Vyšší Brod,38273,Míru,344,48.618836,14.309713
2467,Alza Box,541354,Zábřeh,78901,Leštinská,2336,49.875807,16.886639
2468,Alza Box,541354,Zábřeh,78901,28. října,655,49.880532,16.875222
2469,Alza Box,562262,Zákupy,47123,Borská,32,50.68578,14.644693
2470,Alza Box,533050,Vinařice,27307,Hlavní,343,50.171606,14.089236
2471,Alza Box,535362,Záryby,27713,Záryby,42,50.220502,14.625464
2472,Alza Box,545236,Zašová,75651,Zašová,522,49.475917,18.043444
2473,Alza Box,560260,Zbiroh,33808,Majerové,44,49.860037,13.77266
2474,Alza Box,559661,Zbůch,33022,Plzeňská,263,49.676644,13.223425
2475,Alza Box,584223,Zbýšov,66411,Masarykova,700,49.157561,16.349374
2476,Alza Box,539058,Zdiby,25066,U Továrny,1,50.169056,14.427379
2477,Alza Box,539058,Zdiby,25066,Ke Zdibsku,66,50.174482,14.450823
2478,Alza Box,532011,Zdice,26751,Žižkova,91,49.915709,13.98022
2479,Alza Box,539066,Zeleneč,25091,Školní,2,50.134691,14.661587
2480,Alza Box,539066,Zeleneč,25091,,,50.130371,14.664706
2481,Alza Box,539881,Zlatníky-Hodkovice,25241,U Jezera,300,49.962941,14.48081
2482,Alza Box,585068,Zlín,76302,třída Svobody,836,49.20515,17.583609
2483,Alza Box,585068,Zlín,76001,L. Váchy,517,49.217282,17.633694
2484,Alza Box,585068,Zlín,76001,tř. Tomáše Bati,269,49.219938,17.639447
2485,Alza Box,585068,Zlín,76302,Masarykova,1054,49.207985,17.594634
2486,Alza Box,585068,Zlín,76001,Kvítková,4352,49.226554,17.670538
2487,Alza Box,585068,Zlín,76001,Sokolská,5300,49.236977,17.686387
2488,Alza Box,585068,Zlín,76005,Okružní,5454,49.236037,17.667866
2489,Alza Box,585068,Zlín,76001,Okružní,4701,49.233361,17.659583
2490,Alza Box,585068,Zlín,76001,Štefánikova,143,49.223586,17.695119
2491,Alza Box,585068,Zlín,76302,tř.,3,49.203181,17.569528
2492,Alza Box,585068,Zlín,76001,Gahurova,5176,49.227722,17.656941
2493,Alza Box,585068,Zlín,76302,tř. Tomáše Bati,398,49.213201,17.612784
2494,Alza Box,545341,Zliv,37344,Jiráskova,397,49.067439,14.363376
2495,Alza Box,545341,Zliv,37344,Dolní náměstí,572,49.063446,14.366261
2496,Alza Box,531511,Zlončice,27801,Zlončice,40,50.229111,14.3585
2497,Alza Box,539082,Zlonín,25064,Hlavní,23,50.216907,14.508358
2498,Alza Box,593711,Znojmo,66902,Vídeňská tř.,46,48.84721,16.056648
2499,Alza Box,593711,Znojmo,67181,Dukelských bojovníků,3632,48.837156,16.064688
2500,Alza Box,593711,Znojmo,66902,Přímětická,2625,48.870974,16.039338
2501,Alza Box,593711,Znojmo,66902,Dobšická,3929,48.85312,16.069098
2502,Alza Box,593711,Znojmo,67181,Evropská,3853,48.830697,16.07018
2503,Alza Box,593711,Znojmo,66902,,,48.868348,16.033585
2504,Alza Box,593711,Znojmo,66902,Jarošova,1234,48.859969,16.0559
2505,Alza Box,534633,Zruč nad Sázavou,28522,1. máje,2335,49.746467,15.099581
2506,Alza Box,534633,Zruč nad Sázavou,28522,náměstíMíru,594,49.743379,15.089469
2507,Alza Box,559679,Zruč-Senec,33008,U Pomníku,320,49.798139,13.417222
2508,Alza Box,545252,Zubří,75654,Hlavní,1114,49.463889,18.091889
2509,Alza Box,581259,Žamberk,56401,Nádražní,1135,50.075511,16.459457
2510,Alza Box,581259,Žamberk,56401,U Polikliniky,1134,50.084236,16.461762
2511,Alza Box,562297,Žandov,47107,Nádražní,,50.712762,14.397089
2512,Alza Box,566985,Žatec,43801,Dukelská,2439,50.320719,13.55264
2513,Alza Box,566985,Žatec,43801,Kadaňská,3034,50.323722,13.528524
2514,Alza Box,566985,Žatec,43801,Podměstí,2126,50.330571,13.538492
2515,Alza Box,566985,Žatec,43801,Husova,3078,50.31482,13.532998
2516,Alza Box,566985,Žatec,43801,Plzeňská,3145,50.322482,13.529129
2517,Alza Box,566985,Žatec,43801,Nákladní,3089,50.326798,13.544499
2518,Alza Box,586803,Ždánice,69632,Městečko,198,49.065697,17.028977
2519,Alza Box,595209,Žďár nad Sázavou,59101,Dolní,211,49.56823,15.940102
2520,Alza Box,595209,Žďár nad Sázavou,59101,Chelčického,2376,49.554972,15.937442
2521,Alza Box,595209,Žďár nad Sázavou,59101,Brněnská,1144,49.555967,15.949722
2522,Alza Box,595209,Žďár nad Sázavou,59101,Okružní,968,49.562667,15.929889
2523,Alza Box,595209,Žďár nad Sázavou,59101,Horní,2233,49.560105,15.9444
2524,Alza Box,569780,Ždírec nad Doubravou,58263,náměstí,9,49.697189,15.813117
2525,Alza Box,532029,Žebrák,26753,Tovární,35,49.872716,13.894212
2526,Alza Box,557528,Železná Ruda,34004,1. máje,392,49.138112,13.231418
2527,Alza Box,563871,Železný Brod,46822,Průmyslová,897,50.640468,15.248457
2528,Alza Box,563871,Železný Brod,46822,,,50.641223,15.255739
2529,Alza Box,584282,Židlochovice,66701,,,49.043358,16.616224
2530,Alza Box,584282,Židlochovice,66701,Nádražní,853,49.032765,16.61789
2531,Alza Box,533947,Žiželice,28129,Palackého,402,50.13295,15.390998
2532,Alza Box,555762,Žlutice,36452,Purkyňova,114,50.090191,13.163083