ID ,name,city_code,city,zip_code,street,house_NO,latitude ,longtitude
,OX - Balíkovna,554782.0,Praha,10104,Bohdalecká,1404.0,,
,OX - Balíkovna,554782.0,Praha,10153,Vršovická,,,
,OX - Balíkovna,554782.0,Praha,10407,U starého nádraží,262.0,,
,OX - Balíkovna,554782.0,Praha,10806,Počernická,518.0,,
,OX - Balíkovna,554782.0,Praha,10905,Kutnohorská,532.0,,
,OX - Balíkovna,554782.0,Praha,11006,Těšnov,1744.0,,
,OX - Balíkovna,554782.0,Praha,11053,Jindřišská,909.0,,
,OX - Balíkovna,554782.0,Praha,12025,Mánesova,1602.0,,
,OX - Balíkovna,554782.0,Praha,12045,Wilsonova,300.0,,
,OX - Balíkovna,554782.0,Praha,12807,Svatoplukova,1744.0,,
,OX - Balíkovna,554782.0,Praha,13059,U nákladového nádraží,2759.0,,
,OX - Balíkovna,554782.0,Praha,13060,Olšanská,38.0,,
,OX - Balíkovna,554782.0,Praha,13061,Na Jarově,2425.0,,
,OX - Balíkovna,554782.0,Praha,14029,Thomayerova,811.0,,
,OX - Balíkovna,554782.0,Praha,14030,Olbrachtova,2096.0,,
,OX - Balíkovna,554782.0,Praha,14031,Na Pankráci,1724.0,,
,OX - Balíkovna,554782.0,Praha,14032,Na strži,1709.0,,
,OX - Balíkovna,554782.0,Praha,14033,Vyskočilova,1481.0,,
,OX - Balíkovna,554782.0,Praha,14107,Postupická,2931.0,,
,OX - Balíkovna,554782.0,Praha,14227,Nad lesním divadlem,,,
,OX - Balíkovna,554782.0,Praha,14704,Modřanská,1841.0,,
,OX - Balíkovna,554782.0,Praha,14713,Vrbova,1233.0,,
,OX - Balíkovna,554782.0,Praha,14911,Arkalycká,951.0,,
,OX - Balíkovna,554782.0,Praha,14912,Türkova,2318.0,,
,OX - Balíkovna,554782.0,Praha,14917,Brandlova,1640.0,,
,OX - Balíkovna,554782.0,Praha,15035,Strakonická,,,
,OX - Balíkovna,554782.0,Praha,15036,Nádražní,279.0,,
,OX - Balíkovna,554782.0,Praha,15049,V úvalu,84.0,,
,OX - Balíkovna,554782.0,Praha,15307,U starého stadiónu,1585.0,,
,OX - Balíkovna,554782.0,Praha,15516,Hábova,1516.0,,
,OX - Balíkovna,554782.0,Praha,15517,Mukařovského,2590.0,,
,OX - Balíkovna,554782.0,Praha,16105,Žukovského,888.0,,
,OX - Balíkovna,554782.0,Praha,16108,Drnovská,1042.0,,
,OX - Balíkovna,554782.0,Praha,16109,Evropská,,,
,OX - Balíkovna,554782.0,Praha,16205,U vojenské nemocnice,1200.0,,
,OX - Balíkovna,554782.0,Praha,16311,Španielova,1378.0,,
,OX - Balíkovna,554782.0,Praha,16905,Radimova,2322.0,,
,OX - Balíkovna,554782.0,Praha,17009,Partyzánská,1504.0,,
,OX - Balíkovna,554782.0,Praha,17010,Milady Horákové,383.0,,
,OX - Balíkovna,554782.0,Praha,18404,Za Pískovnou,1205.0,,
,OX - Balíkovna,554782.0,Praha,19041,Prosecká,852.0,,
,OX - Balíkovna,554782.0,Praha,19042,Verneřická,407.0,,
,OX - Balíkovna,554782.0,Praha,19050,Kolbenova,,,
,OX - Balíkovna,554782.0,Praha,19060,Českomoravská,2420.0,,
,OX - Balíkovna,554782.0,Praha,19912,Křivoklátská,285.0,,
,OX - Balíkovna,538957.0,Úvaly,25040,Jiráskova,287.0,,
,OX - Balíkovna,538132.0,Čelákovice,25041,Masarykova,197.0,,
,OX - Balíkovna,538094.0,Brandýs nad Labem-Stará Boleslav,25150,Pražská,1825.0,,
,OX - Balíkovna,539139,Černošice,25315,Kazínská,,,
,OX - Balíkovna,539244.0,Hostivice,25339,Floriánova,2461.0,,
,OX - Balíkovna,598313.0,Trnová,25371,,80,,
,OX - Balíkovna,529516.0,Čerčany,25731,Nádražní,26,,
,OX - Balíkovna,530883.0,Vlašim,25818,Blanická,1108,,
,OX - Balíkovna,539911.0,Příbram,26118,Nádraží,21,,
,OX - Balíkovna,540889.0,Nová Ves pod Pleší,26218,Řadová,546,,
,OX - Balíkovna,540439.0,Kamýk nad Vltavou,26269,,182,,
,OX - Balíkovna,541397.0,Svatý Jan,26270,,33,,
,OX - Balíkovna,541281.0,Sedlčany,26410,Nádražní,106,,
,OX - Balíkovna,531057.0,Beroun,26620,Švermova,1368,,
,OX - Balíkovna,531057.0,Beroun,26621,Na Máchovně,1610,,
,OX - Balíkovna,534218.0,Málkov,26704,,1,,
,OX - Balíkovna,532011.0,Zdice,26767,Čs. armády,115,,
,OX - Balíkovna,541656.0,Rakovník,26914,Nádraží,191,,
,OX - Balíkovna,542474.0,Šanov,27045,,91,,
,OX - Balíkovna,542237.0,Pochvalov,27058,,49,,
,OX - Balíkovna,532053.0,Kladno,27251,Poštovní náměstí,2357,,
,OX - Balíkovna,533041.0,Velvary,27336,,264,,
,OX - Balíkovna,535125.0,Bílichov,27386,,18,,
,OX - Balíkovna,534676.0,Mělník,27617,Nádražní,2004,,
,OX - Balíkovna,535087.0,Neratovice,27768,Nádražní,43,,
,OX - Balíkovna,535087.0,Neratovice,27774,Mládežnická,1357,,
,OX - Balíkovna,535389.0,Zlosyň,27785,,103,,
,OX - Balíkovna,534951.0,Kralupy nad Vltavou,27819,Nádražní,55,,
,OX - Balíkovna,533165.0,Kolín,28037,Rorejcova,569,,
,OX - Balíkovna,533165.0,Kolín,28044,Pražská,1058,,
,OX - Balíkovna,533190.0,Bělušice,28074,,33,,
,OX - Balíkovna,533840.0,Velký Osek,28153,Nádražní,63,,
,OX - Balíkovna,533271.0,Český Brod,28206,Krále Jiřího,212,,
,OX - Balíkovna,533271.0,Český Brod,28209,Palackého,1374,,
,OX - Balíkovna,533955.0,Kutná Hora,28431,Masarykova,639,,
,OX - Balíkovna,534633.0,Zruč nad Sázavou,28529,Tomáše Bati,1012,,
,OX - Balíkovna,534005.0,Čáslav,28602,Jeníkovská,2064,,
,OX - Balíkovna,537004.0,Nymburk,28811,Petra Bezruče,361,,
,OX - Balíkovna,537276.0,Kamenné Zboží,28814,,180,,
,OX - Balíkovna,536083.0,Velenice,28920,,130,,
,OX - Balíkovna,537705.0,Poříčany,28964,Nádražní,90,,
,OX - Balíkovna,537454.0,Lysá nad Labem,28965,Čapkova,508,,
,OX - Balíkovna,534757.0,Seletice,28974,,139,,
,OX - Balíkovna,537454.0,Lysá nad Labem,28999,Sídliště,1438,,
,OX - Balíkovna,537683.0,Poděbrady,29027,Palackého,46,,
,OX - Balíkovna,534862.0,Zvěřínek,29034,Hořátevská,41,,
,OX - Balíkovna,565563.0,Lipník,29458,,456,,
,OX - Balíkovna,536989.0,Žerčice,29486,,77,,
,OX - Balíkovna,536202.0,Ledce,29487,,110,,
,OX - Balíkovna,554791.0,Plzeň,30116,Americká,2186,,
,OX - Balíkovna,554791.0,Plzeň,30117,Lochotínská,1064,,
,OX - Balíkovna,554791.0,Plzeň,30118,U Prazdroje,2746,,
,OX - Balíkovna,554791.0,Plzeň,30119,Klatovská třída,2524,,
,OX - Balíkovna,554791.0,Plzeň,31804,Macháčkova,926,,
,OX - Balíkovna,554791.0,Plzeň,32201,Chebská,518,,
,OX - Balíkovna,554791.0,Plzeň,32311,alej Svobody,1274.0,,
,OX - Balíkovna,554791.0,Plzeň,32605,Skladová,2483.0,,
,OX - Balíkovna,554791.0,Plzeň,32616,Nádražní,102.0,,
,OX - Balíkovna,559300.0,Nýřany,33055,Nádražní,84.0,,
,OX - Balíkovna,559351.0,Plasy,33155,Plzeňská,516.0,,
,OX - Balíkovna,558371.0,Starý Plzenec,33218,Baslova,1081.0,,
,OX - Balíkovna,558109.0,Nepomuk,33508,U Trati,49.0,,
,OX - Balíkovna,558109.0,Nepomuk,33509,Plzeňská,162.0,,
,OX - Balíkovna,559717.0,Rokycany,33716,náměstí 5. května,309.0,,
,OX - Balíkovna,560260.0,Zbiroh,33834,Československé armády,535.0,,
,OX - Balíkovna,555771.0,Klatovy,33917,ul. 5. května,689.0,,
,OX - Balíkovna,555771.0,Klatovy,33918,Nádražní,149.0,,
,OX - Balíkovna,555771.0,Klatovy,33919,Nádražní,89.0,,
,OX - Balíkovna,555771.0,Klatovy,33920,Pod Hůrkou,606.0,,
,OX - Balíkovna,542172.0,Červené Poříčí,34010,,27.0,,
,OX - Balíkovna,556254.0,Horažďovice,34108,Předměstí,432.0,,
,OX - Balíkovna,553433.0,Babylon,34417,,27.0,,
,OX - Balíkovna,554294.0,Staňkov,34567,Plzeňská,377.0,,
,OX - Balíkovna,553841.0,Kvíčovice,34570,,50.0,,
,OX - Balíkovna,554413.0,Velký Malahov,34602,,34.0,,
,OX - Balíkovna,560715.0,Tachov,34714,Hornická,1596.0,,
,OX - Balíkovna,541486.0,Prostiboř,34902,,37.0,,
,OX - Balíkovna,554481.0,Cheb,35019,Riegerova,1302.0,,
,OX - Balíkovna,554651.0,Milhostov,35026,,68.0,,
,OX - Balíkovna,538922.0,Okrouhlá,35032,,47.0,,
,OX - Balíkovna,538906.0,Milíkov,35041,,59.0,,
,OX - Balíkovna,554529.0,Františkovy Lázně,35119,Lidická,445.0,,
,OX - Balíkovna,578002.0,Velký Luh,35139,,22.0,,
,OX - Balíkovna,539074.0,Vojtanov,35140,Horní Vojtanov,40.0,,
,OX - Balíkovna,560286.0,Sokolov,35618,Nádražní,108.0,,
,OX - Balíkovna,560286.0,Sokolov,35619,Sokolovská,1623.0,,
,OX - Balíkovna,554961,Karlovy Vary,36043,Chebská,,,
,OX - Balíkovna,560707.0,Vřesová,36046,,3.0,,
,OX - Balíkovna,560367.0,Horní Slavkov,36244,Nová,600.0,,
,OX - Balíkovna,555525.0,Pšov,36467,,48.0,,
,OX - Balíkovna,544256.0,České Budějovice,37065,Sokolský ostrov,462.0,,
,OX - Balíkovna,544256.0,České Budějovice,37066,Pražská tř.,2304.0,,
,OX - Balíkovna,544256.0,České Budějovice,37067,Boršovská,1779.0,,
,OX - Balíkovna,544256.0,České Budějovice,37085,Nádražní,119.0,,
,OX - Balíkovna,535664.0,Doubravice,37121,,5.0,,
,OX - Balíkovna,545171.0,Trhové Sviny,37419,Bezručova,1000.0,,
,OX - Balíkovna,545201.0,Týn nad Vltavou,37508,Sakařova,757.0,,
,OX - Balíkovna,545881.0,Jindřichův Hradec,37715,Jarošovská,696.0,,
,OX - Balíkovna,545881.0,Jindřichův Hradec,37716,Kosmonautů,47.0,,
,OX - Balíkovna,545392.0,Český Krumlov,38112,Nemocniční,585.0,,
,OX - Balíkovna,545511.0,Horní Planá,38228,Jiráskova,169.0,,
,OX - Balíkovna,545872.0,Zubčice,38235,,2.0,,
,OX - Balíkovna,545562.0,Kaplice,38249,Tržní,84.0,,
,OX - Balíkovna,545597.0,Lipno nad Vltavou,38280,,171.0,,
,OX - Balíkovna,550094.0,Prachatice,38306,Husinecká,1190.0,,
,OX - Balíkovna,550094.0,Prachatice,38313,Pivovarská,1118,,
,OX - Balíkovna,550701.0,Zbytiny,38380,,3,,
,OX - Balíkovna,550787.0,Strakonice,38622,Nádražní,337,,
,OX - Balíkovna,551139.0,Chelčice,38903,,5,,
,OX - Balíkovna,551953.0,Vodňany,38906,Kampanova,591,,
,OX - Balíkovna,552046.0,Tábor,39019,U Bechyňské dráhy,2926,,
,OX - Balíkovna,552046.0,Tábor,39020,Valdenská,525,,
,OX - Balíkovna,552046.0,Tábor,39055,Václava Soumara,2300,,
,OX - Balíkovna,547492.0,Pelhřimov,39302,Pražská,2029,,
,OX - Balíkovna,547492,Pelhřimov,39323,Habrová,,,
,OX - Balíkovna,547492.0,Pelhřimov,39330,,40,,
,OX - Balíkovna,547492.0,Pelhřimov,39340,K Silu,2487,,
,OX - Balíkovna,598721.0,Libkova Voda,39467,,61,,
,OX - Balíkovna,547719.0,Častrov,39480,,105,,
,OX - Balíkovna,561274.0,Rovná,39508,,46,,
,OX - Balíkovna,561843.0,Staré Bříště,39613,,11,,
,OX - Balíkovna,549240.0,Písek,39722,Truhlářská,2250,,
,OX - Balíkovna,550035.0,Zbelítov,39904,,62,,
,OX - Balíkovna,554804.0,Ústí nad Labem,40036,U Nádraží,965,,
,OX - Balíkovna,554804.0,Ústí nad Labem,40037,Masarykova,3120,,
,OX - Balíkovna,530417.0,Doubice,40796,,202E,,
,OX - Balíkovna,562823.0,Staré Křečany,40800,,276,,
,OX - Balíkovna,562777.0,Rumburk,40804,Máchova,492,,
,OX - Balíkovna,564567.0,Litoměřice,41214,Liberecká,736,,
,OX - Balíkovna,564567.0,Litoměřice,41230,Nerudova,1995,,
,OX - Balíkovna,567442.0,Teplice,41532,Nádražní náměstí,599,,
,OX - Balíkovna,562971.0,Chomutov,43015,Nádražní,594,,
,OX - Balíkovna,562971.0,Chomutov,43022,Jiráskova,4170,,
,OX - Balíkovna,562971.0,Chomutov,43031,Žižkovo náměstí,5762,,
,OX - Balíkovna,563129.0,Klášterec nad Ohří,43185,Nádražní,44,,
,OX - Balíkovna,563102.0,Kadaň,43212,Poštovní,1553,,
,OX - Balíkovna,567027.0,Most,43418,Tyršova,3460,,
,OX - Balíkovna,567027.0,Most,43436,Radniční,3401,,
,OX - Balíkovna,567027.0,Most,43437,Moskevská,5,,
,OX - Balíkovna,567027.0,Most,43449,Nádražní,774,,
,OX - Balíkovna,567108.0,Český Jiřetín,43621,,79,,
,OX - Balíkovna,566985.0,Žatec,43813,Purkyněho,2747,,
,OX - Balíkovna,566985.0,Žatec,43814,Volyňských Čechů,3098,,
,OX - Balíkovna,563889.0,Liberec,46045,Nákladní,344,,
,OX - Balíkovna,563889.0,Liberec,46116,Rychtářská,390,,
,OX - Balíkovna,563889.0,Liberec,46317,Poštovní,232,,
,OX - Balíkovna,564117.0,Chrastava,46359,Nádražní,367,,
,OX - Balíkovna,564028.0,Frýdlant,46406,Nádražní,638,,
,OX - Balíkovna,564371.0,Raspenava,46408,Nádražní,631,,
,OX - Balíkovna,564028,Frýdlant,46412,Fügnerova,,,
,OX - Balíkovna,563510.0,Jablonec nad Nisou,46624,Vysoká,4263,,
,OX - Balíkovna,563510.0,Jablonec nad Nisou,46625,Rychnovská,14,,
,OX - Balíkovna,563871.0,Železný Brod,46835,Nádražní,618,,
,OX - Balíkovna,563820.0,Tanvald,46866,Poštovní,293,,
,OX - Balíkovna,563820.0,Tanvald,46867,Krkonošská,256,,
,OX - Balíkovna,563811.0,Smržovka,46868,Nádražní,854.0,,
,OX - Balíkovna,563820.0,Tanvald,46872,Krkonošská,668.0,,
,OX - Balíkovna,561380.0,Česká Lípa,47018,Bulharská,,,
,OX - Balíkovna,561380.0,Česká Lípa,47019,Česká,3325.0,,
,OX - Balíkovna,561835.0,Mimoň,47144,Nádražní,2.0,,
,OX - Balíkovna,562092.0,Stráž pod Ralskem,47150,Máchova,5.0,,
,OX - Balíkovna,561495.0,Doksy,47203,U Nádraží,489.0,,
,OX - Balíkovna,569810.0,Hradec Králové,50035,Riegrovo náměstí,914.0,,
,OX - Balíkovna,569810.0,Hradec Králové,50036,Víta Nejedlého,1063.0,,
,OX - Balíkovna,569810.0,Hradec Králové,50037,Pospíšilova,215.0,,
,OX - Balíkovna,569810.0,Hradec Králové,50040,Štefánikova,534.0,,
,OX - Balíkovna,569810.0,Hradec Králové,50049,Víta Nejedlého,1063.0,,
,OX - Balíkovna,569810.0,Hradec Králové,50050,Zamenhofova,1010.0,,
,OX - Balíkovna,548154.0,Světí,50336,,53.0,,
,OX - Balíkovna,571041.0,Třebechovice pod Orebem,50375,Havlíčkova,432.0,,
,OX - Balíkovna,570508.0,Nový Bydžov,50409,Třída Čsl. armády,129.0,,
,OX - Balíkovna,572659.0,Jičín,50604,Dělnická,247.0,,
,OX - Balíkovna,572659.0,Jičín,50616,Šafaříkova,142.0,,
,OX - Balíkovna,572659.0,Jičín,50624,Dělnická,247.0,,
,OX - Balíkovna,573507.0,Stará Paka,50795,Nádražní,165.0,,
,OX - Balíkovna,572926.0,Hořice,50806,Šalounova,636.0,,
,OX - Balíkovna,577626.0,Turnov,51117,U Nádraží,1296.0,,
,OX - Balíkovna,577081.0,Harrachov,51259,,152.0,,
,OX - Balíkovna,576069.0,Rychnov nad Kněžnou,51609,Nádražní,508.0,,
,OX - Balíkovna,576476,Lípa nad Orlicí,51738,,,,
,OX - Balíkovna,576182.0,Častolovice,51759,Masarykova,166.0,,
,OX - Balíkovna,576271.0,Dobruška,51808,Opočenská,71.0,,
,OX - Balíkovna,555134.0,Pardubice,53042,náměstí Jana Pernera,217.0,,
,OX - Balíkovna,555134.0,Pardubice,53046,Palackého třída,1233.0,,
,OX - Balíkovna,574864.0,Čepí,53338,,79.0,,
,OX - Balíkovna,575500.0,Přelouč,53508,Dukelské náměstí,306.0,,
,OX - Balíkovna,571164.0,Chrudim,53725,Popperovo náměstí,174.0,,
,OX - Balíkovna,572268.0,Slatiňany,53829,Spojovací,658.0,,
,OX - Balíkovna,571393.0,Hlinsko,53913,Adámkova třída,1094.0,,
,OX - Balíkovna,579025.0,Trutnov,54122,Říční,56.0,,
,OX - Balíkovna,579858.0,Vrchlabí,54320,Nerudova,1271.0,,
,OX - Balíkovna,579742.0,Špindlerův Mlýn,54354,,188.0,,
,OX - Balíkovna,573868.0,Náchod,54713,Kladská,128.0,,
,OX - Balíkovna,573965.0,Červený Kostelec,54967,,155.0,,
,OX - Balíkovna,580031.0,Česká Třebová,56009,náměstí Jana Pernera,579.0,,
,OX - Balíkovna,580538.0,Letohrad,56183,Družstevní,833.0,,
,OX - Balíkovna,580538.0,Letohrad,56187,Tyršova,259.0,,
,OX - Balíkovna,580376.0,Jablonné nad Orlicí,56188,Hradisková,575.0,,
,OX - Balíkovna,581101.0,Velká Skrovnice,56229,,30.0,,
,OX - Balíkovna,580511.0,Lanškroun,56313,nám. J. M. Marků,56.0,,
,OX - Balíkovna,580511.0,Lanškroun,56314,Nádražní,331.0,,
,OX - Balíkovna,577731.0,Svitavy,56823,Větrná,662.0,,
,OX - Balíkovna,577987.0,Dlouhá Loučka,56975,,97.0,,
,OX - Balíkovna,568414.0,Havlíčkův Brod,58011,Nádražní,72.0,,
,OX - Balíkovna,569321.0,Přibyslav,58230,U Nádraží,509.0,,
,OX - Balíkovna,568635.0,Golčův Jeníkov,58299,Mírová,252,,
,OX - Balíkovna,568694.0,Hněvkovice,58303,,132,,
,OX - Balíkovna,569674.0,Vepříkov,58313,,53,,
,OX - Balíkovna,586846.0,Jihlava,58643,Havlíčkova,2408,,
,OX - Balíkovna,586846.0,Jihlava,58644,Havlíčkova,5100,,
,OX - Balíkovna,595209.0,Žďár nad Sázavou,59113,Chelčického,229,,
,OX - Balíkovna,596230.0,Nové Město na Moravě,59239,Masarykova,1492,,
,OX - Balíkovna,597007.0,Velké Meziříčí,59409,Poštovní,1422,,
,OX - Balíkovna,597007.0,Velké Meziříčí,59411,Poštovní,1422,,
,OX - Balíkovna,582786.0,Brno,61513,Lazaretní,610,,
,OX - Balíkovna,582786.0,Brno,62109,Gromešova,1202,,
,OX - Balíkovna,582786.0,Brno,64302,Rebešovická,120,,
,OX - Balíkovna,582824.0,Bílovice nad Svitavou,66418,Komenského,300,,
,OX - Balíkovna,584207.0,Zastávka,66489,Nádražní,36,,
,OX - Balíkovna,583251.0,Kuřim,66612,Farského,226,,
,OX - Balíkovna,583081.0,Hrušovany u Brna,66714,Nádražní,112,,
,OX - Balíkovna,593711.0,Znojmo,66933,Dr. Milady Horákové,2239,,
,OX - Balíkovna,593711.0,Znojmo,66934,Přímětická,1813,,
,OX - Balíkovna,590266.0,Třebíč,67419,Nádražní,142,,
,OX - Balíkovna,591246.0,Nová Ves,67537,,66,,
,OX - Balíkovna,591301.0,Okříšky,67547,Nádražní,102,,
,OX - Balíkovna,591211.0,Náměšť nad Oslavou,67584,Nádražní,145,,
,OX - Balíkovna,590860.0,Kojetice,67590,,82,,
,OX - Balíkovna,591459.0,Přibyslavice,67592,Na Návsi,40,,
,OX - Balíkovna,591165.0,Mladoňovice,67594,,128,,
,OX - Balíkovna,581291,Adamov,67919,Nádražní,107,,
,OX - Balíkovna,582336.0,Skalice nad Svitavou,67928,,35,,
,OX - Balíkovna,582239.0,Rájec-Jestřebí,67929,,328,,
,OX - Balíkovna,581372.0,Boskovice,68008,Hybešova,1009,,
,OX - Balíkovna,592889.0,Vyškov,68216,Nádražní,128,,
,OX - Balíkovna,592943.0,Bučovice,68506,Nádražní,342,,
,OX - Balíkovna,550752.0,Staré Město,68618,Nádražní,243,,
,OX - Balíkovna,592731.0,Uherský Brod,68817,Pod Valy,1046,,
,OX - Balíkovna,584291.0,Břeclav,69031,Sady 28. října,3491,,
,OX - Balíkovna,585033.0,Vranovice,69180,Nádražní,112,,
,OX - Balíkovna,584495.0,Hustopeče,69307,Nádraží místní,569,,
,OX - Balíkovna,586021.0,Hodonín,69532,Velkomoravská,2270,,
,OX - Balíkovna,586587.0,Strážnice,69693,Nádražní,722,,
,OX - Balíkovna,586404.0,Moravský Písek,69694,Revoluční,151,,
,OX - Balíkovna,586307.0,Kyjov,69717,Nádražní,592,,
,OX - Balíkovna,586722.0,Veselí nad Moravou,69813,Národních mučedníků,700,,
,OX - Balíkovna,554821.0,Ostrava,70209,Nádražní,164,,
,OX - Balíkovna,554821.0,Ostrava,71901,Bártova,582,,
,OX - Balíkovna,554821.0,Ostrava,72101,Peterkova,132,,
,OX - Balíkovna,554821.0,Ostrava,72532,Spojovací,396,,
,OX - Balíkovna,598917.0,Karviná,73325,Nádražní,1939,,
,OX - Balíkovna,598917.0,Karviná,73326,Nádražní,695,,
,OX - Balíkovna,598003.0,Frýdek-Místek,73838,Dobrovského,3680,,
,OX - Balíkovna,598020.0,Bílá,73896,,158,,
,OX - Balíkovna,598810.0,Třinec,74015,Nádražní,348,,
,OX - Balíkovna,598062.0,Bystřice,74016,,141,,
,OX - Balíkovna,554014.0,Návsí,74017,,207,,
,OX - Balíkovna,599191.0,Nový Jičín,74117,Přemyslovců,2252,,
,OX - Balíkovna,599921.0,Studénka,74306,Nádražní,135,,
,OX - Balíkovna,599344.0,Frenštát pod Radhoštěm,74412,Nádražní,898,,
,OX - Balíkovna,511382.0,Přerov,75017,Husova,632,,
,OX - Balíkovna,514055.0,Kojetín,75206,Nádražní,458,,
,OX - Balíkovna,513750.0,Hranice,75313,Nádražní,498,,
,OX - Balíkovna,552968.0,Horní Těšice,75358,,31,,
,OX - Balíkovna,515329.0,Malhotice,75359,,57,,
,OX - Balíkovna,545058.0,Valašské Meziříčí,75715,Nádražní,545,,
,OX - Balíkovna,585068.0,Zlín,76025,Trávník,543,,
,OX - Balíkovna,557170.0,Ostrata,76338,,23,,
,OX - Balíkovna,585068.0,Zlín,76371,třída 3. května,1170,,
,OX - Balíkovna,585599.0,Otrokovice,76515,Nádražní,272,,
,OX - Balíkovna,585599.0,Otrokovice,76516,tř. Osvobození,1210,,
,OX - Balíkovna,588296.0,Kroměříž,76714,Spáčilova,3763,,
,OX - Balíkovna,588296.0,Kroměříž,76735,Havlíčkova,660,,
,OX - Balíkovna,588491.0,Hulín,76844,Nádražní,380,,
,OX - Balíkovna,500496.0,Olomouc,77913,Jeremenkova,103,,
,OX - Balíkovna,500496.0,Olomouc,77914,Ladova,346,,
,OX - Balíkovna,569798.0,Horní Loděnice,78295,,114,,
,OX - Balíkovna,505188.0,Šternberk,78507,Nádražní,1705,,
,OX - Balíkovna,523704.0,Šumperk,78718,Jesenická,464,,
,OX - Balíkovna,535532.0,Hanušovice,78841,Školní,197,,
,OX - Balíkovna,541354.0,Zábřeh,78916,U Nádraží,1626,,
,OX - Balíkovna,540471.0,Mohelnice,78966,Nádraží,339,,
,OX - Balíkovna,540650.0,Písařov,78999,,80,,
,OX - Balíkovna,536385.0,Jeseník,79017,Nádražní,282,,
,OX - Balíkovna,551872.0,Hlinka,79387,,52,,
,OX - Balíkovna,597520.0,Krnov,79418,Nádražní,1096,,
,OX - Balíkovna,597970.0,Vysoká,79440,,90,,
,OX - Balíkovna,589250.0,Prostějov,79630,Janáčkova,3160,,
,OX - Balíkovna,589586.0,Jesenec,79871,,117,,