ID ,name,city_code,city,zip_code,street,house_NO,latitude ,longtitude
4561221,PPL ParcelBox,597635,Město Albrechtice,79395,Míru,,50.16255889,17.573313305
4540715,PPL ParcelBox,598925,Albrechtice,73543,Středová,408,49.78343,18.52277
4561215,PPL ParcelBox,581291,Adamov,67904,Nádražní,42,49.30047139,16.651568111
4573395,PPL ParcelBox,549258,Albrechtice nad Vltavou,39816,Albrechtice nad Vltavou,16,49.25639861,14.307878111
4328610,PPL ParcelBox,554499,Aš,35201,Chebská,2934,50.21356919,12.199983111
4627525,PPL ParcelBox,554499,Aš,35201,Chebská,140,50.20968139,12.204306888
4688366,PPL ParcelBox,586048,Blatnice pod Svatým Antonínkem,69671,Blatnice pod Svatým Antonínkem,857,48.94139281,17.480696888
4590739,PPL ParcelBox,559725,Břasy,33824,Stupno,181,49.82541,13.577352194
4556324,PPL ParcelBox,592013,Babice,68703,Babice,87,49.11960969,17.478444694
4498906,PPL ParcelBox,585114,Brumov-Bylnice,76331,Široká,147,49.07860469,18.017734694
4539189,PPL ParcelBox,592102,Buchlovice,68708,nám. Svobody,239,49.086585,17.338551388
4568244,PPL ParcelBox,582794,Babice nad Svitavou,66401,Babice nad Svitavou,345,49.28352139,16.6993125
4566973,PPL ParcelBox,597228,Břidličná,79351,Osvobození,357,49.91414919,17.377711888
4275765,PPL ParcelBox,570788,Bradlec,29306,U Borku,520,50.44284581,14.899606694
4561212,PPL ParcelBox,532118,Brandýsek,27341,Brandýsek,433,50.18278781,14.173037194
4572669,PPL ParcelBox,590401,Budišov,67503,Budišov,344,49.2750325,16.013890305
4579744,PPL ParcelBox,529303,Benešov,25601,Bezručova,1064,49.78189719,14.693288111
4391165,PPL ParcelBox,529303,Benešov,25601,Čechova,1433,49.78624469,14.692733888
4301990,PPL ParcelBox,529303,Benešov,25601,Křižíkova,1529,49.77217419,14.679438888
4561211,PPL ParcelBox,529303,Benešov,25601,Nádražní,414,49.78093919,14.682938305
4722088,PPL ParcelBox,529303,Benešov,25601,Pražského povstání,1908,49.79001361,14.698111111
4536725,PPL ParcelBox,532169,Buštěhrad,27343,Lidická,653/18,50.15424031,14.195913305
4309735,PPL ParcelBox,532169,Buštěhrad,27343,Tyršova,647/32,50.15761281,14.185896111
4364193,PPL ParcelBox,599051,Bohumín,73531,1. máje,163,49.90335831,18.379743111
4334731,PPL ParcelBox,599051,Bohumín,73581,Bezručova,1084,49.89283419,18.361458888
4304402,PPL ParcelBox,599051,Bohumín,73581,Čáslavská,243,49.9039725,18.353351388
4496077,PPL ParcelBox,599051,Bohumín,73581,Okružní,1164,49.9020775,18.350886111
4563857,PPL ParcelBox,589268,Bedihošť,79821,Prostějovská,,49.44843831,17.166100611
4719863,PPL ParcelBox,555029,Bochov,36471,nám. Míru,337,50.15087581,13.044766111
4495764,PPL ParcelBox,567451,Bílina,41801,5.května,346,50.54498611,13.769185305
4539182,PPL ParcelBox,567451,Bílina,41801,Aléská,269,50.5420025,13.776649388
4563868,PPL ParcelBox,581364,Bořitov,67921,Trávníky,136,49.41871919,16.5863925
4474587,PPL ParcelBox,592048,Bojkovice,68771,Mánesova,954,49.03706,17.810296888
4352590,PPL ParcelBox,535451,Benátky nad Jizerou,29471,B. Němcové,656,50.28278919,14.8227975
4540742,PPL ParcelBox,532924,Bukovany,25741,Bukovany,183,49.824175,14.627895611
4583245,PPL ParcelBox,581283,Blansko,67801,Leoše Janáčka,7a,49.35938,16.654608111
4311513,PPL ParcelBox,581283,Blansko,67801,Nádražní,2320-10-01 00:00:00,49.35323469,16.649281388
4273401,PPL ParcelBox,581283,Blansko,67801,nám. Míru,1481/1,49.35902669,16.649576888
4271653,PPL ParcelBox,581283,Blansko,67801,Rožmitálova,1813/7,49.36151439,16.642705805
4456959,PPL ParcelBox,506214,Bolatice,74723,Sokolovská,1027/1a,49.95285281,18.0792175
4568219,PPL ParcelBox,592030,Bílovice,68712,Bílovice,400,49.09974669,17.5482025
4567328,PPL ParcelBox,573922,Broumov,55001,tř. Masarykova,235,50.58951939,16.326641888
4580102,PPL ParcelBox,506460,Budišov nad Budišovkou,74787,náměstí Republiky,37,49.79549361,17.63013
4532056,PPL ParcelBox,549266,Bernartice,39843,Pod stadionem,351,49.36711969,14.391081111
4567323,PPL ParcelBox,556858,Bravantice,74281,Bravantice,78,49.75535361,18.084661111
4298331,PPL ParcelBox,535427,Bakov nad Jizerou,29401,Na Výsluní,980,50.47529219,14.940802194
4388695,PPL ParcelBox,538094,Brandýs nad Labem-Stará Boleslav,25001,Kostelecká,1529,50.18977031,14.649561388
4298816,PPL ParcelBox,538094,Brandýs nad Labem-Stará Boleslav,25001,Krajířské nám.,1762,50.18700581,14.660244194
4543973,PPL ParcelBox,538094,Brandýs nad Labem-Stará Boleslav,25001,Zápská,1543/28,50.18050439,14.667393888
4561011,PPL ParcelBox,538094,Brandýs nad Labem-Stará Boleslav,25001,Zápy,275,50.17622719,14.671018305
4493834,PPL ParcelBox,595411,Bystřice nad Pernštejnem,59301,Masarykovo nám.,58,49.52351811,16.259696111
4270897,PPL ParcelBox,582824,Bílovice nad Svitavou,66401,Obřanská,489,49.24348311,16.661741888
4567991,PPL ParcelBox,592021,Bánov,68754,Bánov,507,48.99051719,17.718786111
4496220,PPL ParcelBox,599247,Bílovec,74301,17.listopadu,146/27,49.76018281,18.017383888
4504861,PPL ParcelBox,599247,Bílovec,74301,Dukelská,232/3,49.75451639,18.012150805
4540500,PPL ParcelBox,599247,Bílovec,74301,Opavská,1159/57,49.75797861,18.000223888
4303702,PPL ParcelBox,592943,Bučovice,68501,Nádražní,441,49.14792889,17.002361388
4504635,PPL ParcelBox,564656,Budyně nad Ohří,41118,Okružní,366,50.40487939,14.129053611
4719319,PPL ParcelBox,531057,Beroun,26601,Na Máchovně,1610,49.95670439,14.041250805
4573409,PPL ParcelBox,531057,Beroun,26601,Okružní,1481,49.96453331,14.064238111
4328858,PPL ParcelBox,531057,Beroun,26601,Škroupova,854,49.96564939,14.083602194
4324575,PPL ParcelBox,531057,Beroun,26601,Švermova,1368/2,49.95805,14.051508111
4558647,PPL ParcelBox,531057,Beroun,26601,Lidická,669/53,49.97408389,14.075450305
4567342,PPL ParcelBox,560758,Bor,34802,Nová Hospoda,32,49.74832669,12.774439388
4445470,PPL ParcelBox,560758,Bor,34802,nám. Republiky,626,49.71254031,12.773684694
4264210,PPL ParcelBox,581372,Boskovice,68001,Hybešova,46/73,49.48734189,16.674269388
4424404,PPL ParcelBox,581372,Boskovice,68001,Chrudichromská,2454-03-01 00:00:00,49.49204811,16.648805805
4542984,PPL ParcelBox,581372,Boskovice,68001,Na Skalce,1820/10,49.48413031,16.676831388
4301177,PPL ParcelBox,581372,Boskovice,68001,nám. Dr. Snětiny,2275-02-01 00:00:00,49.48864361,16.658912805
4274865,PPL ParcelBox,581372,Boskovice,68001,Sokolská,1235/38,49.49170389,16.657480805
4560208,PPL ParcelBox,552101,Borotín,39135,Borotín,55,49.50492561,14.612469694
4718929,PPL ParcelBox,544281,Borovany,37312,Žižkovo nám.,57,48.90102469,14.641308611
4298333,PPL ParcelBox,535443,Bělá pod Bezdězem,29421,Paninodvorská,1010,50.49131719,14.830191388
4554401,PPL ParcelBox,585076,Biskupice,76341,Biskupice,,49.08446889,17.709432805
4435952,PPL ParcelBox,588393,Bystřice pod Hostýnem,76861,Školní,,49.40073719,17.681587194
4540734,PPL ParcelBox,588393,Bystřice pod Hostýnem,76861,Tyršova,642,49.3968575,17.669986694
4587427,PPL ParcelBox,562351,Benešov nad Ploučnicí,40722,Dvořákova,624,50.74064031,14.310726694
4541695,PPL ParcelBox,562351,Benešov nad Ploučnicí,40722,Sídliště,695,50.74178889,14.304098111
4579536,PPL ParcelBox,595411,Bystřice nad Pernštejnem,59301,Spojovací,669,49.52566531,16.252536388
4334624,PPL ParcelBox,584291,Břeclav,69002,17.listopadu,2964,48.75759311,16.884211888
4271384,PPL ParcelBox,584291,Břeclav,69002,Fügnerova,2363,48.75520861,16.880814694
4300639,PPL ParcelBox,584291,Břeclav,69003,Lidická,2183,48.76972281,16.890478111
4482529,PPL ParcelBox,584291,Břeclav,69002,Lidická,3341/137,48.78019211,16.90202925
4532325,PPL ParcelBox,584291,Břeclav,69141,Na Valtické,338/5,48.75702639,16.857615805000002
4584221,PPL ParcelBox,535559,Brodce,29473,Dobrovická,377,50.33044919,14.867388111
4496078,PPL ParcelBox,538744,Březnice,76001,Březnice,485,49.18573031,17.660265805
4558671,PPL ParcelBox,540013,Březnice,26272,Březnice,,49.55870439,13.946269694
4298815,PPL ParcelBox,540013,Březnice,26272,Ludvíka Kuby,251,49.55809389,13.959395611
4560193,PPL ParcelBox,545431,Brloh,38206,Brloh,56,48.92906439,14.220578111
4487946,PPL ParcelBox,582786,Brno,62400,Bystrcká,38,49.22484242,16.537882666
4486034,PPL ParcelBox,582786,Brno,62500,Čeňka Růžičky,777/14,49.16694189,16.575251388
4588547,PPL ParcelBox,582786,Brno,61300,Černopolní,214/18,49.20372581,16.618398305
4389994,PPL ParcelBox,582786,Brno,61400,Fryčajova,532/147,49.23600219,16.643808305
4326271,PPL ParcelBox,582786,Brno,63900,Heršpická,,49.17466361,16.601846694
4301178,PPL ParcelBox,582786,Brno,62100,Hradecká,279/46,49.27077781,16.576089194
4579769,PPL ParcelBox,582786,Brno,62800,Josefy Faimonové,11b,49.20320061,16.678865805
4338292,PPL ParcelBox,582786,Brno,63500,Jakuba Obrovského,1389/1b,49.22559,16.532468611
4303820,PPL ParcelBox,582786,Brno,61400,Karlova,7,49.21313081,16.645009194
4453578,PPL ParcelBox,582786,Brno,62000,Kaštanová,506/50,49.16226611,16.639301888
4545542,PPL ParcelBox,582786,Brno,62800,Kotlanova,2162-05-01 00:00:00,49.21070311,16.680554388
4447573,PPL ParcelBox,582786,Brno,62500,Kroupova,47,49.16553189,16.561896694
4327801,PPL ParcelBox,582786,Brno,60200,Křenová,299,49.19174331,16.618851111
4384407,PPL ParcelBox,582786,Brno,63500,Kubíčkova,8,49.22150689,16.517496694
4572490,PPL ParcelBox,582786,Brno,62500,Labská,152/29,49.17110311,16.558452194
4330724,PPL ParcelBox,582786,Brno,60200,Lidická,965/31,49.20275669,16.606883888
4336965,PPL ParcelBox,582786,Brno,63800,Loosova,262/1,49.23223219,16.618101388
4299878,PPL ParcelBox,583391,Modřice,66442,Masarykova,123,49.13232969,16.614642194
4504013,PPL ParcelBox,582786,Brno,63500,nám. 28. dubna,1,49.22796111,16.531332194
4271144,PPL ParcelBox,582786,Brno,61300,nám. SNP,1140/32,49.21783639,16.621512805000002
4274276,PPL ParcelBox,582786,Brno,62500,Netroufalky,5,49.18014139,16.568019194
4264211,PPL ParcelBox,582786,Brno,62500,Palachovo nám.,2,49.1758525,16.566356694
4393391,PPL ParcelBox,582786,Brno,61400,Nováčkova,1542/13,49.20849531,16.629648611
4264443,PPL ParcelBox,582786,Brno,62100,Novoměstská,1a,49.23687469,16.587423888
4454146,PPL ParcelBox,582786,Brno,61400,Franzova,0,49.22223031,16.642718611
4262966,PPL ParcelBox,582786,Brno,63800,Okružní,834/29A,49.2348775,16.622380305
4353304,PPL ParcelBox,582786,Brno,63800,Okružní,275/9,49.22240669,16.624355305
4330855,PPL ParcelBox,582786,Brno,61200,Dalimilova,148a,49.22974281,16.592185
4299887,PPL ParcelBox,582786,Brno,60200,Panská,393/6,49.19380469,16.608584194
4264441,PPL ParcelBox,582786,Brno,60200,Anenská,54/22,49.19093081,16.601121111
4276454,PPL ParcelBox,582786,Brno,64300,Pěkná,51,49.13022311,16.654341888
4268144,PPL ParcelBox,582786,Brno,64200,Pražská,6,49.17438861,16.537795611
4492781,PPL ParcelBox,582786,Brno,60200,Příkop,843/4,49.20005419,16.613083611
4440376,PPL ParcelBox,582786,Brno,62100,Renčova,1945/26,49.24752639,16.575523305
4267239,PPL ParcelBox,582786,Brno,62000,Rolencova,492/77,49.14663439,16.658725
4329957,PPL ParcelBox,582786,Brno,62800,Sedláčkova,2557-04-01 00:00:00,49.20206061,16.668476694
4571817,PPL ParcelBox,582786,Brno,61800,Spáčilova,1109/15,49.18759831,16.640891388
4267336,PPL ParcelBox,582786,Brno,60200,Sportovní,559,49.21242919,16.607767194
4384122,PPL ParcelBox,582786,Brno,61500,Stará osada,,49.20175189,16.641405305
4299342,PPL ParcelBox,582786,Brno,61600,Stránského,3033,49.21259331,16.568298305
4572843,PPL ParcelBox,582786,Brno,62000,Střížova,786/6,49.14482919,16.665383111
4336966,PPL ParcelBox,582786,Brno,61700,Svatopetrská,672/26,49.17960669,16.6210675
4439375,PPL ParcelBox,582786,Brno,61500,Táborská,4356/224,49.19262361,16.635252805
4676176,PPL ParcelBox,582786,Brno,62700,Tilhonova,1218/28,49.17949611,16.681721694
4279510,PPL ParcelBox,582786,Brno,62700,Tuřanka,1554,49.16823361,16.680541694
4365105,PPL ParcelBox,582786,Brno,61200,U Červeného mlýna,1,49.2157525,16.601593611
4270892,PPL ParcelBox,583391,Modřice,66442,U Dálnice,777,49.13864919,16.633981388
4568639,PPL ParcelBox,582786,Brno,62500,U Leskavy,10,49.16530419,16.569327194
4266282,PPL ParcelBox,582786,Brno,62500,U Pošty,402/14,49.16826939,16.565330305
4298911,PPL ParcelBox,582786,Brno,63500,U Sokolovny,396,49.22474719,16.527866111
4561241,PPL ParcelBox,582786,Brno,60200,Úvoz,447/120,49.20352331,16.593511111
4279509,PPL ParcelBox,582786,Brno,63700,Veslařská,549/52,49.20803031,16.555056888
4674962,PPL ParcelBox,582786,Brno,63900,Vídeňská,291,49.17607439,16.597502805
4274706,PPL ParcelBox,582786,Brno,61500,Viniční,3067,49.19823439,16.656440611
4555951,PPL ParcelBox,582786,Brno,60300,Vodní,264/17,49.18977811,16.60412
4267223,PPL ParcelBox,582786,Brno,60300,Výstaviště,405/1,49.18862861,16.585499694
4550382,PPL ParcelBox,582786,Brno,64100,Za Kněžským Hájkem,0,49.20451139,16.485662805
4580105,PPL ParcelBox,582786,Brno,62800,Zikova,1,49.20901389,16.67421
4491789,PPL ParcelBox,538094,Brandýs nad Labem-Stará Boleslav,25001,Boleslavská,1901/1901,50.20415889,14.688566388
4556337,PPL ParcelBox,529451,Bystřice,25751,Družstevní,422,49.73462639,14.665842805
4493506,PPL ParcelBox,598038,Brušperk,73944,Nábřeží,512,49.69961439,18.220926888
4559811,PPL ParcelBox,532126,Braškov,27351,V Dubinách,45,50.10109639,14.092190611
4495337,PPL ParcelBox,550850,Blatná,38801,Nad Vdovečkem,1123,49.4350775,13.881928611
4430520,PPL ParcelBox,550850,Blatná,38801,náměstí J. A. Komenského,53,49.4270525,13.884992805
4567326,PPL ParcelBox,549282,Butoves,50601,Butoves,63,50.38661811,15.427059388
4540730,PPL ParcelBox,586862,Batelov,58851,Družstevní,262/25,49.31160331,15.393031111
4540737,PPL ParcelBox,586862,Batelov,58851,nám. Míru,535/41,49.31557831,15.393335305
4568230,PPL ParcelBox,592056,Boršice u Blatnice,68763,Boršice u Blatnice,307,48.93242939,17.574476388
4560171,PPL ParcelBox,597180,Bruntál,79201,Cihelní,1345/2,49.98534939,17.456883111
4506919,PPL ParcelBox,597945,Václavov u Bruntálu,79201,Dolní,1566/2,49.98272831,17.460516694
4533704,PPL ParcelBox,597180,Bruntál,79201,Nádražní,1443/3,49.99217611,17.469850611
4589714,PPL ParcelBox,577839,Borová,56982,Borová,100,49.73702581,16.165439694
4563853,PPL ParcelBox,525588,Bludov,78961,tř. A. Kašpara,,49.94317531,16.9247725
4718925,PPL ParcelBox,557587,Blovice,33601,5.května,653,49.5843075,13.5354975
4677310,PPL ParcelBox,557587,Blovice,33601,Jirotova,375,49.5811375,13.537565805
4571457,PPL ParcelBox,557587,Blovice,33601,Tyršova,270,49.57922469,13.539203305
4539371,PPL ParcelBox,579971,Bystřec,56154,Bystřec,333,50.01014389,16.62354
4487135,PPL ParcelBox,552054,Bechyně,39165,U Vodojemu,991,49.30248622,14.476074222
4567987,PPL ParcelBox,585131,Březová,76315,Březová,50,49.26041939,17.790590805
4560588,PPL ParcelBox,535478,Bezno,29429,Bezno,311,50.36185469,14.792911111
4556329,PPL ParcelBox,531251,Chaloupky,26762,Chaloupky,26,49.79048889,13.871585
4504647,PPL ParcelBox,533271,Český Brod,28201,Krále Jiřího,207/207,50.07597361,14.864510611
4472505,PPL ParcelBox,533271,Český Brod,28201,Žižkova,1413,50.07328781,14.849759694
4391472,PPL ParcelBox,544256,České Budějovice,37011,České Vrbné,2360,48.99976281,14.452196694
4535782,PPL ParcelBox,544256,České Budějovice,37011,České Vrbné,2376,49.00354781,14.448980305
4301820,PPL ParcelBox,544256,České Budějovice,37011,Dlouhá,889/35,48.98964281,14.456306888
4535781,PPL ParcelBox,544256,České Budějovice,37006,Dobrovodská,33,48.97178389,14.494481111
4569463,PPL ParcelBox,544256,České Budějovice,37001,Františka Antonína Gerstnera,2025-01-05 00:00:00,48.97017611,14.472735611
4584802,PPL ParcelBox,544256,České Budějovice,37001,Hradební,362/10,48.97548889,14.477531388
4453586,PPL ParcelBox,544558,Hrdějovice,37361,Hrdějovice,396,49.01647081,14.491637805
4302352,PPL ParcelBox,544256,České Budějovice,37005,Husova tř.,523,48.985625,14.459815305
4304405,PPL ParcelBox,544256,České Budějovice,37005,Husova tř.,523/30,48.97856061,14.461203111
4566974,PPL ParcelBox,544256,České Budějovice,37011,J. Boreckého,1661/34,48.98862831,14.459883888
4308527,PPL ParcelBox,544256,České Budějovice,37005,K. Štěcha,1264/26,48.98693189,14.4380825
4560166,PPL ParcelBox,544256,České Budějovice,37006,Kaliště,2339,48.96522389,14.576466111
4337405,PPL ParcelBox,544256,České Budějovice,37004,Kněžskodvorská 370,4,48.98818111,14.473017194
4560200,PPL ParcelBox,544256,České Budějovice,37005,M. Horákové,1437,48.97908389,14.442143305
4328327,PPL ParcelBox,544256,České Budějovice,37005,M. Horákové,1364/2,48.98209061,14.441843305
4391180,PPL ParcelBox,544256,České Budějovice,37005,M. Horákové,1657/24,48.98051311,14.441011888
4340135,PPL ParcelBox,544256,České Budějovice,37001,M. Vydrové,22,48.96606139,14.4813925
4670555,PPL ParcelBox,544256,České Budějovice,37005,Na Zlaté stoce,551/14,48.97990969,14.455208888
4302354,PPL ParcelBox,544256,České Budějovice,37001,Nádražní,1759,48.97296389,14.486349388
4541689,PPL ParcelBox,544256,České Budějovice,37001,Okružní,517/10,48.99587581,14.494917805
4588050,PPL ParcelBox,544256,České Budějovice,37001,Pekárenská,2783/39,48.98271031,14.480140805
4301188,PPL ParcelBox,544256,České Budějovice,37011,Písecká,1459/42,48.99513861,14.453635305
4538019,PPL ParcelBox,544256,České Budějovice,37010,Pražská tř.,2006/137,48.99791811,14.480418305
4325178,PPL ParcelBox,544256,České Budějovice,37004,Pražská tř.,2176/65,48.98399389,14.470316888
4486974,PPL ParcelBox,544256,České Budějovice,37004,Pražská tř.,2540,48.99101336,14.474290472
4484040,PPL ParcelBox,544256,České Budějovice,37004,Pražská tř.,1247/24,48.98395111,14.472405305
4262083,PPL ParcelBox,544256,České Budějovice,37001,Rudolfovská tř.,214/72,48.97823669,14.493157194
4541691,PPL ParcelBox,544256,České Budějovice,37004,Suchomelská,2251,48.99423781,14.470395805
4302353,PPL ParcelBox,544256,České Budějovice,37006,Suchovrbenské nám.,1,48.97108081,14.503715305
4590277,PPL ParcelBox,544256,České Budějovice,37004,Za Otýlií,2874-06-01 00:00:00,48.99704281,14.490106111
4430324,PPL ParcelBox,580350,Choceň,56501,Pernerova,394,49.99623031,16.227958
4553992,PPL ParcelBox,529796,Chocerady,25724,Chocerady,327,49.872705,14.807283888
4687853,PPL ParcelBox,560383,Chodov,35735,Rooseveltova,846,50.23979831,12.746838305
4392908,PPL ParcelBox,560383,Chodov,35735,Smetanova,699,50.23956939,12.742776888
4567277,PPL ParcelBox,560383,Chodov,35735,Tovární,726,50.23828689,12.743062805
4549806,PPL ParcelBox,546089,České Velenice,37810,T. G. Masaryka,224,48.76845361,14.963364694
4507034,PPL ParcelBox,546089,České Velenice,37810,třída Čsl. legií 649,10,48.77044169,14.971816694
4435933,PPL ParcelBox,561479,Cvikov,47154,Sídliště,591,50.78032831,14.626105
4571448,PPL ParcelBox,561479,Cvikov,47154,Zahradní,623,50.77646389,14.642910805
4560165,PPL ParcelBox,573965,Červený Kostelec,54941,Náchodská,1235,50.47135561,16.106425
4574084,PPL ParcelBox,538132,Čelákovice,25088,Stankovského,1941,50.16386919,14.742246888
4329434,PPL ParcelBox,538132,Čelákovice,25088,Toušeňská,2044,50.15480169,14.746195611
4585916,PPL ParcelBox,545392,Český Krumlov,38101,Kaplická,24,48.81004031,14.319616111
4328328,PPL ParcelBox,545392,Český Krumlov,38101,Sídl. Plešivec,254,48.8018,14.310303111
4337316,PPL ParcelBox,545392,Český Krumlov,38101,Tovární,164,48.826535,14.333799388
4326450,PPL ParcelBox,561380,Česká Lípa,47001,Antonína Sovy,2119,50.69048689,14.526229694
4359036,PPL ParcelBox,561380,Česká Lípa,47001,Děčínská,3422,50.68956781,14.519259388
4279088,PPL ParcelBox,561380,Česká Lípa,47001,Děčínská,6,50.68965831,14.516253111
4275712,PPL ParcelBox,561380,Česká Lípa,47001,Erbenova,2906,50.68378081,14.537379194
4305369,PPL ParcelBox,561380,Česká Lípa,47001,Hrnčířská,2985,50.68109331,14.5368875
4556320,PPL ParcelBox,561380,Česká Lípa,47001,Máchova,1114/10,50.67631611,14.545735611
4558672,PPL ParcelBox,545546,Chvalšiny,38208,Chvalšiny,12,48.85531311,14.210005805
4556319,PPL ParcelBox,568015,Chlumec,40339,Ústecká,255,50.69828,13.94167
4571443,PPL ParcelBox,549339,Čimelice,39804,Čimelice,279,49.46964919,14.069937194
4560168,PPL ParcelBox,576212,České Meziříčí,51771,Osvobození,291,50.28433861,16.052153305
4581387,PPL ParcelBox,557781,Chlumčany,33442,U Stadionu,362,49.63278139,13.304995805
4307396,PPL ParcelBox,570109,Chlumec nad Cidlinou,50351,Kozelkova,26,50.15776139,15.459732805
4504848,PPL ParcelBox,576191,Čermná nad Orlicí,51725,Malá Čermná,45,50.07685439,16.1335375
4552868,PPL ParcelBox,569917,Černilov,50343,Černilov,31,50.26245189,15.926184388
4579909,PPL ParcelBox,552461,Chotoviny,39137,Táborská,131,49.47609581,14.676361888
4586301,PPL ParcelBox,575429,Opatovice nad Labem,53345,B.Němcové,1,50.13251,15.77493
4549791,PPL ParcelBox,533262,Červené Pečky,28121,V Uličce,6,49.9792525,15.209458111
4300737,PPL ParcelBox,564117,Chrastava,46331,Andělohorská,373,50.81413939,14.955336694
4556357,PPL ParcelBox,542628,Černčice,43901,Jiráskova,223/223,50.36219469,13.847335
4579758,PPL ParcelBox,588512,Chropyně,76811,Moravská,887/887,49.36337111,17.365079694
4567760,PPL ParcelBox,577936,Cerekvice nad Loučnou,56953,Cerekvice nad Loučnou,171,49.89905,16.217006111
4341006,PPL ParcelBox,573990,Česká Skalice,55203,28.října,377/377,50.39272389,16.047444194
4296858,PPL ParcelBox,534005,Čáslav,28601,Jeníkovská,2062,49.90216389,15.402068611
4506929,PPL ParcelBox,577944,Čistá,56956,Čistá,376,49.82549581,16.330383611
4544162,PPL ParcelBox,580031,Česká Třebová,56002,Dr. E. Beneše,642,49.9124575,16.437791388
4544478,PPL ParcelBox,580031,Česká Třebová,56002,Litomyšlská,118,49.90270831,16.4414125
4388210,PPL ParcelBox,580031,Česká Třebová,56002,Moravská,1908,49.89831469,16.451738611
4552547,PPL ParcelBox,580031,Česká Třebová,56002,Trávník,155,49.90131919,16.442667805
4455108,PPL ParcelBox,598933,Český Těšín,73701,Jablunkovská,1206,49.73198811,18.619823305
4476190,PPL ParcelBox,598933,Český Těšín,73701,Jablunkovská,2041/38,49.73890219,18.619664388
4566297,PPL ParcelBox,598933,Český Těšín,73701,Karvinská,51,49.75283311,18.614241388
4566302,PPL ParcelBox,598933,Český Těšín,73701,Polní,1900/54,49.73471081,18.617169694
4567746,PPL ParcelBox,598933,Český Těšín,73701,Slezská,1483,49.7493775,18.610954388
4475233,PPL ParcelBox,568759,Chotěboř,58301,Havlíčkova,1842,49.71166019,15.663009888
4384630,PPL ParcelBox,568759,Chotěboř,58301,Krále Jana,1333,49.71773969,15.669961694
4543005,PPL ParcelBox,568759,Chotěboř,58301,Průmyslová,1888,49.70818311,15.697633888
4552565,PPL ParcelBox,533998,Církvice,28533,Církvice,8,49.94676389,15.337081888
4552521,PPL ParcelBox,539309,Chýně,25303,Družstevní,28,50.0621725,14.232562194
4586821,PPL ParcelBox,539309,Chýně,25303,Hlavní,182,50.06317,14.233366
4718922,PPL ParcelBox,549347,Čížová,39831,Čížová,96,49.35599939,14.097045805
4297892,PPL ParcelBox,540111,Dobříš,26301,Rukavičkářská,871,49.7909525,14.178235611
4303354,PPL ParcelBox,586161,Dubňany,69603,Hodonínská,1819,48.92376969,17.100439694
4585707,PPL ParcelBox,539171,Dobrovíz,25261,Průběžná,192,50.11485781,14.218715305
4568266,PPL ParcelBox,546127,Dačice,38001,Strojírenská,160,49.08278361,15.452598888
4532033,PPL ParcelBox,546127,Dačice,38001,Toužínská,145,49.08106919,15.420020805
4585685,PPL ParcelBox,562335,Děčín,40502,17.listopadu,381/1,50.77888561,14.217817194
4367517,PPL ParcelBox,562335,Děčín,40502,Březová,0,50.77225061,14.220174388
4567770,PPL ParcelBox,562335,Děčín,40502,Dělnická,1831/62,50.76430081,14.192060805
4367529,PPL ParcelBox,566900,Růžová,40502,Kamenická,642/103,50.78059,14.231336694
4492974,PPL ParcelBox,562335,Děčín,40505,Košická,101,50.78335189,14.153733111
4452851,PPL ParcelBox,562335,Děčín,40502,Slovanská,1460/65,50.77293831,14.185516888
4328324,PPL ParcelBox,562335,Děčín,40711,Studniční,416,50.74137389,14.192821888
4544465,PPL ParcelBox,562335,Děčín,40505,Teplická,761/107,50.78132189,14.148239194
4544163,PPL ParcelBox,562335,Děčín,40502,Děčín,,50.77077389,14.206189388
4541156,PPL ParcelBox,562335,Děčín,40502,Za Bažantnicí,1504/52,50.76123389,14.183113888
4567771,PPL ParcelBox,562335,Děčín,40502,Žerotínova,389/59,50.77033831,14.217863111
4504649,PPL ParcelBox,531146,Drahelčice,25219,Hořelická,47,50.03029061,14.204708305
4556316,PPL ParcelBox,563552,Desná,46861,Krkonošská,612,50.75597919,15.313674194
4536564,PPL ParcelBox,567515,Duchcov,41901,Horská cesta,1243,50.60737081,13.741713611
4542988,PPL ParcelBox,506702,Dolní Benešov,74722,Opavská,150,49.92069689,18.113156694
4538028,PPL ParcelBox,538167,Dobřejovice,25101,V Hůrce,489/489,49.97436811,14.586626388
4535780,PPL ParcelBox,582956,Dolní Kounice,66464,nám. Míru,482/15,49.07294189,16.464705
4456105,PPL ParcelBox,579203,Dvůr Králové nad Labem,54401,Alešova,3083,50.42555,15.81029
4548320,PPL ParcelBox,579203,Dvůr Králové nad Labem,54401,Čelakovského,2246,50.43655781,15.819870305
4336767,PPL ParcelBox,579203,Dvůr Králové nad Labem,54401,Erbenova,2928,50.42858811,15.815745
4572829,PPL ParcelBox,590576,Dukovany,67556,Dukovany,268,49.08525311,16.1941925
4561229,PPL ParcelBox,501476,Dlouhá Loučka,78386,Dvorská,562,49.81749169,17.189438611
4558689,PPL ParcelBox,595454,Dalečín,59241,Dalečín,49,49.59155889,16.240880611
4568631,PPL ParcelBox,506711,Dolní Lhota,74766,Čs. tankistů,93,49.84181361,18.09207
4542823,PPL ParcelBox,501646,Dolany,78316,Dolany,58,49.65013081,17.325084694
4570788,PPL ParcelBox,568392,Doloplazy,78356,Doloplazy,305,49.56661781,17.411869194
4358169,PPL ParcelBox,553425,Domažlice,34401,Kozinova,380,49.43958419,12.917948111
4445468,PPL ParcelBox,553425,Domažlice,34401,Mánesova,569,49.44536689,12.927449694
4561249,PPL ParcelBox,501794,Dub nad Moravou,78375,Brodecká,2,49.48252669,17.278777805
4506118,PPL ParcelBox,576301,Doudleby nad Orlicí,51742,Dukelská,91,50.10623311,16.2606875
4549675,PPL ParcelBox,581542,Doubravice nad Svitavou,67911,Klemov,359,49.43957969,16.619325805
4549674,PPL ParcelBox,581542,Doubravice nad Svitavou,67911,nám. Svobody,31,49.43591939,16.629866694
4566275,PPL ParcelBox,576271,Dobruška,51801,Nádražní,533,50.28982139,16.153213888
4264431,PPL ParcelBox,576271,Dobruška,51801,Solnická,1059,50.28911389,16.169020611
4300160,PPL ParcelBox,535672,Dobrovice,29441,Husova,319/319,50.36580219,14.961635
4569885,PPL ParcelBox,584444,Drnholec,69183,Vrchlického,307/4,48.8593225,16.487136388
4553997,PPL ParcelBox,534781,Dřísy,27714,Dřísy,187,50.24456219,14.634696111
4552546,PPL ParcelBox,574899,Dašice,53303,Křičenského,451,50.02611031,15.906640305
4558680,PPL ParcelBox,545473,Dolní Třebonín,38201,Dolní Třebonín,16,48.85534061,14.409703305
4584205,PPL ParcelBox,567507,Dubí,41702,Dlouhá,286/6,50.669865,13.804361111
4549789,PPL ParcelBox,567507,Dubí,41701,Krušnohorská,567/13,50.67669111,13.792305611
4567308,PPL ParcelBox,567507,Dubí,41701,Ruská,179,50.68405061,13.785763111
4339826,PPL ParcelBox,567507,Dubí,41701,Zahradní,331/34,50.674595,13.797596111
4278661,PPL ParcelBox,567515,Duchcov,41901,Osecká,1470/163,50.61123919,13.738236694
4544467,PPL ParcelBox,567515,Duchcov,41901,Osecká,1317/3,50.60690061,13.744996888
4549812,PPL ParcelBox,544442,Dubné,37384,Dubné,214,48.97383169,14.357133611
4574835,PPL ParcelBox,535206,Dobrá Voda u Českých Budějovic,37316,Lázeňská,1514/58,48.9652175,14.5282925
4559816,PPL ParcelBox,539163,Davle,25206,K Pivovaru,302,49.88890581,14.395259194
4586816,PPL ParcelBox,513229,Dřevohostice,75114,Bystřická,37,49.42388169,17.594021388
4558682,PPL ParcelBox,595535,Dolní Rožínka,59251,Dolní Rožínka,38,49.47684189,16.209338888
4587703,PPL ParcelBox,539210,Dolní Břežany,25241,Pražská,454,49.97020419,14.462601694
4542841,PPL ParcelBox,598003,Frýdek-Místek,73801,17.listopadu,2262,49.67469389,18.324378611
4575910,PPL ParcelBox,598089,Dobrá,73951,Dobrá,1130,49.67130781,18.424817194
4310867,PPL ParcelBox,598003,Frýdek-Místek,73801,Frýdlantská,770,49.67138611,18.346916888
4328204,PPL ParcelBox,598003,Frýdek-Místek,73801,Heydukova,85,49.69079439,18.341784388
4310870,PPL ParcelBox,598003,Frýdek-Místek,73801,Na Příkopě,3727,49.68071689,18.348212194
4384620,PPL ParcelBox,598003,Frýdek-Místek,73801,Nádražní,18,49.67879061,18.353125611
4533703,PPL ParcelBox,598003,Frýdek-Místek,73801,Nové dvory-Kamenec,3439,49.67906889,18.369910305
4535743,PPL ParcelBox,598003,Frýdek-Místek,73801,Pionýrů,1758,49.68079031,18.339155805
4353203,PPL ParcelBox,598003,Frýdek-Místek,73801,Revoluční,533,49.68668689,18.3494125
4411561,PPL ParcelBox,598003,Frýdek-Místek,73801,Slezská,3505,49.67796969,18.361226111
4567309,PPL ParcelBox,563579,Frýdštejn,46342,Frýdštejn,30,50.65206969,15.158273611
4472517,PPL ParcelBox,598143,Frýdlant nad Ostravicí,73911,Bezručova,317,49.59359669,18.3592275
4354167,PPL ParcelBox,564028,Frýdlant,46401,Fügnerova,1024,50.9267225,15.090093305
4494529,PPL ParcelBox,599344,Frenštát pod Radhoštěm,74401,Břet. Bartoše,,49.54463219,18.215425
4455850,PPL ParcelBox,599344,Frenštát pod Radhoštěm,74401,Křižíkova,1392,49.54231669,18.206058888
4353206,PPL ParcelBox,599344,Frenštát pod Radhoštěm,74401,Pod Šenkem,1906,49.55193439,18.199477805
4569456,PPL ParcelBox,599344,Frenštát pod Radhoštěm,74401,U Příkopy,1915,49.54585689,18.218324388
4554399,PPL ParcelBox,585211,Fryšták,76316,Holešovská,166,49.2879325,17.68087
4402942,PPL ParcelBox,554529,Františkovy Lázně,35101,Májová,355/22,50.12657111,12.340931888
4552527,PPL ParcelBox,568635,Golčův Jeníkov,58282,5.května,8,49.81410389,15.478511111
4534000,PPL ParcelBox,542750,Hošťálková,75622,Hošťálková,516,49.35506281,17.871325611
4402533,PPL ParcelBox,558885,Horní Bříza,33012,Tř. 1. máje,492,49.84331219,13.361798305
4384631,PPL ParcelBox,568414,Havlíčkův Brod,58001,Havlíčkova,3305,49.60849531,15.574944694
4493698,PPL ParcelBox,568414,Havlíčkův Brod,58001,Jihlavská,4240,49.59693031,15.579227805
4567338,PPL ParcelBox,568414,Havlíčkův Brod,58001,Kyjovská,1625,49.60579781,15.594280305
4572660,PPL ParcelBox,568414,Havlíčkův Brod,58001,Máchova,1154,49.60614689,15.585378111
4542665,PPL ParcelBox,568414,Havlíčkův Brod,58001,Na Ostrově,28,49.60472611,15.582868611
4471965,PPL ParcelBox,568414,Havlíčkův Brod,58001,Sídl. Pražská,2902,49.61147169,15.575541888
4572651,PPL ParcelBox,568414,Havlíčkův Brod,58001,Průmyslová,1907,49.58932439,15.589109194
4567316,PPL ParcelBox,577120,Horní Branná,51236,Horní Branná,262,50.61059189,15.569116694
4568247,PPL ParcelBox,564851,Horní Beřkovice,41185,Podřipská,22,50.35963611,14.344461888
4418749,PPL ParcelBox,560359,Habartov,35709,1. máje,847,50.18352419,12.557496388
4495331,PPL ParcelBox,560359,Habartov,35709,Československé armády,811,50.18330939,12.550669388
4495316,PPL ParcelBox,502146,Hlubočky,78365,Kosmonautů,438,49.62245,17.397599194
4483336,PPL ParcelBox,507016,Hlučín,74801,J. Seiferta,1482,49.89004561,18.193354194
4546880,PPL ParcelBox,507016,Hlučín,74801,U Cihelny,230/3,49.89448331,18.218281388
4307977,PPL ParcelBox,586021,Hodonín,69501,Masaryk. Nám.,16,48.85017531,17.129487194
4483856,PPL ParcelBox,586021,Hodonín,69501,Měšťanská,131,48.857585,17.136000611
4587747,PPL ParcelBox,586021,Hodonín,69501,Svatopluka Čecha,3608-09-01 00:00:00,48.85395031,17.122272805
4482531,PPL ParcelBox,586021,Hodonín,69501,Velkomoravská,4100/22,48.85226531,17.119549222
4567752,PPL ParcelBox,536091,Hrabišín,78804,Hrabišín,65,49.91593439,17.033595305
4552551,PPL ParcelBox,574996,Horní Jelení,53374,Antonína zápotockého,469,50.04959611,16.082979194
4575246,PPL ParcelBox,567175,Horní Jiřetín,43543,Havlíkova,49/1,50.57053889,13.551742805
4583481,PPL ParcelBox,594156,Hrušovany nad Jevišovkou,67167,nám. Míru,29,48.83039361,16.400742805
4571413,PPL ParcelBox,585220,Halenkovice,76363,Halenkovice,246,49.1730575,17.472820611
4352593,PPL ParcelBox,569810,Hradec Králové,50002,A. Dvořáka,1492/10,50.21892219,15.816454694
4558667,PPL ParcelBox,569810,Hradec Králové,50003,Bratří Štefanů,994,50.21837311,15.877427805
4340558,PPL ParcelBox,569810,Hradec Králové,50002,Gočárova tř.,1754/48a,50.21250419,15.810986388
4506719,PPL ParcelBox,569810,Hradec Králové,50008,Hradecká,1151/9,50.20381669,15.834262194
4329728,PPL ParcelBox,569810,Hradec Králové,50341,K Sokolovně,30,50.22713081,15.844578888
4412218,PPL ParcelBox,569810,Hradec Králové,50341,K Zastávce,46/2,50.22802189,15.836391388
4560175,PPL ParcelBox,569810,Hradec Králové,50003,Kladská,1088/25A,50.21874219,15.863106388
4568625,PPL ParcelBox,569810,Hradec Králové,50009,Krapkova,689/15,50.20458389,15.8623875
4329962,PPL ParcelBox,569810,Hradec Králové,50002,Kuklenská,1730/10a,50.20123969,15.808813888
4538020,PPL ParcelBox,569810,Hradec Králové,50004,Kutnohorská,226,50.19900311,15.781520805
4568630,PPL ParcelBox,569810,Hradec Králové,50009,Lhotecká,191/16A,50.20663331,15.877742194
4560186,PPL ParcelBox,569810,Hradec Králové,50011,Machkova,42,50.18815689,15.830056694
4425352,PPL ParcelBox,569810,Hradec Králové,50009,Mrštíkova,1879/42,50.19875361,15.8576625
4453582,PPL ParcelBox,569810,Hradec Králové,50002,Rovná,181,50.17957031,15.801545
4540501,PPL ParcelBox,569810,Hradec Králové,50301,Říčařova,162,50.24200111,15.797080305
4540510,PPL ParcelBox,569810,Hradec Králové,50009,Sportovní,636/52,50.20594111,15.859959388
4337406,PPL ParcelBox,569810,Hradec Králové,50002,Střelecká,45/2,50.21308531,15.820392805
4358854,PPL ParcelBox,569810,Hradec Králové,50011,Školská,734,50.18966419,15.838540805
4329960,PPL ParcelBox,569810,Hradec Králové,50003,Víta Nejedlého,1216/2,50.21073311,15.844903111
4552879,PPL ParcelBox,569810,Hradec Králové,50003,Zemědělská,880/1,50.21916689,15.869916694
4570553,PPL ParcelBox,574988,Holice,53401,Bří Čapků,951,50.06880781,15.986384194
4536568,PPL ParcelBox,574988,Holice,53401,Hradecká,1265,50.07248639,15.982385
4568234,PPL ParcelBox,592170,Hluk,68725,nám. Komenského,151,48.98688669,17.5270325
4308379,PPL ParcelBox,571393,Hlinsko,53901,Družstevní,1531,49.76455061,15.919116888
4487938,PPL ParcelBox,571393,Hlinsko,53901,Kavánova,430,49.76484861,15.910527194
4424069,PPL ParcelBox,588458,Holešov,76901,Palackého,520,49.32567889,17.5535075
4435976,PPL ParcelBox,588458,Holešov,76901,Sušilova,339,49.33148331,17.575184388
4567974,PPL ParcelBox,588458,Holešov,76901,Tovární,0,49.32779061,17.574071888
4568010,PPL ParcelBox,542784,Huslenky,75602,Huslenky,573,49.30973061,18.115247194
4567345,PPL ParcelBox,539236,Horoměřice,25262,Nebušická,709,50.13005,14.33383
4507381,PPL ParcelBox,539236,Horoměřice,25262,Přímá,83,50.13252969,14.337076694
4558669,PPL ParcelBox,544493,Homole,37001,Na Návsi,11,48.93821639,14.427943111
4483860,PPL ParcelBox,535532,Hanušovice,78833,Na Holbě,244,50.06545,16.92718
4542816,PPL ParcelBox,513750,Hranice,75301,Nádražní,450,49.56374311,17.7402225
4590251,PPL ParcelBox,513750,Hranice,75301,Struhlovsko,1217/1217,49.55486581,17.725545611
4561220,PPL ParcelBox,513750,Hranice,75301,Studentská,1926,49.55164611,17.729914388
4554131,PPL ParcelBox,513750,Hranice,75301,Tř. Československé armády,1033,49.54870719,17.727515805
4568002,PPL ParcelBox,592188,Horní Němčí,68764,Horní Němčí,128,48.93389639,17.623532194
4556208,PPL ParcelBox,545520,Hořice na Šumavě,38222,Hořice na Šumavě,147,48.76753939,14.180566888
4587006,PPL ParcelBox,544485,Hluboká nad Vltavou,37341,Podskalí,394,49.04995889,14.438059694
4558677,PPL ParcelBox,544485,Hluboká nad Vltavou,37341,Potoční,1634/1634,49.05755669,14.4259475
4546881,PPL ParcelBox,542687,Horní Bečva,75657,Horní Bečva,606,49.43108639,18.290411888
4539380,PPL ParcelBox,544558,Hrdějovice,37361,Na Bahnech,601,49.01460811,14.495045805
4266992,PPL ParcelBox,583031,Holasice,66461,Holasice,,49.07861281,16.604323611
4266107,PPL ParcelBox,531189,Hořovice,26801,Masarykova,1503/20a,49.83597189,13.892614388
4493508,PPL ParcelBox,531189,Hořovice,26801,Pražská,1349/22,49.83614081,13.906195305
4549807,PPL ParcelBox,544515,Horní Stropnice,37335,Horní Stropnice,47,48.76099611,14.733899694
4584208,PPL ParcelBox,567531,Hostomice,41752,Husova,307,50.588047,13.809113611
4496222,PPL ParcelBox,553654,Holýšov,34562,Táborová,585,49.59178781,13.103896111
4402523,PPL ParcelBox,547999,Humpolec,39601,Havlíčkovo nám.,90,49.54146781,15.355678611
4384775,PPL ParcelBox,547999,Humpolec,39601,Kamarytova,1329,49.54449389,15.35641
4591348,PPL ParcelBox,547999,Humpolec,39601,Masarykova,,49.53875781,14.0
4393392,PPL ParcelBox,584495,Hustopeče,69301,Bratislavská,,48.93218219,16.749039388
4276455,PPL ParcelBox,584495,Hustopeče,69301,U Větrolamu,1161/15,48.94358611,16.725127194
4558676,PPL ParcelBox,545511,Horní Planá,38226,Náměstí,38,48.76586081,14.031895611
4718923,PPL ParcelBox,545511,Horní Planá,38226,Sídl. Míru,295,48.76652389,14.029300305
4310873,PPL ParcelBox,507270,Hradec nad Moravicí,74741,Opavská,143,49.87379889,17.876404388
4552877,PPL ParcelBox,572926,Hořice,50801,Čelakovského,2122,50.36697889,15.622296888
4476234,PPL ParcelBox,572926,Hořice,50801,PodLipou,,50.36793889,15.635307194
4552529,PPL ParcelBox,575011,Horní Ředice,53375,Horní Ředice,122,50.07709419,15.955999194
4295366,PPL ParcelBox,513750,Hranice,75301,Tř. 1. máje,1901,49.5530925,17.735931388
4476231,PPL ParcelBox,513750,Hranice,75301,Zborovská,606,49.557605,17.750711
4567312,PPL ParcelBox,567566,Hrobčice,41757,Hrobčice,107,50.51843939,13.788079694
4587766,PPL ParcelBox,555185,Hroznětín,36233,Karlovarská,37,50.30893719,12.871485805
4552525,PPL ParcelBox,577081,Harrachov,51246,Harrachov,,50.76961969,15.435676694
4539372,PPL ParcelBox,577081,Harrachov,51246,Nový Svět,705,50.78100969,15.420298888
4570562,PPL ParcelBox,574082,Hronov,54931,Palackého,413,50.47617919,16.183234694
4353316,PPL ParcelBox,539244,Hostivice,25301,Litovická,1233,50.08097111,14.249830805
4570533,PPL ParcelBox,539244,Hostivice,25301,Sportovců,14,50.08165561,14.238683111
4554390,PPL ParcelBox,552739,Horní Suchá,73535,Těrlická,1280/2a,49.79975031,18.477882805
4564243,PPL ParcelBox,531171,Hlásná Třebaň,26718,Karlštejnská,150,49.92270889,14.197308111
4554001,PPL ParcelBox,560367,Horní Slavkov,35731,nám. Republiky,2,50.14063939,12.808336694
4545725,PPL ParcelBox,560367,Horní Slavkov,35731,Nová,101,50.13577311,12.796783111
4391492,PPL ParcelBox,553671,Horšovský Týn,34601,Dr. E. Beneše,13,49.52880611,12.9412025
4587057,PPL ParcelBox,542814,Hutisko-Solanec,75662,Solanec pod Soláněm,431,49.42891969,18.218095
4567758,PPL ParcelBox,593079,Hrušky,68352,Hrušky,2,49.12787781,16.831028611
4565038,PPL ParcelBox,567523,Háj u Duchcova,41722,Kubátova,155,50.63127111,13.710998888
4569195,PPL ParcelBox,568210,Hať,74716,U Střediska,271/3,49.94656669,18.238874194
4496643,PPL ParcelBox,588491,Hulín,76824,Eduarda Světlíka,384,49.31312611,17.469970611
4449200,PPL ParcelBox,588491,Hulín,76824,Sadová,1008,49.30991469,17.475878888
4304153,PPL ParcelBox,588491,Hulín,76824,Višňovce,1215,49.31891469,17.477043888
4578221,PPL ParcelBox,538477,Měšice,25064,Hlavní,697,50.18133361,14.517106694
4568253,PPL ParcelBox,542768,Hovězí,75601,Hovězí,78,49.3039125,18.062521888
4548305,PPL ParcelBox,502235,Hněvotín,78347,Hněvotín,573,49.57011,17.185415305
4568626,PPL ParcelBox,506753,Háj ve Slezsku,74792,Antonína Vaška,9,49.89975311,18.093305805
4584506,PPL ParcelBox,555088,Havířov,73601,Dělnická,1565/24c,49.78429031,18.436263305
4441996,PPL ParcelBox,555088,Havířov,73601,Dlouhá tř.,1623/44D,49.77550611,18.450683305
4339394,PPL ParcelBox,555088,Havířov,73601,E. F. Buriana,869/4a,49.77736419,18.436823888
4566299,PPL ParcelBox,555088,Havířov,73601,Gen. Svobody,20,49.8018475,18.414384388
4566293,PPL ParcelBox,555088,Havířov,73564,Hornická,1397/9a,49.79328361,18.450211111
4339388,PPL ParcelBox,555088,Havířov,73601,Jarošova,1,49.79616669,18.4031775
4389970,PPL ParcelBox,555088,Havířov,73601,Kollárova,1474/1A,49.7715375,18.4488625
4566298,PPL ParcelBox,555088,Havířov,73601,Lidická,886/43,49.79928419,18.400519194
4554394,PPL ParcelBox,555088,Havířov,73601,M. Pujmanové,524/1A,49.79408919,18.397363888
4566300,PPL ParcelBox,555088,Havířov,73601,Mládežnická,1575/8,49.7794725,18.455856111
4581544,PPL ParcelBox,555088,Havířov,73601,Moravská,516/18,49.80106219,18.419963305
4570995,PPL ParcelBox,555088,Havířov,73601,Studentská,1592/9A,49.77751081,18.458018111
4566291,PPL ParcelBox,555088,Havířov,73601,Těšínská,1100/50A,49.76205469,18.4642475
4542844,PPL ParcelBox,555088,Havířov,73601,Železničářů,1303/8,49.79106669,18.420067194
4575242,PPL ParcelBox,555088,Havířov,73601,Železničářů,1529,49.78909061,18.409426388
4490505,PPL ParcelBox,556254,Horažďovice,34101,Strakonická,170,49.32223719,13.7023125
4535873,PPL ParcelBox,554481,Cheb,35002,Dragounská,2563-04-01 00:00:00,50.07303439,12.36842
4328609,PPL ParcelBox,554481,Cheb,35002,Evropská,175/32,50.07331361,12.374040805
4323894,PPL ParcelBox,554481,Cheb,35002,Wolkerova,2743/32,50.08184,12.381101694
4474591,PPL ParcelBox,575071,Chvaletice,53312,U Kult. domu,351,50.03534939,15.412548111
4546868,PPL ParcelBox,562971,Chomutov,43003,Adámkova,4873,50.46223169,13.39551
4546869,PPL ParcelBox,562971,Chomutov,43003,Cihlářská,4092,50.47108189,13.406559194
4476854,PPL ParcelBox,562971,Chomutov,43003,Černovická,5434,50.45703389,13.396071111
4385334,PPL ParcelBox,562971,Chomutov,43003,Jiráskova,4170,50.47023061,13.398210305
4394192,PPL ParcelBox,562971,Chomutov,43003,Jiráskova,5959,50.46638831,13.406313111
4440374,PPL ParcelBox,562971,Chomutov,43004,Písečná,5583,50.48881139,13.446411888
4566980,PPL ParcelBox,562971,Chomutov,43004,Písečná,5376,50.48466031,13.437023888
4385333,PPL ParcelBox,562971,Chomutov,43004,Pod Břízami,5251,50.49130531,13.438580305
4305870,PPL ParcelBox,562971,Chomutov,43004,Pod Strážištěm,5723,50.47605611,13.409550805
4265936,PPL ParcelBox,562971,Chomutov,43001,Žižkovo nám.,5762,50.46089781,13.415451111
4567311,PPL ParcelBox,564109,Chotyně,46334,Chotyně,158,50.83554331,14.869219388
4626651,PPL ParcelBox,580350,Choceň,56501,Podhomolí,1555,49.99755,16.214479694
4495326,PPL ParcelBox,571164,Chrudim,53701,Dašická,1228,49.9562375,15.799790805
4402519,PPL ParcelBox,571164,Chrudim,53701,Dr.Milady Horákové,10,49.93724831,15.802418111
4541707,PPL ParcelBox,571164,Chrudim,53701,Na Ostrově,,49.94278031,15.795053611
4492430,PPL ParcelBox,571164,Chrudim,53701,Na rozhledně,,49.95400669,15.779775305
4308378,PPL ParcelBox,571164,Chrudim,53701,Palackého tř.,764,49.94684969,15.791610805
4328619,PPL ParcelBox,571164,Chrudim,53705,Topolská,1204,49.95101389,15.816274194
4544464,PPL ParcelBox,552496,Chýnov,39155,Bílkova,294/294,49.40313031,14.806051111
4561222,PPL ParcelBox,593117,Ivanovice na Hané,68323,Palackého nám.,145/16,49.30517611,17.092141694
4299544,PPL ParcelBox,583120,Ivančice,66491,Na Hrázi,169/25,49.09459969,16.364916888
4425531,PPL ParcelBox,583120,Ivančice,66491,Oslavanská,1548,49.10394781,16.365052805
4540499,PPL ParcelBox,583120,Ivančice,66491,Rybářská,33,49.10017169,16.382491694
4569209,PPL ParcelBox,563510,Jablonec nad Nisou,46801,Dalešická,184,50.70061611,15.177571111
4567313,PPL ParcelBox,577162,Jablonec nad Jizerou,51243,Jablonec nad Jizerou,800,50.69955889,15.43472
4506912,PPL ParcelBox,542865,Jablůnka,75623,Jablůnka,54,49.38445969,17.950759194
4422355,PPL ParcelBox,563510,Jablonec nad Nisou,46601,Na Kopci,3297-08-01 00:00:00,50.72350969,15.155106888
4279089,PPL ParcelBox,563510,Jablonec nad Nisou,46602,Podhorská,5265,50.73313061,15.187880805
4418623,PPL ParcelBox,563510,Jablonec nad Nisou,46601,Riegrova,4067/38,50.73155331,15.160966694
4429415,PPL ParcelBox,563510,Jablonec nad Nisou,46601,Rooseveltova,2850-01-01 00:00:00,50.73125419,15.165938111
4566281,PPL ParcelBox,563510,Jablonec nad Nisou,46601,Smetanova,69,50.72903861,15.174835805
4541535,PPL ParcelBox,563510,Jablonec nad Nisou,46605,Zemědělská,47,50.74756361,15.135591111
4539417,PPL ParcelBox,563510,Jablonec nad Nisou,46605,Želivského,5231/2a,50.73428139,15.159516388
4554393,PPL ParcelBox,598259,Jablunkov,73991,Alej míru,321,49.57167811,18.758880611
4566273,PPL ParcelBox,572659,Jičín,50601,B. Němcové,50,50.43780281,15.349300305
4474588,PPL ParcelBox,572659,Jičín,50601,Hradecká,1141,50.4352365,15.368703805
4576314,PPL ParcelBox,572659,Jičín,50601,Jungmannova,34,50.43371281,15.356834194
4540516,PPL ParcelBox,572659,Jičín,50601,Karla Vika,368,50.42738669,15.350475305
4328207,PPL ParcelBox,572659,Jičín,50601,Leoše Janáčka,888,50.44254919,15.3569075
4533707,PPL ParcelBox,572659,Jičín,50601,Prachovská,423,50.4424325,15.344072805
4273403,PPL ParcelBox,581682,Jedovnice,67906,Havlíčkovo nám.,,49.34240031,16.753662805
4566953,PPL ParcelBox,594202,Jevišovice,67153,Jevišovice,332,48.98713306,15.989140555
4489581,PPL ParcelBox,586846,Jihlava,58601,Brněnská,4971/74,49.39664319,15.6102735
4449211,PPL ParcelBox,586846,Jihlava,58601,Březinova,4248/62,49.40222861,15.601715805
4274282,PPL ParcelBox,586846,Jihlava,58601,Jiráskova,5201/66,49.40238919,15.575831694
4571813,PPL ParcelBox,586846,Jihlava,58601,Pávovská,4806/14A,49.426365,15.600350305
4329733,PPL ParcelBox,586846,Jihlava,58601,Rantířovská,4787-01-01 00:00:00,49.39496639,15.566918611
4573153,PPL ParcelBox,586846,Jihlava,58601,Vrchlického,4843/61,49.39917311,15.567460805
4532032,PPL ParcelBox,592226,Jalubí,68705,Jalubí,548,49.11797419,17.426671888
4278888,PPL ParcelBox,562564,Jílové,40702,Modrá,176,50.76147439,14.098768611
4579530,PPL ParcelBox,590789,Jemnice,67531,Palackého,771,49.01873439,15.575006888
4560885,PPL ParcelBox,574121,Jaroměř,55101,Na Rejsce,345,50.34270689,15.905527194
4474589,PPL ParcelBox,574121,Jaroměř,55101,Pionýrská,713,50.35024081,15.922090305
4340561,PPL ParcelBox,574121,Jaroměř,55101,Svatopluka Čecha,63,50.34815,15.912888611
4539194,PPL ParcelBox,545881,Jindřichův Hradec,37701,28.října,528,49.13681781,15.010425805
4718458,PPL ParcelBox,545881,Jindřichův Hradec,37701,9.května,875,49.15149189,14.997135805
4329547,PPL ParcelBox,545881,Jindřichův Hradec,37701,sídl. Vajgar,595,49.14024561,15.017499694
4329548,PPL ParcelBox,545881,Jindřichův Hradec,37701,sídl. U Nádraží,940,49.15237919,15.006714694
4304398,PPL ParcelBox,545881,Jindřichův Hradec,37701,Václavská,1756,49.13203439,15.003144194
4493123,PPL ParcelBox,545881,Jindřichův Hradec,37701,sídl. Vajgar,730,49.1431085,15.023116833
4448494,PPL ParcelBox,590754,Jaroměřice nad Rokytnou,67551,Komenského,1029,49.09497611,15.890498111
4581396,PPL ParcelBox,556394,Janovice nad Úhlavou,34021,Sídliště,296,49.34307419,13.217845805
4569206,PPL ParcelBox,537926,Jenišov,36001,Jenišov,125,50.22385781,12.804822194
4568649,PPL ParcelBox,564133,Jindřichovice pod Smrkem,46365,Jindřichovice pod Smrkem,392,50.96100781,15.246659694
4402912,PPL ParcelBox,563099,Jirkov,43111,K. Marxe,1691,50.50506,13.437242194
4305769,PPL ParcelBox,563099,Jirkov,43111,U Sauny,1739,50.50179889,13.450295611
4393948,PPL ParcelBox,563099,Jirkov,43111,Vinařická,2152,50.49935669,13.444329194
4568009,PPL ParcelBox,538272,Jirny,25090,Na Polníku,212,50.10592469,14.706623305
4575902,PPL ParcelBox,539325,Jesenice,25242,Na Ochoze,1270,49.96543469,14.519221888
4504567,PPL ParcelBox,539325,Jesenice,25242,Ve Dvoře,807,49.96847939,14.515168888
4583235,PPL ParcelBox,536385,Jeseník,79001,Lipovská,32,50.22709919,17.198243305
4540720,PPL ParcelBox,536385,Jeseník,79001,Sadová,1376/5,50.22639439,17.206927805
4418903,PPL ParcelBox,536385,Jeseník,79001,Tylova,1154/1,50.22263389,17.197516888
4567284,PPL ParcelBox,599506,Jistebník,74282,Jistebník,158,49.75069781,18.132823111
4298804,PPL ParcelBox,539333,Jílové u Prahy,25401,Radlík,156,49.90464919,14.486785611
4553978,PPL ParcelBox,539333,Jílové u Prahy,25401,Pražská,48,49.91111081,14.496015805
4539186,PPL ParcelBox,539333,Jílové u Prahy,25401,Rudných dolů,502,49.89691389,14.491851694
4559814,PPL ParcelBox,539333,Jílové u Prahy,25401,Spartakiádní,402,49.89660081,14.498683888
4495318,PPL ParcelBox,536148,Javorník,79070,17.listopadu,,50.39218781,17.004704388
4504859,PPL ParcelBox,578193,Jevíčko,56943,Palackého nám.,638,49.63275831,16.7136275
4548314,PPL ParcelBox,561631,Jablonné v Podještědí,47125,Zdislavy z Lemberka,137,50.7662925,14.761352194
4270369,PPL ParcelBox,563102,Kadaň,43201,Kpt. Jaroše,1954,50.38382311,13.271456888
4486036,PPL ParcelBox,563102,Kadaň,43201,Na Podlesí,1482/1482,50.38381781,13.265641388
4567748,PPL ParcelBox,598917,Karviná,73401,Borovského,169/103,49.85340139,18.579755
4456956,PPL ParcelBox,598917,Karviná,73301,Einsteinova,2867-04-01 00:00:00,49.86764419,18.559155305
4456954,PPL ParcelBox,598917,Karviná,73301,Fryštátská,235/77,49.85046439,18.549479694
4495317,PPL ParcelBox,598917,Karviná,73506,Janského,2458-04-01 00:00:00,49.86024581,18.543179388
4575425,PPL ParcelBox,598917,Karviná,73301,Karola Śliwky,147/13,49.85509561,18.544905611
4310872,PPL ParcelBox,598917,Karviná,73401,Kosmonautů,511/23b,49.85090919,18.556824194
4364786,PPL ParcelBox,598917,Karviná,73506,Sportovní,1797/2,49.86620081,18.542320805
4567747,PPL ParcelBox,598917,Karviná,73401,Stavbařů,2203/38,49.8596725,18.557269388
4575428,PPL ParcelBox,598917,Karviná,73301,Svatopluka Čecha,733/5,49.85684439,18.536412194
4455111,PPL ParcelBox,598917,Karviná,73301,tř. 17. listopadu,2025-02-23 00:00:00,49.85604031,18.540821694
4411562,PPL ParcelBox,598917,Karviná,73401,tř. 17. listopadu 883/2a Kóje v OD TESCO,,49.84603561,18.554341111
4456955,PPL ParcelBox,598917,Karviná,73401,U Lesa,763/4,49.84779419,18.560234388
4493711,PPL ParcelBox,598917,Karviná,73301,Žižkova,221/52,49.86113031,18.55241
4549804,PPL ParcelBox,545554,Kájov,38221,Kájovská,22,48.81320719,14.2590175
4435973,PPL ParcelBox,580481,Králíky,56169,Moravská,999,50.08161639,16.760503611
4494531,PPL ParcelBox,507504,Kobeřice,74727,Hlučínská,,49.98480531,18.052867805
4556352,PPL ParcelBox,568945,Krucemburk,58266,Mikuláše Střely,223,49.69094139,15.841431694
4587764,PPL ParcelBox,553786,Kdyně,34506,Náměstí,138,49.39095169,13.040509694
4567278,PPL ParcelBox,553786,Kdyně,34506,Nádražní,747,49.38902889,13.036173111
4576838,PPL ParcelBox,557862,Kasejovice,33544,Kasejovice,267,49.46480361,13.7340375
4302351,PPL ParcelBox,586307,Kyjov,69701,U Sklepů,90/11,49.00847861,17.132011111
4265939,PPL ParcelBox,532053,Kladno,27309,28.října,166,50.17520889,14.107160611
4472531,PPL ParcelBox,532053,Kladno,27201,Americká,2777,50.12624739,14.118744805
4365093,PPL ParcelBox,532053,Kladno,27201,Americká,2445,50.12874031,14.116113305
4579560,PPL ParcelBox,532053,Kladno,27201,Braunova,75,50.15034031,14.088841888
4297781,PPL ParcelBox,532053,Kladno,27203,Libušina,3/1009,50.14585639,14.1259025
4275035,PPL ParcelBox,532053,Kladno,27201,nám. Sítná,3127,50.13559561,14.102821694
4365094,PPL ParcelBox,532053,Kladno,27201,Pařížská,1,50.1359125,14.135795805
4262383,PPL ParcelBox,532053,Kladno,27204,Smečenská,1081,50.14146831,14.064606694
4565041,PPL ParcelBox,532053,Kladno,27201,T. G. Masaryka,,50.14548831,14.095460305
4271633,PPL ParcelBox,532053,Kladno,27309,28.října,1542,50.16491969,14.108803305
4301601,PPL ParcelBox,532053,Kladno,27201,V Bažantnici,2655,50.13104331,14.137469694
4573156,PPL ParcelBox,532053,Kladno,27201,Vančurova,1548,50.14180311,14.089611111
4297780,PPL ParcelBox,532053,Kladno,27201,Vítězslava Nezvala,756,50.14620969,14.070468305
4273407,PPL ParcelBox,532053,Kladno,27201,Vrchlického,2363,50.13352061,14.120945611
4504852,PPL ParcelBox,599549,Klimkovice,74283,Náměstí,71,49.78646811,18.131994194
4300749,PPL ParcelBox,559075,Kralovice,33141,Žatecká,866,49.98198639,13.488724388
4569196,PPL ParcelBox,598348,Krmelín,73924,Proskovická,210,49.73322439,18.223612805
4440386,PPL ParcelBox,555771,Klatovy,33901,5.května,689,49.38218811,13.297001111
4402910,PPL ParcelBox,555771,Klatovy,33901,Domažlická,909,49.39327031,13.285568888
4567327,PPL ParcelBox,555771,Klatovy,33901,K Letišti,385,49.40557969,13.294922194
4391490,PPL ParcelBox,555771,Klatovy,33901,Plánická,626,49.39598861,13.308968305
4573391,PPL ParcelBox,555771,Klatovy,33901,Puškinova,135,49.38594,13.303913611
4336769,PPL ParcelBox,555771,Klatovy,33901,Sídl. U Pošty,683,49.39839581,13.289885611
4588044,PPL ParcelBox,538299,Kamenice,25168,Benešovská,207,49.89511331,14.612774388
4435936,PPL ParcelBox,538299,Kamenice,25168,Pražská,400,49.910585,14.585076694
4506128,PPL ParcelBox,534897,Kly,27741,Krauzovna,81,50.30875139,14.515768888
4556336,PPL ParcelBox,531324,Komárov,26762,Buzulucká,26762,49.80935139,13.858476111
4340452,PPL ParcelBox,570826,Kosmonosy,29306,Pod koupalištěm,901,50.44116,14.920464694
4568261,PPL ParcelBox,588296,Kroměříž,76701,Hanácké nám.,475/3,49.29348361,17.388523611
4334117,PPL ParcelBox,588296,Kroměříž,76701,Slovanské nám.,3283-05-01 00:00:00,49.29073781,17.395584388
4720894,PPL ParcelBox,588296,Kroměříž,76701,Spáčilova,569,49.29750939,17.405805611
4304154,PPL ParcelBox,588296,Kroměříž,76701,Tovačovského,4423,49.29809561,17.401093111
4492780,PPL ParcelBox,588296,Kroměříž,76701,U Rejdiště,4485/2a,49.29279061,17.406053111
4586569,PPL ParcelBox,588296,Kroměříž,76701,Vodní,79/21,49.29886061,17.396290305
4572666,PPL ParcelBox,534935,Kostelec nad Labem,27713,Přemyslova,211,50.23438781,14.5908725
4552563,PPL ParcelBox,537411,Křinec,28933,Náměstí,19,50.26568939,15.139398611
4553966,PPL ParcelBox,538426,Kunice,25169,Vrbová,59/59,49.91463061,14.682576888
4567975,PPL ParcelBox,589632,Kostelec na Hané,79841,Tyršova,975,49.51539831,17.058674388
4558668,PPL ParcelBox,546615,Kunžak,37862,Střížovická,220,49.12203389,15.189136694
4504851,PPL ParcelBox,568546,Kunín,74253,Kunín,189,49.641105,17.988497805
4546870,PPL ParcelBox,563129,Klášterec nad Ohří,43151,Budovatelská,487,50.38903281,13.179496111
4394176,PPL ParcelBox,563129,Klášterec nad Ohří,43151,Chomutovská,210,50.38639189,13.176616388
4546871,PPL ParcelBox,563129,Klášterec nad Ohří,43151,J. A. Komenského,697,50.38933581,13.186933111
4341197,PPL ParcelBox,563129,Klášterec nad Ohří,43151,Polní,782,50.39339,13.182325611
4556340,PPL ParcelBox,548111,Kamenice nad Lipou,39470,Pelhřimovská,759,49.30703639,15.075832805
4556207,PPL ParcelBox,548111,Kamenice nad Lipou,39470,Za Kult. domem,640,49.29913889,15.071456388
4305360,PPL ParcelBox,534951,Kralupy nad Vltavou,27801,Přemyslova,134/114,50.24047669,14.313561388
4541534,PPL ParcelBox,534951,Kralupy nad Vltavou,27801,Chelčického,688,50.24021969,14.305075805
4558648,PPL ParcelBox,534951,Kralupy nad Vltavou,27801,Mostní,934,50.24272061,14.312183611
4558645,PPL ParcelBox,534951,Kralupy nad Vltavou,27801,U Dýhárny,1162,50.24162811,14.329263888
4402911,PPL ParcelBox,534951,Kralupy nad Vltavou,27801,Veltruská,815,50.25289669,14.318209694
4542990,PPL ParcelBox,542911,Karolinka,75605,U Sokolovny,277,49.35180581,18.240575305
4568790,PPL ParcelBox,553816,Koloveč,34543,Palackého,317,49.486835,13.109980611
4298098,PPL ParcelBox,533165,Kolín,28002,Ovčárecká,509,50.04728081,15.219128305
4470926,PPL ParcelBox,533165,Kolín,28002,Polepská,867,50.01726389,15.206938305
4506370,PPL ParcelBox,533165,Kolín,28002,Pražská,302,50.02958081,15.190372805
4308380,PPL ParcelBox,533165,Kolín,28002,Pražská,1005/1005,50.03092081,15.183215
4487134,PPL ParcelBox,533165,Kolín,28002,V Kasárnách,1019,50.03204908,15.189815694
4538033,PPL ParcelBox,533165,Kolín,28002,V Opletkách,585,50.02291611,15.208207805
4570801,PPL ParcelBox,589624,Konice,79852,Tyršova,392,49.59299611,16.887277805
4560575,PPL ParcelBox,571318,Roblín,25226,Průběžná,,49.98602139,14.327445805
4568633,PPL ParcelBox,547182,Kozmice,74711,Por. Hoši,411/16,49.91228189,18.151213888
4542986,PPL ParcelBox,545562,Kaplice,38241,Míru,756,48.74469669,14.490752805
4439208,PPL ParcelBox,545562,Kaplice,38241,Na Vyhlídce,924/924,48.74034111,14.486242194
4297906,PPL ParcelBox,545562,Kaplice,38241,Zahradní,636,48.73476669,14.495750611
4574891,PPL ParcelBox,598356,Kunčice pod Ondřejníkem,73913,Kunčice pod Ondřejníkem,70,49.54236081,18.271130305
4568246,PPL ParcelBox,565059,Kostomlaty pod Řípem,41301,Kostomlaty pod Řípem,160,50.38339469,14.333766111
4270746,PPL ParcelBox,507580,Kravaře,74721,Mírová,3020-01-01 00:00:00,49.93317581,17.997141388
4568627,PPL ParcelBox,507580,Kravaře,74721,Opavská,954/61,49.93307919,18.013600305
4278229,PPL ParcelBox,533203,Králův Dvůr,26701,nám. Míru,139,49.94474531,14.039454388
4563844,PPL ParcelBox,533203,Králův Dvůr,26701,Plzeňská,153,49.942525,14.027826888
4541538,PPL ParcelBox,533203,Králův Dvůr,26701,Pod Hájem,319,49.94819831,14.036903305
4548309,PPL ParcelBox,597520,Krnov,79401,Albrechtická,1787/121,50.09963889,17.674092194
4358855,PPL ParcelBox,597520,Krnov,79401,Opavská,241/2,50.08836719,17.708415
4676904,PPL ParcelBox,597520,Krnov,79401,Smetanův okruh,338,50.09229639,17.701594194
4567762,PPL ParcelBox,571661,Krouna,53943,Krouna,426,49.77238419,16.026577805
4278660,PPL ParcelBox,567639,Krupka,41742,Revoluční,,50.68542469,13.886075
4567314,PPL ParcelBox,566314,Kryry,43981,Školní,430,50.17473469,13.425744194
4506720,PPL ParcelBox,545571,Křemže,38203,Náměstí,274,48.90502311,14.304515
4568004,PPL ParcelBox,585343,Kašava,76319,Kašava,175,49.29906919,17.787298305
4545528,PPL ParcelBox,560472,Kraslice,35801,Československé armády,38,50.31821139,12.519222194
4679438,PPL ParcelBox,560472,Kraslice,35801,Kpt.Jaroše,2960,50.32887061,12.508260611
4575398,PPL ParcelBox,560472,Kraslice,35801,Přilehlá,1731,50.327395,12.511579388
4556360,PPL ParcelBox,546542,Kardašova Řečice,37821,Míru,692,49.18752311,14.84561
4270217,PPL ParcelBox,533955,Kutná Hora,28401,Masarykova,96/34,49.95524,15.278727805
4538031,PPL ParcelBox,533955,Kutná Hora,28401,Sportovců,56,49.95583189,15.273045805
4297457,PPL ParcelBox,533955,Kutná Hora,28401,Vojtěšská,390,49.94706469,15.258189694
4541685,PPL ParcelBox,567621,Košťany,41723,Za Obloukem,218,50.66853531,13.747639694
4539188,PPL ParcelBox,550744,Kunovice,68604,Červená cesta,317,49.03699611,17.464030805
4561224,PPL ParcelBox,587401,Kostelec,58861,Kostelec,165,49.3599325,15.4928075
4580106,PPL ParcelBox,583251,Kuřim,66434,Legionářská,23,49.30028781,16.530347194
4419332,PPL ParcelBox,583251,Kuřim,66434,Legionářská,1265/70,49.30477419,16.531362194
4418746,PPL ParcelBox,583251,Kuřim,66434,Tyršova,2048/43,49.29685189,16.549368305
4273404,PPL ParcelBox,581879,Kunštát,67972,nám. Krále Jiřího,361,49.50621781,16.517462805
4574100,PPL ParcelBox,554961,Karlovy Vary,36005,Dolní Kamenná,1004/7,50.23176219,12.853238888
4566982,PPL ParcelBox,554961,Karlovy Vary,36005,Dolní Kamenná,1016/5,50.23244689,12.861419388
4567320,PPL ParcelBox,554961,Karlovy Vary,36006,Chebská,,50.22572831,12.822963111
4334643,PPL ParcelBox,554961,Karlovy Vary,36004,Jáchymovská,,50.24442,12.875396694
4360388,PPL ParcelBox,554961,Karlovy Vary,36017,Nerudova,99,50.24554669,12.828713305
4487552,PPL ParcelBox,554961,Karlovy Vary,36017,Nové domky,655/1,50.24268861,12.830665
4453588,PPL ParcelBox,537926,Jenišov,36001,Obchodní,33,50.21861111,8025-12-01 00:00:00
4546872,PPL ParcelBox,554961,Karlovy Vary,36005,Třeboňská,1002/91,50.23870439,12.848933305
4402941,PPL ParcelBox,554961,Karlovy Vary,36001,Úvalská,,50.237315,12.891196805
4439200,PPL ParcelBox,554961,Karlovy Vary,36005,Železniční,1006/15,50.24136831,12.852643611
4578219,PPL ParcelBox,599565,Kopřivnice,74221,Čsl. armády,254/10,49.60235139,18.145233888
4395185,PPL ParcelBox,599565,Kopřivnice,74221,Husova,1119/3,49.59539689,18.141161888
4573157,PPL ParcelBox,599565,Kopřivnice,74221,Javorová,769/7A,49.60344281,18.136538111
4554392,PPL ParcelBox,599565,Kopřivnice,74221,Školní,157/12,49.60036689,18.1378875
4540719,PPL ParcelBox,599565,Kopřivnice,74221,Štefánikova,36/49,49.60382611,18.148049694
4573135,PPL ParcelBox,599565,Kopřivnice,74221,Štefánikova,1408/18e,49.60171919,18.148495305
4494532,PPL ParcelBox,599565,Kopřivnice,74221,Záhumenní,1151/2,49.60031669,18.142276694
4507029,PPL ParcelBox,538710,Řehenice,25167,Křiváček,17,49.8675825,14.642337805
4548474,PPL ParcelBox,588644,Kvasice,76821,A. Dohnala,305,49.24247189,17.469728611
4558646,PPL ParcelBox,541982,Křivoklát,27023,Křivoklát,2,50.0372525,13.877645805
4486969,PPL ParcelBox,544663,Kamenný Újezd,37381,Nádražní,475,48.89644969,14.448470805
4679684,PPL ParcelBox,532452,Kamenné Žehrovice,27301,Karlovarská tř.,554,50.12744189,14.015199694
4546106,PPL ParcelBox,539384,Kněževes,25268,Na Staré silnici,166,50.11949531,14.259199194
4474590,PPL ParcelBox,574767,Lázně Bohdaneč,53341,Na Lužci,703,50.06939311,15.682456388
4560174,PPL ParcelBox,573108,Libáň,50723,nám. Svobody,17,50.37443,15.21604
4395187,PPL ParcelBox,585459,Luhačovice,76326,Uherskobrodská,1018,49.09221439,17.739849694
4554371,PPL ParcelBox,599603,Lichnov,74275,Lichnov,90,49.56347919,18.169956388
4560882,PPL ParcelBox,544736,Ledenice,37311,Truhlářská,665/665,48.93181081,14.618536694
4561217,PPL ParcelBox,581917,Letovice,67961,Českobratrská,1062/4a,49.54790469,16.575412805
4542666,PPL ParcelBox,581917,Letovice,67961,Masarykovo nám.,5,49.54626139,16.576484694
4586613,PPL ParcelBox,507971,Ludgeřovice,74714,Hlučínská,,49.87798031,18.254378305
4586612,PPL ParcelBox,507971,Ludgeřovice,74714,Hlučínská,,49.88276361,18.249279694
4674960,PPL ParcelBox,569038,Lípa,58257,Lípa,297,49.552471,15.538103
4549811,PPL ParcelBox,550361,Lhenice,38402,Sídl. SNP,372,48.99808669,14.153937194
4361683,PPL ParcelBox,563889,Liberec,46006,Broumovská,843/11,50.76007689,15.070243305
4544471,PPL ParcelBox,563889,Liberec,46006,Doubská,1207,50.74675061,15.054939694
4360749,PPL ParcelBox,563889,Liberec,46006,Gagarinova,1167/59,50.75042311,15.034124388
4403298,PPL ParcelBox,563889,Liberec,46001,Horská,1306,50.78123311,15.069275805
4543008,PPL ParcelBox,563889,Liberec,46006,Ježkova,1169/3,50.75115189,15.062298611
4567302,PPL ParcelBox,563889,Liberec,46001,Lidická,137/1,50.7825975,15.051130305
4300736,PPL ParcelBox,563889,Liberec,46001,Londýnská,661,50.77626311,15.036247194
4422362,PPL ParcelBox,563889,Liberec,46312,Mařanova,387,50.73711861,15.052475305
4556351,PPL ParcelBox,563889,Liberec,46014,nám. Míru,175/1,50.78952781,15.067262194
4539375,PPL ParcelBox,563889,Liberec,46007,Nitranská,410/10,50.76114811,15.051957805
4361684,PPL ParcelBox,563889,Liberec,46015,Olbrachtova,37,50.76095361,15.095860611
4575244,PPL ParcelBox,563889,Liberec,46001,Ostašovská,576/29,50.77269689,15.030679694
4273154,PPL ParcelBox,563889,Liberec,46001,Palachova,1404/2,50.76943689,15.059355611
4328620,PPL ParcelBox,563889,Liberec,46312,Puškinova,49,50.72579361,15.040403305
4552536,PPL ParcelBox,563889,Liberec,46014,Rychtářská,390,50.78583919,15.063247805
4360751,PPL ParcelBox,563889,Liberec,46014,Hlávkova,1088,50.78709169,15.057291111
4340450,PPL ParcelBox,563889,Liberec,46312,Sportovní,522,50.73416169,15.0503125
4541914,PPL ParcelBox,563889,Liberec,46010,Švermova,352/24,50.76353,15.038079694
4542664,PPL ParcelBox,563889,Liberec,46001,náměstí Tržní,1385/8,50.77412669,15.060658888
4492418,PPL ParcelBox,563889,Liberec,46006,Vratislavická,1012,50.74818889,15.0697375
4548483,PPL ParcelBox,563889,Liberec,46001,Zhořelecká,414/19,50.77521081,15.054925305
4563842,PPL ParcelBox,568058,Libouchec,40335,Libouchec,271,50.75867689,14.040977194
4279271,PPL ParcelBox,544779,Lišov,37372,Jirsíkova,430/43,49.01906,14.607547805
4539367,PPL ParcelBox,535591,Zvíkov,37372,Nová,635,49.01626,14.610362194
4567757,PPL ParcelBox,580627,Lukavice,56151,Lukavice,112,50.06297781,16.481168888
4450249,PPL ParcelBox,580511,Lanškroun,56301,Seifertova,387,49.91530497,16.611225833
4430521,PPL ParcelBox,560537,Loket,35733,Nádražní,583,50.19228669,12.749095611
4561198,PPL ParcelBox,586943,Brtnice,58832,Spotrovní,0,49.3094725,15.668923888
4568003,PPL ParcelBox,585467,Lukov,76317,Pod Kaštany,103,49.28985531,17.729455805
4560183,PPL ParcelBox,540030,Lipová-lázně,79061,Lipová-lázně,712,50.22801139,17.136036888
4537041,PPL ParcelBox,564567,Litoměřice,41201,Českolipská,917/6,50.53710611,14.152040611
4549801,PPL ParcelBox,564567,Litoměřice,41201,Havlíčkova,1829/11a,50.54281919,14.129618111
4492433,PPL ParcelBox,564567,Litoměřice,41201,Komenského,2024,50.53715669,14.124774194
4336639,PPL ParcelBox,564567,Litoměřice,41201,Stránského,1908/33,50.53663111,14.120308305
4324123,PPL ParcelBox,578347,Litomyšl,57001,Sokolovská,1168,49.88062561,16.294572805
4263961,PPL ParcelBox,514705,Lipník nad Bečvou,75131,Neffova,299,49.526535,17.582840305
4533992,PPL ParcelBox,514705,Lipník nad Bečvou,75131,Zahradní,1325,49.52377031,17.587958305
4304406,PPL ParcelBox,537454,Lysá nad Labem,28922,Sídliště,1438/19,50.20894097,14.844806777
4567305,PPL ParcelBox,563692,Lučany nad Nisou,46871,Lučany nad Nisou,125,50.74036811,15.22436
4535751,PPL ParcelBox,577308,Lomnice nad Popelkou,51251,Palackého,648,50.52803361,15.376976888
4556331,PPL ParcelBox,568988,Ledeč nad Sázavou,58401,Sázavská,174,49.69595311,15.272221388
4576836,PPL ParcelBox,581950,Lipovec,67915,Lipovec,318,49.38362111,16.806670611
4549805,PPL ParcelBox,545601,Loučovice,38276,Loučovice,280,48.62123439,14.257270611
4571821,PPL ParcelBox,565971,Louny,44001,Postoloprtská,2664/2664,50.35551189,13.776525305
4440310,PPL ParcelBox,565971,Louny,44001,Přemyslovců,2654,50.35641111,13.782831694
4300635,PPL ParcelBox,565971,Louny,44001,Říční,756,50.35916219,13.813
4556318,PPL ParcelBox,565229,Lovosice,41002,Dlouhá,83/4,50.51682611,14.047362805
4556317,PPL ParcelBox,565229,Lovosice,41002,Osvoboditelů,1068/18,50.51589611,14.049952805
4548315,PPL ParcelBox,565229,Lovosice,41002,Smetanova,966/1,50.51540581,14.040684388
4581404,PPL ParcelBox,530107,Louňovice pod Blaníkem,25706,náměstí J. Žižky,7,49.63795831,14.847223111
4560172,PPL ParcelBox,570231,Lhota pod Libčany,50327,Lhota pod Libčany,50,50.17159389,15.697268611
4563850,PPL ParcelBox,540196,Loštice,78983,Sokolská,557/30,49.74768169,16.931904694
4552545,PPL ParcelBox,580538,Letohrad,56151,Mírová,865,50.03900419,16.508789694
4552876,PPL ParcelBox,536270,Luštěnice,29442,Zelená,414,50.32111811,14.935761694
4567282,PPL ParcelBox,503444,Litovel,78401,Dukelská,435/13,49.70588419,17.073818111
4549819,PPL ParcelBox,503444,Litovel,78401,Náměstí nám. Přemysla Otakara,793/7,49.70100561,17.076018305
4311411,PPL ParcelBox,503657,Lutín,78349,Jana Sigmunda,87,49.55809861,17.141490305
4539392,PPL ParcelBox,567256,Litvínov,43542,Hamerská,159,50.59070389,13.565677194
4339805,PPL ParcelBox,503444,Litovel,78401,Komárov,820,49.70145311,17.071430305
4393949,PPL ParcelBox,567256,Litvínov,43601,Podkrušnohorská,2171,50.60088531,13.601954194
4476859,PPL ParcelBox,539198,Dobřichovice,25229,Pražská,,49.92391281,14.259986888
4556323,PPL ParcelBox,585441,Ludkovice,76341,Ludkovice,81,49.11401061,17.726611111
4576318,PPL ParcelBox,567264,Lom,43511,Československé armády,823,50.59142811,13.658578111
4568011,PPL ParcelBox,537446,Loučeň,28937,Nymburska,95/95,50.28816781,15.022139388
4562800,PPL ParcelBox,581976,Lomnice,67923,Tišnovská,362,49.40426331,16.413995
4626658,PPL ParcelBox,565164,Libochovice,41117,Riegrova,123,50.40640331,14.046077805
4540700,PPL ParcelBox,539414,Libčice nad Vltavou,25266,Chýnovská,683,50.19510969,14.353849694
4549818,PPL ParcelBox,571776,Luže,53854,Dukelská,394,49.89342689,16.030353611
4494423,PPL ParcelBox,571776,Luže,53854,Košumberk,68,49.88888939,16.030011111
4550029,PPL ParcelBox,583260,Lažánky,66471,Lažánky,63,49.27989719,16.388081694
4579562,PPL ParcelBox,538515,Mratín,25063,U Cukrovaru,206,50.20669669,14.5584375
4336771,PPL ParcelBox,591181,Moravské Budějovice,67602,1. máje,118,49.05632719,15.808987194
4548471,PPL ParcelBox,538493,Mnichovice,25164,Ondřejovská,700,49.93171581,14.714414388
4561245,PPL ParcelBox,538493,Mnichovice,25164,Šibenička,808,49.93870031,14.721979694
4584204,PPL ParcelBox,567710,Modlany,41501,Drahkov,110,50.64150919,13.870419694
4720880,PPL ParcelBox,539490,Měchenice,25206,Hlavní,191,49.90803531,14.389529694
4494939,PPL ParcelBox,549576,Milevsko,39901,Písecké předm.,1393,49.44137139,14.363568305
4455599,PPL ParcelBox,549576,Milevsko,39901,Pod Stadionem,1391/3,49.44456,14.36622
4568012,PPL ParcelBox,537462,Mcely,28936,Mcely,27,50.29599889,15.075274388
4561236,PPL ParcelBox,540471,Mohelnice,78985,nám. Tyrše a Fügnera,194/1,49.77628469,16.923215611
4505156,PPL ParcelBox,540471,Mohelnice,78985,Olomoucká,333/50,49.77288439,16.918184194
4542667,PPL ParcelBox,540471,Mohelnice,78985,Pionýrů,1151/3,49.78042719,16.922293111000002
4561226,PPL ParcelBox,540471,Mohelnice,78985,Sadová,,49.77889361,15.915186888
4268138,PPL ParcelBox,537501,Milovice,28924,Armádní,792,50.22916669,14.8571775
4495323,PPL ParcelBox,537501,Milovice,28924,Italská,705,50.2271425,14.879244694
4266990,PPL ParcelBox,594482,Moravský Krumlov,67201,Tiskárenská,1275,49.03785111,16.308230611
4494314,PPL ParcelBox,540781,Mokrovraty,26203,Mokrovraty,138,49.79620311,14.248233111
4308174,PPL ParcelBox,535419,Mladá Boleslav,29301,Dukelská,222/17,50.41360639,14.911213111
4560587,PPL ParcelBox,535419,Mladá Boleslav,29301,Havlíčkova,1444,50.43380919,14.917456888
4560185,PPL ParcelBox,535419,Mladá Boleslav,29301,Havlíčkova,887,50.42509719,14.910223111
4437565,PPL ParcelBox,535419,Mladá Boleslav,29301,J. Palacha,1026,50.42787969,14.918250305
4434833,PPL ParcelBox,535419,Mladá Boleslav,29301,Jičínská,1329,50.41140919,14.932420611
4560184,PPL ParcelBox,535419,Mladá Boleslav,29301,Jičínská,1025,50.41020611,14.9256675
4490371,PPL ParcelBox,535419,Mladá Boleslav,29301,Jičínská,1486,50.41170631,14.93408525
4297351,PPL ParcelBox,535419,Mladá Boleslav,29301,Mládežnická,,50.43253919,14.921790805
4308175,PPL ParcelBox,535419,Mladá Boleslav,29301,Na Radouči,1120,50.43129,14.90631
4492419,PPL ParcelBox,535419,Mladá Boleslav,29301,Nádražní,311,50.40506281,14.893369694
4500931,PPL ParcelBox,562751,Mikulášovice,40779,Mikulášovice,1007,50.96591061,14.361754194
4568014,PPL ParcelBox,534676,Mělník,27601,Českolipská,3332,50.36158439,14.468148305
4571458,PPL ParcelBox,534676,Mělník,27601,Mladoboleslavsk,2824,50.34331939,14.500928111
4364658,PPL ParcelBox,534676,Mělník,27601,Mladoboleslavská,3339,50.34910719,14.489499194
4335703,PPL ParcelBox,534676,Mělník,27601,Pražská,4296,50.3421825,14.489886888
4297467,PPL ParcelBox,534676,Mělník,27601,Vodárenská,219,50.35225561,14.480146111
4472506,PPL ParcelBox,534676,Mělník,27601,Vodárenská,3653,50.35419031,14.483956305
4487806,PPL ParcelBox,561835,Mimoň,47124,Českolipská,,50.66115219,14.722375805
4570555,PPL ParcelBox,561835,Mimoň,47124,Sídl. pod Ralskem,580,50.65559611,14.73271
4300162,PPL ParcelBox,536326,Mnichovo Hradiště,29501,Jiráskova,600,50.52008331,14.982726888
4403296,PPL ParcelBox,536326,Mnichovo Hradiště,29501,Studentská,1443,50.5229775,14.97206
4393389,PPL ParcelBox,554642,Mariánské Lázně,35301,Chebská,185/23,49.96371361,12.695298111
4392907,PPL ParcelBox,554642,Mariánské Lázně,35301,Tepelská,137/3,49.94933919,12.713288111
4569905,PPL ParcelBox,583383,Měnín,66457,Měnín,364,49.08654939,16.6984825
4556332,PPL ParcelBox,549584,Mirotice,39801,Školní,278/5,49.42792861,14.034991694
4262965,PPL ParcelBox,583413,Moravany,66448,Hlavní,280/22,49.14742831,16.578868305
4565039,PPL ParcelBox,566454,Měcholupy,43931,Měcholupy,71,50.266195,13.537832805
4575632,PPL ParcelBox,540765,Mníšek pod Brdy,25210,5.května,557,49.87128061,14.261955611
4567754,PPL ParcelBox,540765,Mníšek pod Brdy,25210,Pražská,1594,49.87009419,14.270488111
4506126,PPL ParcelBox,586404,Moravský Písek,69685,Sportovní,244,48.98965861,17.330241888
4532050,PPL ParcelBox,579513,Malé Svatoňovice,54234,Nádražní,105,50.53133361,16.048448111
4571824,PPL ParcelBox,567027,Most,43401,Albrechtická,1075/26,50.48937361,13.645614194
4570791,PPL ParcelBox,567027,Most,43401,tř. Budovatelů,1874/15,50.49937561,13.638565305
4488785,PPL ParcelBox,567027,Most,43401,Jana Opletala,1684/28,50.51461139,13.630381388
4299728,PPL ParcelBox,567027,Most,43401,K.J.Erbena,,50.50073611,13.661881388
4311149,PPL ParcelBox,567027,Most,43401,Mostecká,3,50.48874969,13.671854194
4575667,PPL ParcelBox,567027,Most,43401,Táboritů,1653,50.51101939,13.637525805
4278806,PPL ParcelBox,567027,Most,43401,Tyršova,3460,50.49886139,13.631819694
4326170,PPL ParcelBox,567027,Most,43401,V. Nejedlého,1186,50.4980325,13.639023111
4339514,PPL ParcelBox,567027,Most,43401,Velebudická,3303/1a,50.49088861,13.653380805
4538021,PPL ParcelBox,567027,Most,43401,Velebudická,3270,50.48594969,13.655509194
4484042,PPL ParcelBox,567027,Most,43401,Višňová,1011,50.49585739,13.656598805
4567756,PPL ParcelBox,578380,Městečko Trnávka,56941,Městečko Trnávka,62,49.70860581,16.726446388
4549673,PPL ParcelBox,578444,Moravská Třebová,57101,Jiráskova,1352/110,49.76020919,16.650166888
4559806,PPL ParcelBox,535036,Malý Újezd,27731,Malý Újezd,95,50.33161969,14.534085
4569198,PPL ParcelBox,598453,Mosty u Jablunkova,73998,Mosty u Jablunkova,800,49.52571169,18.752710805
4276026,PPL ParcelBox,538523,Mukařov,25162,Do Chobotu,117,49.98257139,14.739145305
4364652,PPL ParcelBox,538523,Mukařov,25162,Kutnohorská,406,49.98874531,14.751433111
4492773,PPL ParcelBox,538523,Mukařov,25162,Pražská,230,49.98972969,14.741885805
4392881,PPL ParcelBox,584649,Mikulov,69201,28.října,985/14,48.80351111,16.62736
4360860,PPL ParcelBox,573868,Náchod,54701,Běloveská,944,50.41750861,16.177498111
4482535,PPL ParcelBox,573868,Náchod,54701,Růžová,278,50.40525531,16.162446694
4486226,PPL ParcelBox,559300,Nýřany,33023,Revoluční,924,49.71204361,13.196841111
4423022,PPL ParcelBox,559300,Nýřany,33023,Stará čtvrť,178,49.71546219,13.214614388
4556347,PPL ParcelBox,530212,Načeradec,25708,Roubíčkov,340,49.61241561,14.90788
4567764,PPL ParcelBox,596175,Nedvědice,59262,Nedvědice,391,49.45469689,16.332302194
4568220,PPL ParcelBox,592412,Nedakonice,68738,Nedakonice,400,49.03285581,17.382158611
4571823,PPL ParcelBox,578576,Polička,57201,P. Jilemnického,398,49.71882639,16.260453111
4573894,PPL ParcelBox,539911,Příbram,26101,Brodská,654,49.66583611,13.996475
4678329,PPL ParcelBox,539627,Roztoky,25263,Čapkova,887,50.16562669,14.3892325
4570270,PPL ParcelBox,550922,Čejetice,38601,Čejetice,157,49.25312889,14.020163111
4561201,PPL ParcelBox,547778,Červená Řečice,39446,Červená Řečice,91,49.51097561,15.177627194
4587765,PPL ParcelBox,557668,Dnešice,33443,Dnešice,,49.60483111,13.263991388
4561022,PPL ParcelBox,554502,Dolní Žandov,35493,Dolní Žandov,291,50.01873581,12.550602805
4673163,PPL ParcelBox,599191,Nový Jičín,74101,Gen. Hlaďo,1849/25,49.59360361,18.012710305
4575403,PPL ParcelBox,554545,Hazlov,35132,Hazlov,447,50.15671311,12.276762805
4569453,PPL ParcelBox,599409,Hodslavice,74271,Hodslavice,22,49.53711811,18.023400611
4569883,PPL ParcelBox,565555,Roudnice nad Labem,41301,Hornická,1570,50.42604781,14.243114694
4570805,PPL ParcelBox,556301,Hrádek,34201,Hrádek,18,49.26051669,13.501098611
4587728,PPL ParcelBox,546861,Dobroměřice,44001,Husova,2642,50.3596725,13.819978111
4627526,PPL ParcelBox,534951,Kralupy nad Vltavou,27801,Chmelova,1173,50.24104311,14.309234694
4626952,PPL ParcelBox,539325,Jesenice,25242,Jabloňová,1142,49.97034639,14.507274388
4567774,PPL ParcelBox,563382,Údlice,43141,Jiráskova,297,50.44110639,13.457876888
4626956,PPL ParcelBox,554782,Praha,19300,Pavlišovská,2294-10-01 00:00:00,50.11041969,14.621831694
4574898,PPL ParcelBox,534498,Uhlířské Janovice,28504,Kolínská,903/903,49.88880831,15.069111694
4567289,PPL ParcelBox,554821,Ostrava,71300,Koněvova,280/103,49.85931111,18.328657194
4626666,PPL ParcelBox,555771,Klatovy,33901,Kryštofa Haranta,518,49.39445311,13.278752805
4570804,PPL ParcelBox,554791,Plzeň,30100,K Zelené Louce,30,49.71115919,13.3247275
4567306,PPL ParcelBox,547760,Černovice,39494,Lhotkova,683,49.37488061,14.967107194
4679612,PPL ParcelBox,537004,Nymburk,28802,M. Koněva,939/33,50.19066311,15.049843611
4627336,PPL ParcelBox,590266,Třebíč,67401,M. Majerové,751/6,49.22188969,15.884138611
4570271,PPL ParcelBox,551660,Radomyšl,38731,Maltézské nám.,232/232,49.31677111,13.929781388
4675586,PPL ParcelBox,554782,Praha,14900,Mendelova,,50.03196281,14.533356388
4561019,PPL ParcelBox,560383,Chodov,35735,Čapkova,787,50.24446919,12.745938888
4587734,PPL ParcelBox,563099,Jirkov,43111,Mládežnická,1596,50.50063781,13.430845611
4678599,PPL ParcelBox,538132,Čelákovice,25088,Mochovská,1750,50.15754311,14.766532805
4675609,PPL ParcelBox,553981,Mrákov,34501,Mrákov,106,49.40384031,12.953138111
4567319,PPL ParcelBox,560740,Bezdružice,34953,Na Sídlišti,263,49.90555531,12.974260305
4677769,PPL ParcelBox,554782,Praha,10200,Nákupní,389,50.07182,14.541115
4587726,PPL ParcelBox,567256,Litvínov,43601,nám. Míru,338,50.59854811,13.6125375
4587742,PPL ParcelBox,567787,Proboštov,41712,Nám. Svobody,,50.66748031,13.834109694
4677752,PPL ParcelBox,593508,Pustiměř,68321,Nová,,49.32016919,17.025285611
4567772,PPL ParcelBox,598542,Ostravice,73914,Ostravice,62,49.53945439,18.391981111
4674644,PPL ParcelBox,507016,Hlučín,74801,Ostravská,105,49.89627581,18.193224694
4569872,PPL ParcelBox,582441,Svitávka,67932,Palackého,448,49.50025419,16.598546111
4678328,PPL ParcelBox,554138,Postřekov,34535,Postřekov,179,49.45879781,12.806349694
4570537,PPL ParcelBox,537489,Městec Králové,28903,Pražská,212,50.200135,15.295105611
4575628,PPL ParcelBox,530883,Vlašim,25801,Průmyslová,,49.69888311,14.905448111
4566979,PPL ParcelBox,598003,Frýdek-Místek,73801,Příborská,2270,49.67233781,18.330375611
4722298,PPL ParcelBox,599191,Nový Jičín,74101,Riegrova,74101,49.596765,18.0194275
4570796,PPL ParcelBox,583782,Rosice,66501,Zastávecká,1030,49.18444831,16.370975805
4583231,PPL ParcelBox,568201,Řehlovice,40002,Dubice,65,50.59120611,14.020873111
4572676,PPL ParcelBox,554961,Karlovy Vary,36010,Sedlecká,758/7,50.23697639,12.864698888
4570808,PPL ParcelBox,539317,Jeneč,25261,Sportovní,311,50.08979469,14.213069694
4569442,PPL ParcelBox,505927,Opava,74705,Sportovní,3,49.93662111,17.9474275
4677298,PPL ParcelBox,539236,Horoměřice,25262,Suchdolská,1104,50.14208719,14.341634694
4567315,PPL ParcelBox,560863,Halže,34701,U Parku,210,49.82998831,12.578292194
4674980,PPL ParcelBox,554782,Praha,10600,V Korytech,157,50.05611081,14.493020805
4627523,PPL ParcelBox,590266,Třebíč,67401,V. Nezvala,88/18,49.21524811,15.875413611
4679250,PPL ParcelBox,565849,Velemín,41131,Velemín,2,50.54179419,13.976981888
4570548,PPL ParcelBox,554821,Ostrava,70030,Věšínova,892/4,49.80282189,18.253888111
4679692,PPL ParcelBox,545210,Vigantice,75661,Vigantice,196,49.44055219,18.193746888
4566977,PPL ParcelBox,507016,Hlučín,74801,Vinohradská,1302/41,49.88926939,18.189331111
4587727,PPL ParcelBox,567868,Zabrušany,41771,Zabrušany,82,50.6056225,13.7849925
4570268,PPL ParcelBox,586820,Žeravice,69647,Žeravice,40,49.02345889,17.236988611
4336748,PPL ParcelBox,538540,Nehvizdy,25081,Okružní,808,50.12737611,14.710338305
4548303,PPL ParcelBox,592439,Nivnice,68751,Sadová,1050/1050,48.97720219,17.647951388
4568217,PPL ParcelBox,585513,Napajedla,76361,Na Kapli,1558,49.17289281,17.511854194
4455109,PPL ParcelBox,585513,Napajedla,76361,Na Malině,1380,49.16447361,17.5180125
4569191,PPL ParcelBox,599191,Nový Jičín,74101,Bohuslava Martinů,1885/2,49.59141939,17.99582
4538547,PPL ParcelBox,599191,Nový Jičín,74101,Máchova,28,49.593125,18.014958888
4572670,PPL ParcelBox,599191,Nový Jičín,74101,Masarykovo nám.,2025-07-07 00:00:00,49.59474639,18.009758888
4590245,PPL ParcelBox,599191,Nový Jičín,74101,Purkyňova,1529/3,49.58878439,18.006349388
4569189,PPL ParcelBox,599191,Nový Jičín,74101,Vančurova,702/38,49.59706311,18.003354694
4549808,PPL ParcelBox,550442,Netolice,38411,Obecní,75,49.05015219,14.196613888
4542824,PPL ParcelBox,596230,Nové Město na Moravě,59231,Nádražní,,49.56829831,16.080861388
4331766,PPL ParcelBox,574279,Nové Město nad Metují,54901,Dukelská,662,50.35374831,16.1543275
4544655,PPL ParcelBox,574279,Nové Město nad Metují,54901,Malecí,578,50.35671969,16.147114194
4552878,PPL ParcelBox,574279,Nové Město nad Metují,54901,Pod Lipami,220,50.35072811,16.1318075
4496323,PPL ParcelBox,540501,Nový Malín,78803,Nový Malín,429,49.9461825,17.013261888
4548313,PPL ParcelBox,564265,Nové Město pod Smrkem,46365,Švermova,953,50.92568861,15.228398611
4425533,PPL ParcelBox,591211,Náměšť nad Oslavou,67571,Třebíčská,973,49.20729639,16.151802194
4567778,PPL ParcelBox,533530,Nová Ves I,28002,Václavské nám.,22,50.04700219,15.159355305
4328615,PPL ParcelBox,573248,Nová Paka,50901,Husitská,1922,50.48694419,15.512405611
4567329,PPL ParcelBox,558109,Nepomuk,33503,U Trati,282,49.49807139,13.608235805
4504125,PPL ParcelBox,555398,Nová Role,36225,Chodovská,241,50.27026189,12.783173305
4571454,PPL ParcelBox,556831,Nýrsko,34022,Havlíčkova,290,49.28961719,13.135948305
4424579,PPL ParcelBox,556831,Nýrsko,34022,Klatovská,662,49.29381831,13.145111694
4504135,PPL ParcelBox,560570,Nové Sedlo,35734,Revoluční,158,50.21206361,12.743676388
4568780,PPL ParcelBox,542164,Nové Strašecí,27101,1. máje,816,50.14861889,13.899979694
4306258,PPL ParcelBox,542164,Nové Strašecí,27101,Nové Strašecí,1170,50.15723111,13.894718611
4567765,PPL ParcelBox,584720,Nosislav,69164,Městečko,478,49.01132331,16.654544194
4588507,PPL ParcelBox,535087,Neratovice,27711,Mládežnická,422,50.25902169,14.518080805
4561009,PPL ParcelBox,535087,Neratovice,27711,Na Výsluní,1368,50.25290639,14.511786888
4718927,PPL ParcelBox,546801,Nová Včelnice,37842,Čechova,479,49.23956081,15.068470805
4556349,PPL ParcelBox,530298,Netvořice,25744,Muzejní,46,49.81570389,14.519385305
4561210,PPL ParcelBox,530298,Netvořice,25744,Pražská,307,49.81902811,14.510490611
4553976,PPL ParcelBox,540889,Nová Ves pod Pleší,26204,Tyršova,123,49.82838719,14.273276888
4573913,PPL ParcelBox,530310,Neveklov,25756,Pražská,310,49.75604439,14.529363111
4470923,PPL ParcelBox,537004,Nymburk,28802,Dopravní,1717,50.177245,15.045924694
4297458,PPL ParcelBox,537004,Nymburk,28802,Mládežnická,2086,50.18489031,15.030823111
4275769,PPL ParcelBox,537004,Nymburk,28802,Sadová,2167,50.19119531,15.029905805
4560167,PPL ParcelBox,537004,Nymburk,28802,Za Žoskou,1040,50.20226081,15.042701111
4560198,PPL ParcelBox,558141,Nezvěstice,33204,Nezvěstice,33,49.63981531,13.520612805
4581707,PPL ParcelBox,583600,Ostrovačice,66481,Veveří,210,49.21599111,16.409138305
4561008,PPL ParcelBox,570532,Osice,50326,Osice,36,50.14596939,15.681041388
4504121,PPL ParcelBox,533572,Ovčáry,28002,Ovčáry,304,50.0640325,15.22833
4560884,PPL ParcelBox,599701,Odry,74235,tř. Osvobození,99/15A,49.66777581,17.833963111
4491794,PPL ParcelBox,539503,Ohrobec,25245,Károvská,128,49.94359561,14.431996388
4561237,PPL ParcelBox,540544,Oskava,78801,Oskava,14,49.89196061,17.1357375
4532030,PPL ParcelBox,585599,Otrokovice,76502,Hlavní,1157,49.20295139,17.539801388
4571035,PPL ParcelBox,585599,Otrokovice,76502,J. Žižky,1942,49.21051,17.534181888
4506124,PPL ParcelBox,585599,Otrokovice,76502,Ml. stavbařů,1811,49.22357561,17.511954194
4495329,PPL ParcelBox,585599,Otrokovice,76502,Napajedelská,1809,49.19891061,17.536204194
4456226,PPL ParcelBox,585599,Otrokovice,76502,tř. Tomáše Bati,1619,49.21740781,17.516075611
4566301,PPL ParcelBox,599069,Orlová,73514,Ke Studánce,1341,49.869685,18.419506388
4455112,PPL ParcelBox,599069,Orlová,73514,Masarykova tř.,795,49.87090439,18.425684694
4573141,PPL ParcelBox,599069,Orlová,73514,Okružní,1440,49.87871281,18.432886888
4402272,PPL ParcelBox,599069,Orlová,73511,Petřvaldská,953,49.83719611,18.4172575
4575427,PPL ParcelBox,599069,Orlová,73514,Školní,861,49.874145,18.432286388
4568229,PPL ParcelBox,599069,Orlová,73514,Žofinská,511,49.85019111,18.419155805
4473169,PPL ParcelBox,500496,Olomouc,77900,Brněnská,492/45A,49.57849311,17.239547805
4586296,PPL ParcelBox,500496,Olomouc,77900,Čajkovského,591/17,49.57697,17.233503305
4563871,PPL ParcelBox,500496,Olomouc,77900,Dlouhá,524/28,49.60126469,17.25738
4326270,PPL ParcelBox,500496,Olomouc,77900,Dolní hejčínská,30,49.60185611,17.243555
4584764,PPL ParcelBox,500496,Olomouc,77900,Holečkova,193/10,49.57953719,17.248945
4696336,PPL ParcelBox,500496,Olomouc,77900,Chválkovická-Epava,,49.60715219,17.282016388
4563852,PPL ParcelBox,500496,Olomouc,77900,Kavaléristů,10,49.59311919,17.270069194
4505154,PPL ParcelBox,500496,Olomouc,77900,Lazecká,49/33,49.60263169,17.25155
4588301,PPL ParcelBox,500496,Olomouc,77900,Na Tabulovém vrchu,4,49.5836325,17.226066888
4311174,PPL ParcelBox,500496,Olomouc,77900,Náves Svobody,651/42A,49.57143669,17.294638611
4330857,PPL ParcelBox,500496,Olomouc,77900,Nedvědova,389,49.58125639,17.2474275
4591669,PPL ParcelBox,500496,Olomouc,77900,Střední novosadská,767/4,49.5764875,17.256446388
4453584,PPL ParcelBox,505609,Velká Bystřice,78353,Olomoucká,791,49.59138881,17.3380555
4323897,PPL ParcelBox,500496,Olomouc,77900,Pasteurova,905/10,49.59899189,17.272026111
4339803,PPL ParcelBox,500496,Olomouc,77900,Pražská,255/41,49.60249331,17.219873111
4305275,PPL ParcelBox,500496,Olomouc,77900,Rooseveltova,52,49.58068189,17.256230305
4505380,PPL ParcelBox,500496,Olomouc,77900,Sladkovského,,49.5882775,17.284620305
4561214,PPL ParcelBox,500496,Olomouc,77900,Sokolovská,80/4,49.60020939,17.267105
4307280,PPL ParcelBox,500496,Olomouc,77900,Třída Jiřího Pelikána,1399/2,49.59735611,17.235286694
4568006,PPL ParcelBox,530344,Olbramovice,25901,Olbramovice,50,49.67336939,14.639179388
4556328,PPL ParcelBox,540935,Obecnice,26221,Obecnice,159,49.71636939,13.949352194
4552561,PPL ParcelBox,575429,Opatovice nad Labem,53345,Hradecká,497/497,50.15107639,15.794928611
4569464,PPL ParcelBox,555428,Ostrov,36301,Obchodní,1446,50.3123425,12.941108888
4566959,PPL ParcelBox,583588,Oslavany,66412,Nádražní 664,12,49.11807639,16.34709
4543002,PPL ParcelBox,583588,Oslavany,66412,Starohorská,66412,49.12056439,16.3363025
4573404,PPL ParcelBox,516201,Opatovice,75356,Hlavní,12,49.49995219,17.738410305
4356361,PPL ParcelBox,505927,Opava,74705,U Cukrovaru,1454/13,49.94924389,17.903506888
4540514,PPL ParcelBox,576590,Opočno,51773,Jana Pitry,775/775,50.27236311,16.113187194
4493818,PPL ParcelBox,505927,Opava,74706,Bílovecká,62,49.9230725,17.912414194
4493819,PPL ParcelBox,505927,Opava,74706,Bílovecká,99,49.91929581,17.911521694
4542989,PPL ParcelBox,505927,Opava,74707,Krnovská,566/165,49.95393611,17.868198888
4560170,PPL ParcelBox,505927,Opava,74601,Lepařova,2906-08-01 00:00:00,49.94044581,17.894529388
4568615,PPL ParcelBox,505927,Opava,74601,Otická,2469,49.93029689,17.890323305
4582894,PPL ParcelBox,505927,Opava,74705,Ratibořská,45/1475,49.94161419,17.910534194
4582891,PPL ParcelBox,505927,Opava,74705,Rolnická,21a,49.94635219,17.908263611
4568632,PPL ParcelBox,505927,Opava,74706,Ruská,,49.92021139,17.917718305
4561202,PPL ParcelBox,505927,Opava,74601,Sadová,121/4,49.94313889,17.898094388
4358857,PPL ParcelBox,505927,Opava,74601,U Fortny,10,49.94091419,17.900501888
4574088,PPL ParcelBox,505927,Opava,74601,Vančurova,2946/26A,49.9414475,17.882337805
4493820,PPL ParcelBox,505927,Opava,74601,Zámecký okruh,2966/21,49.93800331,17.911511694
4568268,PPL ParcelBox,552801,Opařany,39161,Opařany,84,49.39709939,14.479814388
4504849,PPL ParcelBox,598542,Ostravice,73914,Ostravice,731,49.54934531,18.380145
4504047,PPL ParcelBox,567779,Osek,41705,Tyršova,683,50.62517389,13.6910125
4586549,PPL ParcelBox,554821,Ostrava,70200,28.října,1512/123,49.82971169,18.269704194
4455846,PPL ParcelBox,554821,Ostrava,70900,28.října,258/296,49.8261875,18.243398111
4506907,PPL ParcelBox,554821,Ostrava,70200,Ahepjukova,2859-08-01 00:00:00,49.8367275,18.263159388
4536732,PPL ParcelBox,554821,Ostrava,71600,Čapkova,434/38,49.81721361,18.340618111
4546459,PPL ParcelBox,554821,Ostrava,70800,Čkalovova,6144/18a,49.82970689,18.176245611
4339382,PPL ParcelBox,554821,Ostrava,70030,Čujkovova,2709/42,49.79098969,18.23755
4547062,PPL ParcelBox,554821,Ostrava,70800,Gen. Sochora,1379/6,49.83399311,18.180904388
4455844,PPL ParcelBox,554821,Ostrava,70800,Hlavní tř.,1196,49.82637919,18.1796775
4492778,PPL ParcelBox,554821,Ostrava,70030,Horní,300/77,49.77533139,18.249563305
4301608,PPL ParcelBox,554821,Ostrava,70030,Horní,1457/59,49.78676889,18.257844388
4361815,PPL ParcelBox,554821,Ostrava,70030,Horní,1046,49.77467169,18.246464694
4301993,PPL ParcelBox,554821,Ostrava,70030,Horní,288/67,49.77926639,18.253242194
4402094,PPL ParcelBox,554821,Ostrava,70200,Hornopolní,3308,49.84104311,18.270893305
4506906,PPL ParcelBox,554821,Ostrava,70200,Hornopolní,2971/61,49.84157969,18.267052805
4504850,PPL ParcelBox,554821,Ostrava,70200,Hrušovská,2953/15,49.85156969,18.283484194
4419711,PPL ParcelBox,554821,Ostrava,70030,Hulvácká,2081-02-01 00:00:00,49.80865939,18.239515
4583974,PPL ParcelBox,554821,Ostrava,70200,Ibsenova,1167/31,49.84682719,18.265469694
4496332,PPL ParcelBox,554821,Ostrava,70030,Jugoslávská,3217/30,49.80429111,18.243511388
4424230,PPL ParcelBox,554821,Ostrava,70200,K Lávce,1141/1,49.85517831,18.274414694
4498886,PPL ParcelBox,554821,Ostrava,70800,K Myslivně,9,49.82545919,18.156756694
4569876,PPL ParcelBox,554821,Ostrava,72527,Karla Svobody,369/5a,49.86098,18.147171388
4455105,PPL ParcelBox,554821,Ostrava,70030,Kpt. Vajdy,3046-02-01 00:00:00,49.79162669,18.2464975
4532029,PPL ParcelBox,554821,Ostrava,71500,Lechova,,49.83424861,18.337628305
4569452,PPL ParcelBox,554821,Ostrava,70030,Lužická,590/2,49.77716361,18.220228888
4579551,PPL ParcelBox,554821,Ostrava,70800,Miroslava Bajera,6040-01-01 00:00:00,49.84457781,18.168188111
4395186,PPL ParcelBox,554821,Ostrava,70800,Martinovská,6186/15,49.83777969,18.188087805
4364912,PPL ParcelBox,554821,Ostrava,71000,Michálkovická,2169/88,49.84243219,18.306059194
4338895,PPL ParcelBox,554821,Ostrava,72000,Místecká,755/280,49.77574919,18.268819694
4304399,PPL ParcelBox,554821,Ostrava,70030,Mjr. Nováka,1490/14,49.7845975,18.2679625
4456957,PPL ParcelBox,554821,Ostrava,70800,Nábř. Svazu Protifaš. bojovníků,457/30,49.82468639,18.167116388
4263963,PPL ParcelBox,554821,Ostrava,70800,Nad Porubkou,2400,49.81875719,18.184703305
4538054,PPL ParcelBox,554821,Ostrava,70800,nám.V.Vacka,,49.84430311,18.169670805
4542840,PPL ParcelBox,554821,Ostrava,70200,Novoveská,,49.8373375,18.257316888
4362556,PPL ParcelBox,554821,Ostrava,70800,Oty Synka,33,49.84713561,18.159066388
4419713,PPL ParcelBox,554821,Ostrava,70030,Patrice Lumumby,2471-07-01 00:00:00,49.78649331,18.233858611
4579196,PPL ParcelBox,554821,Ostrava,70800,Pavlouskova,24,49.83881439,18.163370611
4336750,PPL ParcelBox,554821,Ostrava,70200,Petra Křičky,2863,49.8281225,18.2745075
4579766,PPL ParcelBox,554821,Ostrava,70030,Plavecká,1636,49.78989889,18.266090805
4304401,PPL ParcelBox,554821,Ostrava,72400,Plzeňská,221/333,49.78286781,18.246478111
4491783,PPL ParcelBox,554821,Ostrava,70200,Poděbradova,3209/58,49.83991061,18.281515
4334614,PPL ParcelBox,554821,Ostrava,70200,Poděbradova,836/42,49.83709331,18.283279694
4573147,PPL ParcelBox,554821,Ostrava,72100,Polanecká,3,49.81424561,18.197351888
4574085,PPL ParcelBox,554821,Ostrava,72400,Proskovická,1169/215,49.76241561,18.204700611
4571835,PPL ParcelBox,554821,Ostrava,72528,Prudká,419/13,49.845765,18.211495305
4476677,PPL ParcelBox,554821,Ostrava,70030,Předškolní,715/8,49.78128919,18.222357805
4584521,PPL ParcelBox,554821,Ostrava,70300,Ruská,1230/121,49.80729031,18.250180305
4435204,PPL ParcelBox,554821,Ostrava,70300,Ruská,2887/101,49.80778361,18.251771111
4395713,PPL ParcelBox,554821,Ostrava,72100,Sjízdná,1157/1,49.82614689,18.198848111
4328206,PPL ParcelBox,554821,Ostrava,70200,Sokolská tř.,2590,49.84494561,18.289531111
4507180,PPL ParcelBox,554821,Ostrava,72527,Spojovací,396,49.848585,18.145306111
4304400,PPL ParcelBox,554821,Ostrava,70900,Strmá,2041,49.83426919,18.252723888
4419710,PPL ParcelBox,554821,Ostrava,70800,Studentská,1770/1,49.8370875,18.157411388
4566306,PPL ParcelBox,554821,Ostrava,71800,Škrobálkova,235/56,49.80611889,18.303898888
4336751,PPL ParcelBox,554821,Ostrava,71200,Švédská,749/47,49.85133831,18.302883611
4301991,PPL ParcelBox,554821,Ostrava,70030,Tlapákova,1386/7,49.78308169,18.2599875
4536723,PPL ParcelBox,554821,Ostrava,70030,U Hrůbků,154,49.80772689,18.231566388
4566287,PPL ParcelBox,554821,Ostrava,70300,U Nádraží,1155/25,49.80101831,18.264336694
4305871,PPL ParcelBox,554821,Ostrava,70200,U Stadiónu,1,49.83428919,18.263816
4455107,PPL ParcelBox,554821,Ostrava,70030,U Studia,67/29,49.80086419,18.235209694
4301992,PPL ParcelBox,554821,Ostrava,70030,Václava Jiříkovského,228/11,49.77397861,18.253068888
4571041,PPL ParcelBox,554821,Ostrava,71200,Vančurova,968/9,49.85840081,18.2911875
4361818,PPL ParcelBox,554821,Ostrava,70200,Varenská,,49.83462111,18.271617194
4542815,PPL ParcelBox,554821,Ostrava,70200,Vítkovická,3083-01-01 00:00:00,49.83092331,18.280469194
4301605,PPL ParcelBox,554821,Ostrava,70030,Výškovická,2614/124,49.78883219,18.224863888
4536716,PPL ParcelBox,554821,Ostrava,70030,Výškovická,3123/46,49.79894689,18.230196694
4328205,PPL ParcelBox,554821,Ostrava,71700,Za Ještěrkou,629/1,49.79709469,18.358622805
4301607,PPL ParcelBox,554821,Ostrava,70030,Závodní,1612/43A,49.79416,18.265447805
4569188,PPL ParcelBox,509612,Otice,74781,Hlavní,54,49.91689469,17.869204194
4394177,PPL ParcelBox,555428,Ostrov,36301,Jáchymovská,1460,50.31465081,12.947009194
4476848,PPL ParcelBox,555428,Ostrov,36301,Krušnohorská,1145,50.30413389,12.946174694
4563862,PPL ParcelBox,589829,Olšany u Prostějova,79814,Olšany u Prostějova,411,49.53702219,17.1619675
4545727,PPL ParcelBox,563277,Otvice,43111,Obchodní zóna,253,50.48530389,13.441459694
4353319,PPL ParcelBox,550094,Prachatice,38301,Husinecká,1190,49.01799189,13.999908305
4568007,PPL ParcelBox,544698,Prostřední Bečva,75656,Prostřední Bečva,430,49.43533219,18.253415
4556330,PPL ParcelBox,539911,Příbram,26101,Balbínova,713,49.68659811,14.021582805
4575239,PPL ParcelBox,539911,Příbram,26101,Československé armády,142,49.68689439,14.005341888
4271647,PPL ParcelBox,539911,Příbram,26101,Evropská,329,49.69593561,14.011923111
4566971,PPL ParcelBox,539911,Příbram,26101,Jinecká,319,49.69705111,14.017739194
4391487,PPL ParcelBox,539911,Příbram,26101,Milínská,134,49.68637939,14.008849388
4591089,PPL ParcelBox,539911,Příbram,26101,Rožmitálská,6,49.67541111,13.980724388
4568235,PPL ParcelBox,599808,Příbor,74258,Dvořákova,697,49.63068531,18.139641694
4491782,PPL ParcelBox,599808,Příbor,74258,Místecká,1124,49.64157719,18.151055611
4536560,PPL ParcelBox,599808,Příbor,74258,Štramberská,1361,49.63517581,18.140115305
4556356,PPL ParcelBox,569321,Přibyslav,58222,Příkopy,318,49.576357,15.74162
4533248,PPL ParcelBox,555134,Pardubice,53352,Hradecká,545,50.06230139,15.775101111
4390841,PPL ParcelBox,555134,Pardubice,53003,Husova,87,50.04060061,15.785671694
4453014,PPL ParcelBox,555134,Pardubice,53009,Jiřího Potůčka,290,50.05160719,15.754184694
4482532,PPL ParcelBox,555134,Pardubice,53002,Kpt. Bartoše,2777,50.03660667,15.753085638
4331765,PPL ParcelBox,555134,Pardubice,53012,Lidmily Malé,656,50.04138361,15.806599388
4677750,PPL ParcelBox,555134,Pardubice,53002,Na Spravedlnosti,2106,50.02920169,15.777261694
4456951,PPL ParcelBox,555134,Pardubice,53002,Palackého tř.,2020,50.03387311,15.760000611
4548476,PPL ParcelBox,555134,Pardubice,53009,Poděbradská,295,50.05686639,15.763800305
4310463,PPL ParcelBox,555134,Pardubice,53006,Pražská,199,50.02132811,15.730035805
4295353,PPL ParcelBox,555134,Pardubice,53002,S. K. Neumanna,2930,50.02265111,15.780990305
4471966,PPL ParcelBox,555134,Pardubice,53009,U Josefa,119,50.05010061,15.770376694
4352592,PPL ParcelBox,555134,Pardubice,53002,Nábř. Závodu Míru,2712,50.03880781,15.766153111
4564249,PPL ParcelBox,548511,Pacov,39501,Nádražní,390,49.46793639,15.006283611
4556206,PPL ParcelBox,548561,Počátky,39464,Lipárky,528,49.26037389,15.235740805
4558670,PPL ParcelBox,564486,Podlesí,26101,Podlesí,328,49.68548,13.982834194
4570564,PPL ParcelBox,574350,Provodov-Šonov,54908,Šonov,,50.37959419,16.117366888
4563859,PPL ParcelBox,589942,Ptení,79843,Ptení,27,49.51040331,16.9620075
4539955,PPL ParcelBox,563285,Perštejn,43163,Hlavní,49,50.3813675,13.109698611
4570807,PPL ParcelBox,540773,Postřelmov,78969,Komenského,98,49.90853719,16.913474694
4298901,PPL ParcelBox,537641,Pečky,28911,Tř. 5. května,708,50.08480719,15.026318888
4561013,PPL ParcelBox,537641,Pečky,28911,V Kaštánkách,1141,50.09196169,15.0303125
4395737,PPL ParcelBox,547492,Pelhřimov,39301,Družstevní,1236,49.42645531,15.215371694
4395738,PPL ParcelBox,547492,Pelhřimov,39301,Pražská,1200,49.43551169,15.215001111
4591104,PPL ParcelBox,547492,Pelhřimov,39301,Průběžná,2483,49.43019861,15.22681
4559809,PPL ParcelBox,532720,Pchery,27308,5.května,343,50.18808081,14.110781388
4493507,PPL ParcelBox,598551,Palkovice,73941,Palkovice,328,49.63530689,18.315734194
4430311,PPL ParcelBox,549746,Předklášteří,66602,Komenského,1067,49.35273281,16.402521111
4584771,PPL ParcelBox,537811,Sokoleč,29001,Poděbradská,4,50.13121169,15.082163611
4361804,PPL ParcelBox,578576,Polička,57201,Hegerova,1207/1207,49.71799381,16.283480611
4404409,PPL ParcelBox,578576,Polička,57201,Starohradská,359,49.71445611,16.260343305
4533999,PPL ParcelBox,549401,Pozlovice,76326,Řetechovská,521/1,49.13018281,17.768682805
4559813,PPL ParcelBox,536440,Písková Lhota,29431,Písková Lhota,103,50.36707219,14.878094388
4627527,PPL ParcelBox,554740,Plesná,35135,5.května,,50.21633361,12.351486888
4541694,PPL ParcelBox,566624,Postoloprty,43942,Jiráskovo nám.,655,50.36199969,13.697980305
4304388,PPL ParcelBox,554791,Plzeň,32300,Alej Svobody,770/23,49.76783061,13.364106388
4272161,PPL ParcelBox,554791,Plzeň,30100,Americká,2186/47,49.74450939,13.384624388
4545536,PPL ParcelBox,554791,Plzeň,30100,Borská,1045/40,49.73421219,13.348406111
4340458,PPL ParcelBox,554791,Plzeň,32300,Brněnská,987/31,49.76193389,13.355106694
4561234,PPL ParcelBox,554791,Plzeň,31800,Domažlická,38/216,49.72839081,13.310821111
4269954,PPL ParcelBox,554791,Plzeň,30100,Folmavská,3035,49.73097219,13.350068888
4472940,PPL ParcelBox,554791,Plzeň,31800,Gerská,1247/34,49.77911219,13.370259388
4570821,PPL ParcelBox,554791,Plzeň,32600,Guldenerova,512/2,49.74305169,13.390656388
4568638,PPL ParcelBox,554791,Plzeň,31200,Habrmannovo nám.,794/5,49.75680139,13.419033111
4331770,PPL ParcelBox,554791,Plzeň,32300,Kaznějovská,323/00,49.78016281,13.375835
4304389,PPL ParcelBox,554791,Plzeň,32300,Kaznějovská,1516/6,49.77583531,13.373925805
4455597,PPL ParcelBox,554791,Plzeň,32600,Květná,2736/61,49.72658389,13.390376888
4331773,PPL ParcelBox,554791,Plzeň,32300,Lidická,854/35,49.76738919,13.373061388
4548319,PPL ParcelBox,554791,Plzeň,31800,Macháčkova,944/26,49.74533611,13.32744
4337402,PPL ParcelBox,554791,Plzeň,30100,Majerova,2525-07-01 00:00:00,49.72783311,13.373853305
4495334,PPL ParcelBox,554791,Plzeň,31200,Na Dlouhých,51,49.74932919,13.418010611
4561238,PPL ParcelBox,554791,Plzeň,31800,Nade Mží,735/2,49.74614639,13.350388111
4455598,PPL ParcelBox,554791,Plzeň,32600,Nepomucká,122/10,49.72089781,13.402541388
4358168,PPL ParcelBox,554791,Plzeň,32600,Nepomucká,151,49.71105311,13.412833305
4338509,PPL ParcelBox,554791,Plzeň,30100,Obchodní,,49.72990031,13.321500805
4678593,PPL ParcelBox,554791,Plzeň,31200,Rodinná,39,49.74534331,13.411846388
4566975,PPL ParcelBox,554791,Plzeň,30100,Rokycanská,1171/6,49.74754561,13.403936111
4420109,PPL ParcelBox,554791,Plzeň,30100,Skupova,24/490,49.72349581,13.373345805
4567325,PPL ParcelBox,554791,Plzeň,30100,Skvrňanská,1543/38,49.74735919,13.361640305
4395879,PPL ParcelBox,554791,Plzeň,32600,Slovanská,53,49.73455531,13.390840305
4304055,PPL ParcelBox,554791,Plzeň,31200,Sousedská,856/9,49.74935469,13.409730611
4573893,PPL ParcelBox,554791,Plzeň,31200,Stará cesta,145/2,49.75767331,13.414459388
4489583,PPL ParcelBox,554791,Plzeň,32300,Studentská,55A,49.77444781,13.361310805
4301465,PPL ParcelBox,554791,Plzeň,31200,Školní,1302/52,49.75394169,13.424529194
4570802,PPL ParcelBox,554791,Plzeň,31200,Třešňová,931/36,49.751625,13.420008111
4295104,PPL ParcelBox,554791,Plzeň,30100,U Velkého rybníka,2299/27,49.77081281,13.397507194
4626665,PPL ParcelBox,554791,Plzeň,31800,Vojanova,778/20,49.7467675,13.320868
4334644,PPL ParcelBox,554791,Plzeň,32300,Žlutická,1665,49.77954919,13.360736694
4331775,PPL ParcelBox,554791,Plzeň,32300,Žlutická,1839/9,49.77608689,13.3608725
4567336,PPL ParcelBox,561151,Přimda,34806,Novoveská,154,49.67384719,12.675740305
4561239,PPL ParcelBox,589934,Přemyslovice,79851,Přemyslovice,352,49.5620725,16.963369388
4541681,PPL ParcelBox,561134,Planá,34815,Nádražní,561,49.86132169,12.731765305
4542843,PPL ParcelBox,561134,Planá,34815,Plzeňská,916,49.86339419,12.735999694
4552564,PPL ParcelBox,537721,Přerov nad Labem,28916,Přerov nad Labem,114,50.16254469,14.825988888
4567999,PPL ParcelBox,588903,Prusinovice,76842,Zámčisko,371,49.3777925,17.589514194
4560585,PPL ParcelBox,536491,Předměřice nad Jizerou,29474,Předměřice nad Jizerou,204,50.25412939,14.780088305
4568786,PPL ParcelBox,563749,Pěnčín,46821,Pěnčín,60,50.68830439,15.235553305
4560182,PPL ParcelBox,530441,Poříčí nad Sázavou,25721,Pražská,20,49.83918811,14.674567194
4590693,PPL ParcelBox,554111,Poběžovice,34522,Spojenecké nám.,81/81,49.51010111,12.800035
4568223,PPL ParcelBox,592510,Polešovice,68737,Polešovice,632,49.02922331,17.349787194
4263836,PPL ParcelBox,537683,Poděbrady,29001,Bílkova,289,50.13426219,15.103323888
4561012,PPL ParcelBox,537683,Poděbrady,29001,Bílkova,270,50.13478861,15.097499388
4297652,PPL ParcelBox,537683,Poděbrady,29001,Družstevní,5,50.14813639,15.124156111
4549796,PPL ParcelBox,537683,Poděbrady,29001,Husova,819,50.15084719,15.109803888
4297653,PPL ParcelBox,537683,Poděbrady,29001,Karla Hampla,1115,50.14839611,15.130842805
4584767,PPL ParcelBox,537683,Poděbrady,29001,U Bažantnice,1506,50.14558831,15.131523611
4307892,PPL ParcelBox,583677,Pozořice,66407,V Zámku,2,49.20903219,16.791551388
4262968,PPL ParcelBox,584801,Pohořelice,69123,Poříčí,992,48.98264669,16.527363888
4360389,PPL ParcelBox,584801,Pohořelice,69123,Znojemská,1149,48.97793639,16.501806694
4503897,PPL ParcelBox,554821,Ostrava,72525,Hraničky,760/4,49.77852581,18.170454194
4507048,PPL ParcelBox,566438,Lubenec,43983,Karlovarská,25,50.13183531,13.313675305
4570552,PPL ParcelBox,588024,Telč,58856,Myslibořská,299,49.18550311,15.465130305
4561197,PPL ParcelBox,541044,Petrovice,26255,Petrovice,139,49.55832,14.33591
4570565,PPL ParcelBox,579599,Pilníkov,54242,Pražská,151,50.53138611,15.816989194
4570545,PPL ParcelBox,576778,Skuhrov nad Bělou,51703,Skuhrov nad Bělou,17,50.22862581,16.291470611
4567307,PPL ParcelBox,568155,Povrly,40332,U Stadionu,33,50.67508061,14.158600305
4546725,PPL ParcelBox,566616,Podbořany,44101,Vroutecká,1210/1210,50.22373639,13.403308305
4326269,PPL ParcelBox,554782,Praha,14000,5.května,414,50.05122719,14.446468611
4553977,PPL ParcelBox,554782,Praha,15800,Armády,1306/2B,50.05133689,14.333490805
4275866,PPL ParcelBox,554782,Praha,14300,Barrandova,409/1,50.01490581,14.403997194
4278039,PPL ParcelBox,554782,Praha,10900,Bellova,56,50.03500439,14.557675305
4299727,PPL ParcelBox,554782,Praha,15500,Bellušova,1877,50.04141669,14.325134694
4266082,PPL ParcelBox,554782,Praha,19900,Beranových,130,50.1330075,14.513376888
4488077,PPL ParcelBox,554782,Praha,14900,Brandlova,1599/8,50.03285719,14.5186775
4262981,PPL ParcelBox,554782,Praha,19800,Cíglerova,1139,50.10561361,14.559055305
4585697,PPL ParcelBox,554782,Praha,10000,Brigádníků,3353/351b,50.07505939,14.507213305
4535877,PPL ParcelBox,554782,Praha,15000,Brožíkova,3,50.07126561,14.388434388
4456943,PPL ParcelBox,554782,Praha,14000,Budějovická,45,50.04224689,14.459594611
4331552,PPL ParcelBox,554782,Praha,19015,Budovatelská,287,50.12371781,14.566768305
4334123,PPL ParcelBox,554782,Praha,19000,Čakovická,783/51,50.11852389,14.505098111
4452846,PPL ParcelBox,554782,Praha,19000,Čerpadlová,1034/2b,50.10113419,14.507791388
4273999,PPL ParcelBox,554782,Praha,19800,Českobrodská,50/792,50.09295419,14.527372194
4495327,PPL ParcelBox,554782,Praha,19000,Českomoravská,2420/15a,50.10429861,14.49079
4393529,PPL ParcelBox,554782,Praha,14200,Čimelická,964/15,50.01436111,14.45325
4564247,PPL ParcelBox,554782,Praha,14300,Čs. exilu,24,50.00612281,14.4165025
4327795,PPL ParcelBox,554782,Praha,18200,Ďáblická,553,50.13133581,14.480471388
4360753,PPL ParcelBox,554782,Praha,14800,Dobronická,1256,50.01143081,14.475862805
4583958,PPL ParcelBox,554782,Praha,14200,Dobřejovická,572/5,50.02260689,14.442747805
4331762,PPL ParcelBox,554782,Praha,14900,Donovalská,1725/47,50.03551469,14.500011388
4359596,PPL ParcelBox,554782,Praha,10000,Dubečská,1390/24,50.06649689,14.500778611
4549799,PPL ParcelBox,554782,Praha,14000,Duhová,425/1,50.04944611,14.451092805
4391825,PPL ParcelBox,554782,Praha,19800,Dvořišťská,964,50.095055,14.540689694
4301600,PPL ParcelBox,554782,Praha,15600,Elišky Přemyslovny,379,49.96539169,14.383801888
4572494,PPL ParcelBox,554782,Praha,16200,Evropská,372/129,50.09381,14.33732
4545531,PPL ParcelBox,554782,Praha,16100,Fajtlova,1090/1,50.09395581,14.290675
4305105,PPL ParcelBox,554782,Praha,15500,Hábova,2345,50.04651611,14.311289388
4273150,PPL ParcelBox,554782,Praha,13000,Hartigova,2427/205,50.09285561,14.486176388
4274000,PPL ParcelBox,554782,Praha,13000,Hartigova,2495/221,50.09255689,14.491145805
4572831,PPL ParcelBox,554782,Praha,15500,Helsinská,166/2,50.04962781,14.291556888
4301872,PPL ParcelBox,554782,Praha,19800,Hloubětínská,1061,50.10061969,14.533918611
4264447,PPL ParcelBox,554782,Praha,16300,Hofbauerova,626/2,50.07126831,14.3035875
4679428,PPL ParcelBox,554782,Praha,15200,Högerova,1098/11,50.03129169,14.374548111
4388707,PPL ParcelBox,554782,Praha,10900,Hornoměcholupská,576,50.04708219,14.5462575
4535769,PPL ParcelBox,554782,Praha,15521,Hrozenkovská,282/1,50.05994861,14.293532
4266480,PPL ParcelBox,554782,Praha,14900,Hviezdoslavova,509/25,50.03394861,14.5273275
4272970,PPL ParcelBox,554782,Praha,18200,Chabařovická,1125/4,50.13237831,14.475231111
4505988,PPL ParcelBox,554782,Praha,14900,Chilská,1,50.02808419,14.508166388
4453581,PPL ParcelBox,554782,Praha,19800,Chlumecká,2424,50.11191111,14.578148305
4561017,PPL ParcelBox,554782,Praha,10100,Chodovská,1549/18,50.05587111,14.472461111
4266479,PPL ParcelBox,554782,Praha,14200,Cholupická,431/24,50.01925781,14.438813611
4549794,PPL ParcelBox,554782,Praha,19300,Chvalkovická,1174/35,50.11091811,14.6107075
4341011,PPL ParcelBox,554782,Praha,19000,Jablonecká,423/70,50.125745,14.493994194
4272971,PPL ParcelBox,554782,Praha,17000,Jankovcova,24/18,50.11056419,14.4500975
4561016,PPL ParcelBox,554782,Praha,15500,Jeremiášova,1102/9,50.054385,14.309004194
4338894,PPL ParcelBox,554782,Praha,15500,Jeremiášova,1422/7B,50.04237611,14.315785305
4566270,PPL ParcelBox,554782,Praha,15800,Jinonická,804/80,50.06105,14.37537
4365699,PPL ParcelBox,554782,Praha,10600,Jiřinková,1248/26,50.05888531,14.504823305
4566945,PPL ParcelBox,554782,Praha,16200,José Martího,1b,50.09279531,14.341195611
4340729,PPL ParcelBox,554782,Praha,15200,K Barrandovu,,50.03299111,14.384344194
4331134,PPL ParcelBox,554782,Praha,15500,K Hájům,1233/2,50.05581611,14.323956694
4564242,PPL ParcelBox,554782,Praha,14900,K Horkám,2284,50.04122439,14.511059194
4574082,PPL ParcelBox,554782,Praha,14300,K Nouzovu,1,49.98936531,14.412746888
4570255,PPL ParcelBox,554782,Praha,15500,K Řeporyjím,14,50.04533561,14.27985
4507030,PPL ParcelBox,554782,Praha,15000,K Závěrce,2774/25,50.05658389,14.402411888
4505378,PPL ParcelBox,554782,Praha,15500,Kakosova,1037/1,50.03864189,14.322974388
4585700,PPL ParcelBox,554782,Praha,14700,Ke Krči,1062/43,50.03464219,14.414621111
4298794,PPL ParcelBox,554782,Praha,15400,Ke Smíchovu,461/85,50.02147689,14.363678888
4298891,PPL ParcelBox,554782,Praha,19600,Ke Stadionu,,50.14755781,14.524788305
4305370,PPL ParcelBox,554782,Praha,16000,Kladenská,699/107,50.09509689,14.355180805
4305106,PPL ParcelBox,554782,Praha,18200,Klapkova,314/80,50.12935,14.455171388
4571814,PPL ParcelBox,554782,Praha,14300,Komořanská,2168/48,49.99073031,14.409883111
4389565,PPL ParcelBox,554782,Praha,19800,Kpt. Stránského,198/00,50.10268189,14.577677805
4676912,PPL ParcelBox,554782,Praha,14800,Krejnická,2021,50.03266331,14.481760805
4341013,PPL ParcelBox,554782,Praha,18100,Křivenická,429/13,50.14282611,14.434678111
4569203,PPL ParcelBox,554782,Praha,14900,Lažanského,69/18,50.03038169,14.5026375
4298091,PPL ParcelBox,554782,Praha,14300,Lehárova,1808/11,50.00855689,14.405249694
4560161,PPL ParcelBox,554782,Praha,14900,Leopoldova,946/1,50.03855111,14.51169
4324910,PPL ParcelBox,554782,Praha,14300,Lhotecká,1015,50.015425,14.425329694
4262971,PPL ParcelBox,554782,Praha,14200,Libušská,400,50.00286719,14.4649175
4564245,PPL ParcelBox,554782,Praha,14200,Libušská,319/126,50.00171811,14.474068111
4586828,PPL ParcelBox,554782,Praha,15400,Lipová alej,696/3,50.02718,14.372246111
4266083,PPL ParcelBox,554782,Praha,18100,Lodžská,598/3,50.12837439,14.416519
4330841,PPL ParcelBox,554782,Praha,18100,Lodžská,806/20,50.130642,14.418957
4585694,PPL ParcelBox,554782,Praha,14300,Lysinská,1861/40,50.01350719,14.4104825
4487953,PPL ParcelBox,554782,Praha,16000,Maďarská,1071/17,50.10720781,14.401539388
4561204,PPL ParcelBox,554782,Praha,16300,Makovského,1179,50.06526219,14.308224388
4553982,PPL ParcelBox,554782,Praha,15300,Matějovského,153/11,49.98477581,14.365252194
4561207,PPL ParcelBox,554782,Praha,16000,Matějská,2352/76,50.11253831,14.380055611
4298542,PPL ParcelBox,554782,Praha,10700,Městská,444/1,50.06208889,14.586590805
4455852,PPL ParcelBox,554782,Praha,14300,Mezi Vodami,23,50.01066969,14.401121111
4538024,PPL ParcelBox,554782,Praha,14000,Milevská,922,50.04858611,14.430924194
4549790,PPL ParcelBox,554782,Praha,10300,Mírová,29/42,50.01178361,14.625108111
4304064,PPL ParcelBox,554782,Praha,19700,Mladoboleslavská,1148,50.12956639,14.5416625
4542839,PPL ParcelBox,554782,Praha,14700,Modřanská,307/98,50.02422531,14.4048825
4334124,PPL ParcelBox,554782,Praha,16900,Moravanů,2145/21,50.07847311,14.330442805
4583951,PPL ParcelBox,554782,Praha,19000,Moravcových,1015/4,50.11177669,14.515913888
4298105,PPL ParcelBox,554782,Praha,15500,Mukařovského,2590,50.04584139,14.322601694
4586310,PPL ParcelBox,554782,Praha,15531,Na Bambouzku,264,49.95999031,14.359155805
4336749,PPL ParcelBox,554782,Praha,15600,Na Baních,1475,49.96360031,14.381284194
4496486,PPL ParcelBox,554782,Praha,16900,Na Břevnovské Pláni,75,50.07477169,14.325450805
4571380,PPL ParcelBox,554782,Praha,15000,Na Farkáně IV,258/48,50.05867611,14.380528111
4535863,PPL ParcelBox,554782,Praha,19000,Na Harfě,929,50.10306561,14.501924194
4298543,PPL ParcelBox,554782,Praha,14000,Na Hřebenech II,1749/31,50.052855,14.430014388
4586829,PPL ParcelBox,554782,Praha,16200,Na Petřinách,392/72,50.08828389,14.343785305
4305359,PPL ParcelBox,554782,Praha,18100,Na Průhonu,812/3,50.13978111,14.431491888
4296972,PPL ParcelBox,554782,Praha,16000,Na Rozdílu,752/1,50.09583531,14.364194194
4263522,PPL ParcelBox,554782,Praha,16000,Nad Lávkou,672/5,50.09830419,14.340976888
4305356,PPL ParcelBox,554782,Praha,19300,Náchodská,2528,50.11364889,14.600321111
4553961,PPL ParcelBox,554782,Praha,19300,Náchodská,121/218,50.11776061,14.627925305
4308525,PPL ParcelBox,554782,Praha,19012,Nár. Hrdinů,290,50.08815919,14.583666888
4296588,PPL ParcelBox,554782,Praha,15800,Nárožní,1488,50.05369919,14.330195611
4586297,PPL ParcelBox,554782,Praha,16400,Nebušická,491,50.11121361,14.3254725
4561205,PPL ParcelBox,554782,Praha,16300,Nevanova,1050/11,50.06515919,14.315530805
4494551,PPL ParcelBox,554782,Praha,11800,Nosticova,463,50.08439081,14.406437805
4263101,PPL ParcelBox,554782,Praha,14200,Novodvorská,,50.01639811,14.450603611
4262382,PPL ParcelBox,554782,Praha,19016,Novosibřinská,2227,50.07565419,14.660190305
4505848,PPL ParcelBox,554782,Praha,19000,Novovysočanská,108,50.09721669,14.480158111
4583496,PPL ParcelBox,554782,Praha,14000,Nuselská,20,50.06285311,14.443548611
4584792,PPL ParcelBox,554782,Praha,14300,Obchodní nám.,1590/4,50.00517139,14.4049725
4403263,PPL ParcelBox,554782,Praha,16500,Olšová,549/13,50.13336689,14.376105305
4360081,PPL ParcelBox,554782,Praha,16900,Olympijská,,50.08116939,14.393743611
4262381,PPL ParcelBox,554782,Praha,14900,Opatovská,960/20,50.03105111,14.533074388
4558649,PPL ParcelBox,554782,Praha,14900,Opatovská,871/23,50.03079639,14.528208611
4331135,PPL ParcelBox,554782,Praha,18400,Osecká,,50.14756331,14.448346694
4263109,PPL ParcelBox,554782,Praha,14900,Osvětová,670,49.99686669,14.517153305
4586826,PPL ParcelBox,554782,Praha,16000,Papírenská,1113/1b,50.10908389,14.402855611
4573159,PPL ParcelBox,554782,Praha,15800,Peroutkova,1763/25,50.06426189,14.386546111
4309734,PPL ParcelBox,554782,Praha,19000,Pešlova,363/5,50.11197811,14.501881388
4264448,PPL ParcelBox,554782,Praha,13000,Pitterova,2878-05-01 00:00:00,50.08520439,14.465488888
4490518,PPL ParcelBox,554782,Praha,18000,Pivovarnická,1844/15,50.10970031,14.476479694
4587003,PPL ParcelBox,554782,Praha,14900,Plickova,571/3,50.03385561,14.534718611
4262983,PPL ParcelBox,554782,Praha,15500,Plzeňská,1110/21,50.06138,14.309103111
4456233,PPL ParcelBox,554782,Praha,15000,Plzeňská,8,50.07406081,14.402173111
4411827,PPL ParcelBox,554782,Praha,15000,Plzeňská,290,50.06800531,14.349365805
4393531,PPL ParcelBox,554782,Praha,10000,Pod Altánem,2406,50.06958331,14.489354694
4275865,PPL ParcelBox,554782,Praha,14700,Pod Pekařkou,107,50.0459575,14.421869388
4589709,PPL ParcelBox,554782,Praha,18000,Pod Plynojemem,1274/5,50.09933389,14.47028
4296964,PPL ParcelBox,554782,Praha,18200,Pod Statky,17,50.12253919,14.457840611
4298449,PPL ParcelBox,554782,Praha,15600,Pod Třešňovkou,234,49.97027219,14.383265
4274045,PPL ParcelBox,554782,Praha,19800,Poděbradská,489/116,50.10531939,14.537758611
4560586,PPL ParcelBox,554782,Praha,19012,Podkrkonošská,819/819,50.08441,14.569616888
4266842,PPL ParcelBox,554782,Praha,19000,Podvinný mlýn,1418/2,50.10648081,14.485921888
4340730,PPL ParcelBox,554782,Praha,14100,Postupická,9,50.04542669,14.490753305
4564518,PPL ParcelBox,554782,Praha,14900,Prašná,980/40,50.03544689,14.520789194
4582889,PPL ParcelBox,554782,Praha,10200,Pražská,99/17,50.0525,14.521948888
4583959,PPL ParcelBox,554782,Praha,19000,Prosecká,29/58,50.11634889,14.495544388
4555961,PPL ParcelBox,554782,Praha,19000,Prosecká,848/97,50.11728439,14.496407194
4553975,PPL ParcelBox,554782,Praha,10000,Přetlucká,3422/23,50.0630075,14.511753611
4388708,PPL ParcelBox,554782,Praha,10000,Přetlucká,3295/50,50.07028389,14.510369694
4573889,PPL ParcelBox,554782,Praha,14000,Pujmanové,1218,50.04828331,14.435294194
4266759,PPL ParcelBox,554782,Praha,16900,Radimova,2322,50.08776219,14.365671888
4579922,PPL ParcelBox,554782,Praha,10200,Radiová,1,50.06862031,14.530406388
4566290,PPL ParcelBox,554782,Praha,15800,Radlická,117/520,50.04819581,14.354624194
4576307,PPL ParcelBox,554782,Praha,14300,Rakovského,3136-01-01 00:00:00,50.01009639,14.424890611
4543976,PPL ParcelBox,554782,Praha,19900,Rýmařovská,561,50.13576419,14.510113888
4435935,PPL ParcelBox,554782,Praha,15521,Řevnická,170/4,50.05592031,14.288761888
4574079,PPL ParcelBox,554782,Praha,14100,Severní,35,50.04800831,14.481781694
4266758,PPL ParcelBox,554782,Praha,15300,Sídliště,1079/19,49.98014061,14.353095305
4273392,PPL ParcelBox,554782,Praha,15500,Skandinávská,25,50.05007331,14.294860611
4298448,PPL ParcelBox,554782,Praha,19800,Skorkovská,1644,50.11101031,14.575078111
4568622,PPL ParcelBox,554782,Praha,19800,Skorkovská,1310,50.11094611,14.572145305
4553996,PPL ParcelBox,554782,Praha,19800,Slévačská,,50.10582781,14.553975805
4296965,PPL ParcelBox,554782,Praha,19000,Stará Spojovací,2263-09-01 00:00:00,50.10297331,14.485511694
4262084,PPL ParcelBox,554782,Praha,15900,Strakonická,63,50.01865611,14.391948111
4534004,PPL ParcelBox,554782,Praha,10400,Středohorská,00/549,50.03822689,14.586254694
4334125,PPL ParcelBox,554782,Praha,19800,Světská,222/2,50.11109781,14.556586694
4556345,PPL ParcelBox,554782,Praha,15500,Šafránkova,1243/3,50.05723639,14.337684388
4505843,PPL ParcelBox,554782,Praha,14200,Špirkova,522/14,50.01296189,14.433851694
4263098,PPL ParcelBox,554782,Praha,14200,Štúrova,1282/12,50.02384419,14.452008888
4362888,PPL ParcelBox,554782,Praha,10200,Švehlova,1391/32,50.05285139,14.518729388
4304063,PPL ParcelBox,554782,Praha,19000,Teplická,494/17,50.12541669,14.48556
4331550,PPL ParcelBox,554782,Praha,15500,Tlumačovská,1298/21,50.03956919,14.331663111
4262384,PPL ParcelBox,554782,Praha,19800,Travná,1217,50.08733861,14.554221
4353307,PPL ParcelBox,554782,Praha,18200,Trousilova,1031/2,50.12714139,14.451038888
4676214,PPL ParcelBox,554782,Praha,10000,Třebohostická,564/9,50.07616639,14.511090611
4436441,PPL ParcelBox,554782,Praha,10000,Tuklatská,2104-05-01 00:00:00,50.07778919,14.498737805
4389566,PPL ParcelBox,554782,Praha,10000,Turnovského,10,50.07487219,14.500553888
4506899,PPL ParcelBox,554782,Praha,17000,Tusarova,1519/22,50.101285,14.447673611
4576327,PPL ParcelBox,554782,Praha,16300,U Boroviček,605/23,50.07010139,14.311456888
4274145,PPL ParcelBox,554782,Praha,10200,U Dvojdomů,1324/13,50.05117311,14.541240805
4453166,PPL ParcelBox,554782,Praha,19000,U Elektry,7,50.10179889,14.519595305
4553981,PPL ParcelBox,554782,Praha,14900,U Modré školy,2337-01-01 00:00:00,50.02969061,14.523938111
4505846,PPL ParcelBox,554782,Praha,15800,V Hůrkách,2077/31,50.04826531,14.340972805
4587751,PPL ParcelBox,554782,Praha,10000,V Olšinách,75,50.07373281,14.504041888
4294537,PPL ParcelBox,554782,Praha,13000,V Zahrádkách,1953/67,50.09171861,14.485907805
4554386,PPL ParcelBox,554782,Praha,19300,Ve žlíbku,1800/77,50.101415,14.625612805
4263096,PPL ParcelBox,554782,Praha,17000,Veletržní,1623/24,50.10173639,14.430195611
4327083,PPL ParcelBox,554782,Praha,19000,Veltruská,559/31,50.120975,14.493910805
4544473,PPL ParcelBox,554782,Praha,19900,Veselská,721,50.13946561,14.498998888
4576308,PPL ParcelBox,554782,Praha,14300,Vitošská,3414-09-01 00:00:00,50.00619611,14.431354694
4269961,PPL ParcelBox,554782,Praha,10000,Vladivostocká,1460/10b,50.06882781,14.477872194
4590744,PPL ParcelBox,554782,Praha,14800,Vojtíškova,1783,50.02577581,14.4934125
4305104,PPL ParcelBox,554782,Praha,18200,Vršní,1052/18,50.12494581,14.454418305
4473520,PPL ParcelBox,554782,Praha,10100,Vršovické nám.,111/2,50.06854831,14.453575805
4264442,PPL ParcelBox,554782,Praha,15300,Výpadová,1147/4,49.98349331,14.366778111
4334121,PPL ParcelBox,554782,Praha,15000,Xaveriova,3369-02-01 00:00:00,50.06398861,14.398240305
4330709,PPL ParcelBox,554782,Praha,14000,Za obecním úřadem,354/7,50.03717611,14.447829694
4587757,PPL ParcelBox,554782,Praha,14300,Za Sídlištěm,2177-01-01 00:00:00,49.98813081,14.409392805
4330055,PPL ParcelBox,554782,Praha,18000,Zenklova,608/150,50.11418719,14.471540305
4440150,PPL ParcelBox,554782,Praha,14100,Žilinská,1835/4,50.04772689,14.474408888
4295217,PPL ParcelBox,554782,Praha,10600,Žirovnická,2389-06-01 00:00:00,50.05851389,14.49194
4404731,PPL ParcelBox,554782,Praha,16100,Žukovského,887/4,50.09063811,14.308745611
4263276,PPL ParcelBox,539571,Průhonice,25243,V Oblouku,728,50.00572439,14.566880611
4352904,PPL ParcelBox,511382,Přerov,75002,Čechova,26,49.45030219,17.454614694
4575248,PPL ParcelBox,511382,Přerov,75002,Gen. Fajtla,3474/19,49.44862281,17.475521388
4402096,PPL ParcelBox,511382,Přerov,75002,Kojetínská,4,49.4503875,17.443665
4392117,PPL ParcelBox,511382,Přerov,75002,Malá Dlážka,2859/16,49.46028969,17.446960305
4581021,PPL ParcelBox,511382,Přerov,75002,Na Hrázi,1139/13,49.45739081,17.438774388
4581019,PPL ParcelBox,511382,Přerov,75002,Na Odpoledni,347/5,49.45504669,17.441778111
4544675,PPL ParcelBox,511382,Přerov,75002,Svisle,1100/9,49.45034861,17.459264694
4554400,PPL ParcelBox,511382,Přerov,75124,Teličkova,491/6b,49.46522169,17.441775305
4540698,PPL ParcelBox,511382,Přerov,75002,Tovární,2993-04-01 00:00:00,49.44514081,17.4520525
4575247,PPL ParcelBox,511382,Přerov,75002,Tržní,3130/3b,49.45306531,17.438761694
4295365,PPL ParcelBox,511382,Přerov,75002,tř. gen. Janouška,2854-02-01 00:00:00,49.45073361,17.4699325
4330858,PPL ParcelBox,511382,Přerov,75124,U Pošty,423/10,49.46552581,17.436623111
4567996,PPL ParcelBox,511382,Přerov,75002,Za Mlýnem,1116/54,49.46051611,17.453273888
4567995,PPL ParcelBox,537705,Poříčany,28914,Lipová,90,50.11059439,14.922776111
4559815,PPL ParcelBox,572080,Proseč,53944,Školní,70,49.80559561,16.114730805
4569212,PPL ParcelBox,558249,Přeštice,33401,5.května,1077,49.57198361,13.327190611
4395876,PPL ParcelBox,558249,Přeštice,33401,Dukelská,940,49.57784169,13.324916388
4334727,PPL ParcelBox,549240,Písek,39701,Burketova,287,49.30915811,14.132361694
4305117,PPL ParcelBox,549240,Písek,39701,Hradiště,234,49.29885189,14.123318611
4302008,PPL ParcelBox,549240,Písek,39701,Nádražní,2143,49.30334719,14.14924
4472508,PPL ParcelBox,549240,Písek,39701,Nádražní,2590,49.29647061,14.144325805
4543006,PPL ParcelBox,549240,Písek,39701,Pražská,443/59,49.31738831,14.132364694
4567339,PPL ParcelBox,549240,Písek,39701,Pražská,348/43,49.31485139,14.138666111
4567340,PPL ParcelBox,549240,Písek,39701,Stanislava Maliny,476/3,49.32813169,14.112688111
4390325,PPL ParcelBox,549240,Písek,39701,Šobrova,1933-04-01 00:00:00,49.30355469,14.158950805
4302009,PPL ParcelBox,549240,Písek,39701,Táborská,2300,49.31465531,14.162343111
4549813,PPL ParcelBox,535991,Pištín,37346,Pištín,77,49.04505811,14.335044388
4311709,PPL ParcelBox,589250,Prostějov,79601,Anenská,4263/25,49.47000389,17.09019
4542825,PPL ParcelBox,589250,Prostějov,79601,Bohumíra Šmerala,3773,49.46768331,17.098684194
4568614,PPL ParcelBox,589250,Prostějov,79811,Čs. armádního sboru,591/47,49.47710061,17.155549694
4561213,PPL ParcelBox,589250,Prostějov,79601,Fanderlíkova,3246/25,49.47576061,17.102975305
4455312,PPL ParcelBox,558419,Držovice,79607,Konečná,441/25,49.48381061,17.12858
4311412,PPL ParcelBox,589250,Prostějov,79601,Martinákova,2451-04-01 00:00:00,49.47909561,17.108549388
4327084,PPL ParcelBox,589250,Prostějov,79811,Vrahovická,720/56B,49.4766025,17.135623888
4566294,PPL ParcelBox,599085,Petřvald,73541,Klimšova,829,49.81889281,18.376821111
4542814,PPL ParcelBox,599085,Petřvald,73541,Ostravská,1845,49.82981311,18.387365305
4579546,PPL ParcelBox,549771,Protivín,39811,Třešňová,943,49.19815719,14.227666388
4536739,PPL ParcelBox,599077,Petrovice u Karviné,73572,Dolní Marklovice,119,49.88040061,18.547523111
4568227,PPL ParcelBox,599077,Petrovice u Karviné,73572,Petrovice u Karviné,141,49.89589611,18.547736388
4568226,PPL ParcelBox,599077,Petrovice u Karviné,73572,Závada,4,49.89849639,18.488887805
4402093,PPL ParcelBox,599085,Petřvald,73541,Březinská,1555,49.83347081,18.387728305
4563843,PPL ParcelBox,538671,Přezletice,25073,Pod Hřebenem,526/526,50.15780781,14.576365805
4548306,PPL ParcelBox,541656,Rakovník,26901,Dukel. hrdinů,2552,50.10786169,13.7144275
4487564,PPL ParcelBox,541656,Rakovník,26901,Dukel. hrdinů,1805,50.10535861,13.724096388
4583961,PPL ParcelBox,541656,Rakovník,26901,Luženská,2727/2727,50.10409939,13.745510805
4402532,PPL ParcelBox,541656,Rakovník,26901,Luženská,2725,50.110245,13.7356025
4307397,PPL ParcelBox,541656,Rakovník,26901,Plzeňská,2809,50.09134469,13.725846111
4576834,PPL ParcelBox,541656,Rakovník,26901,Trojanova,2568,50.10306311,13.726703611
4548703,PPL ParcelBox,541656,Rakovník,26901,Vinohradská,2234,50.10398561,13.742566888
4548304,PPL ParcelBox,538728,Říčany,25101,Černokostelecká,55a,49.99721081,14.674676888
4474596,PPL ParcelBox,538728,Říčany,25101,Černokostelecká,2270/22,50.00294081,14.658352194
4305358,PPL ParcelBox,538728,Říčany,25101,Pod Lihovarem,1828/2,49.997135,14.658551111
4544170,PPL ParcelBox,531723,Rudná,25219,Havlíčkovo nám.,948/1,50.03415111,14.23077
4565055,PPL ParcelBox,531723,Rudná,25219,Hořelické nám.,1130,50.02635719,14.224046694
4570561,PPL ParcelBox,579645,Rudník,54372,Rudník,59,50.5793675,15.735039694
4575227,PPL ParcelBox,554782,Praha,15300,Vykoukových,622/2,49.98728111,14.362656111
4567759,PPL ParcelBox,578657,Radiměř,56907,Radiměř,440,49.69961439,16.439150805
4579768,PPL ParcelBox,582239,Rájec-Jestřebí,67902,V Humnech,291,49.40980419,16.618911888
4579908,PPL ParcelBox,552992,Ratibořské Hory,39142,Ratibořské Hory,42,49.46417031,14.770195305
4272179,PPL ParcelBox,582239,Rájec-Jestřebí,67902,Sportovní,604,49.40723311,16.636153611
4300754,PPL ParcelBox,559717,Rokycany,33701,Klostermannova,311,49.74319639,13.586078111
4272162,PPL ParcelBox,559717,Rokycany,33701,Pivovarská,14,49.74072111,13.604033305
4302450,PPL ParcelBox,586510,Ratíškovice,69602,Vítězná,1272,48.92544139,17.159855611
4579549,PPL ParcelBox,562777,Rumburk,40801,Náměstí Lužické,212/16,50.95124311,14.558065305
4476193,PPL ParcelBox,562777,Rumburk,40801,Pražská,1677,50.94727631,14.558042305
4334610,PPL ParcelBox,562777,Rumburk,40801,V Podhájí,279/5,50.94732689,14.546248305
4688369,PPL ParcelBox,597783,Rýmařov,79501,Bartákova,,49.93420939,17.0
4566970,PPL ParcelBox,597783,Rýmařov,79501,J. Fučíka,130/79,49.94063781,17.261366111
4576839,PPL ParcelBox,542334,Rynholec,27062,V Brance,344,50.13624831,13.924799388
4388141,PPL ParcelBox,576069,Rychnov nad Kněžnou,51601,Havlíčkova,1361,50.15927139,16.274544388
4560188,PPL ParcelBox,576069,Rychnov nad Kněžnou,51601,Štemberkova,1094,50.15509189,16.279863611
4544161,PPL ParcelBox,576069,Rychnov nad Kněžnou,51601,Štemberkova,1698,50.15556219,16.276473888
4556338,PPL ParcelBox,576069,Rychnov nad Kněžnou,51601,Zborovská,17/17,50.16342,16.278779694
4300633,PPL ParcelBox,565555,Roudnice nad Labem,41301,9.května,2026,50.42059889,14.225871888
4270372,PPL ParcelBox,565555,Roudnice nad Labem,41301,Alej 17. listopadu,2692,50.4228225,14.2465675
4568776,PPL ParcelBox,565555,Roudnice nad Labem,41301,Nám. 28. října,1693,50.4237275,14.267555805
4678366,PPL ParcelBox,560600,Rotava,35701,Sídliště,648,50.30522031,12.552013305
4561246,PPL ParcelBox,540862,Rapotín,78814,Jesenická,543,50.01475689,17.0339175
4495320,PPL ParcelBox,544841,Rožnov pod Radhoštěm,75661,Kulturní,1790,49.46563469,18.136788888
4547065,PPL ParcelBox,544841,Rožnov pod Radhoštěm,75661,Slezská,602,49.46480081,18.148529694
4474606,PPL ParcelBox,544841,Rožnov pod Radhoštěm,75661,Svazarmovská,1682,49.46523031,18.127338111
4307402,PPL ParcelBox,541231,Rožmitál pod Třemšínem,26242,Palackého,,49.600485,13.870061694
4687851,PPL ParcelBox,583782,Rosice,66501,Husova,1006,49.18205969,16.398950305
4301361,PPL ParcelBox,593559,Rousínov,68301,Sušilovo nám.,20/26,49.20488531,16.883948111
4569211,PPL ParcelBox,588938,Rataje,76812,Rataje,139,49.27527031,17.332733611
4297792,PPL ParcelBox,539651,Řitka,25203,Na Návsi,54,49.89447419,14.298943111
4567988,PPL ParcelBox,544787,Ratiboř,75621,Ratiboř,437,49.366995,17.909406888
4262386,PPL ParcelBox,531723,Rudná,25219,Masarykova,1008,50.0387225,14.243434194
4341194,PPL ParcelBox,539627,Roztoky,25263,Lidická,1036/1036,50.16102811,14.386725611
4569871,PPL ParcelBox,599107,Rychvald,73532,Petřvaldská,888,49.84909611,18.392319194
4552532,PPL ParcelBox,579637,Rtyně v Podkrkonoší,54233,Nám. Horníků,799/799,50.50598139,16.069527805
4555939,PPL ParcelBox,517607,Rokytnice,75104,Rokytnice,218,49.4636275,17.379537805
4558644,PPL ParcelBox,556980,Rokytnice,76321,Rokytnice,167,49.06671831,17.916458305
4300640,PPL ParcelBox,544841,Rožnov pod Radhoštěm,75661,Nerudova,160,49.45892189,18.143202194
4275768,PPL ParcelBox,537764,Sadská,28912,Poděbradská,1105,50.13311081,14.974279694
4568218,PPL ParcelBox,592617,Strání,68765,U Třicátku,166,48.90104031,17.707521388
4541716,PPL ParcelBox,586641,Šardice,69613,Šardice,436,48.96192969,17.034060611
4336752,PPL ParcelBox,545066,Srubec,37006,Ledenická,1297/1297,48.95973031,14.515855611
4568635,PPL ParcelBox,510343,Stěbořice,74751,Stěbořice,17,49.93799969,17.808766388
4549816,PPL ParcelBox,550540,Strunkovice nad Blanicí,38426,Družstevní,165,49.081595,14.059409194
4572833,PPL ParcelBox,538094,Brandýs nad Labem-Stará Boleslav,25001,Třebízského,2014,50.20473831,14.677152805
4563869,PPL ParcelBox,552151,Skrbeň,78335,Na Návsi,131/2,49.6426025,17.179441888
4532075,PPL ParcelBox,563358,Strupčice,43114,Strupčice,300,50.47094081,13.529070805
4556354,PPL ParcelBox,534439,Suchdol,28502,Suchdol,26,49.95232311,15.166813111
4493836,PPL ParcelBox,599921,Studénka,74213,Sjednocení,889,49.71279028,18.05482925
4718457,PPL ParcelBox,547263,Studená,37856,nám. Sv. J. Nepomuckého,526,49.18403061,15.286181388
4579207,PPL ParcelBox,541281,Sedlčany,26401,Na Potůčku,38,49.65719939,14.423914694
4271645,PPL ParcelBox,541281,Sedlčany,26401,Na Severním sídlišti,1071,49.6605525,14.420107194
4579211,PPL ParcelBox,541281,Sedlčany,26401,Příbramská,1176,49.65288969,14.423711111
4586311,PPL ParcelBox,538841,Světice,25101,Na Broukaláku,132,49.97161389,14.665290305
4336770,PPL ParcelBox,553131,Soběslav,39201,Sídl. Svákov,826,49.26373581,14.711405611
4579912,PPL ParcelBox,553131,Soběslav,39201,Tyršova,483/7,49.26130111,14.723226388
4560570,PPL ParcelBox,510432,Šilheřovice,74715,U Parkoviště,455,49.92688189,18.270651111
4552531,PPL ParcelBox,575704,Staré Hradiště,53352,Hradiště na Písku,23,50.082065,15.782200305
4576330,PPL ParcelBox,532851,Stehelčeves,27342,Hlavní,331,50.16808389,14.200512194
4482527,PPL ParcelBox,585751,Slavičín,76321,Hrádecká,253/253,49.07981319,17.88719525
4568008,PPL ParcelBox,585751,Slavičín,76321,Nádražní,87,49.07505361,17.900776888
4556321,PPL ParcelBox,585751,Slavičín,76321,nám. Mezi Šenky,166,49.08942689,17.872888305
4558673,PPL ParcelBox,551538,Střítež,38242,Kaplice-nádraží,28,48.77443669,14.467310611
4548478,PPL ParcelBox,572241,Skuteč,53973,Obchvatová,995,49.84960311,15.990638611
4308035,PPL ParcelBox,572241,Skuteč,53973,Smetanova,,49.84667111,15.9953425
4567990,PPL ParcelBox,533700,Starý Kolín,28123,U Sokolovny,,50.01040969,15.295036388
4488078,PPL ParcelBox,562858,Šluknov,40777,Sladovnická,1100,51.00512392,14.454196472
4435934,PPL ParcelBox,562858,Šluknov,40777,Svojsíkova,339,51.00254389,14.452679388
4491785,PPL ParcelBox,538884,Škvorec,25083,Třebohostice,41,50.03939781,14.720108611
4576833,PPL ParcelBox,539708,Středokluky,25268,Školská,258,50.13202,14.234213611
4275043,PPL ParcelBox,583952,Šlapanice,66451,Švehlova,1503/85,49.15997581,16.7246475
4275036,PPL ParcelBox,532819,Slaný,27401,Wilsonova,781,50.2280375,14.077919694
4561015,PPL ParcelBox,538833,Sulice,25168,Hlavní,345,49.92081831,14.578679694
4555946,PPL ParcelBox,505111,Slatinice,78342,Slatinice,417,49.56285719,17.104065
4568634,PPL ParcelBox,510289,Slavkov,74757,Pod Kuželnou,80,49.92165611,17.837081694
4576837,PPL ParcelBox,532819,Slaný,27401,Pražská,763,50.22906139,14.0927
4323895,PPL ParcelBox,575640,Sezemice,53304,Masarykova,134,50.06647781,15.852907805
4563854,PPL ParcelBox,590029,Smržice,79817,Smržice,541,49.50440861,17.101806111
4560207,PPL ParcelBox,553069,Sezimovo Ústí,39101,Dr. E. Beneše,1145,49.37992639,14.692763111
4556326,PPL ParcelBox,553069,Sezimovo Ústí,39102,nám. Tomáše Bati,424,49.37712419,14.700494388
4327805,PPL ParcelBox,576964,Semily,51301,Bavlnářská,360,50.60717169,15.328404194
4476194,PPL ParcelBox,576964,Semily,51301,Bořkovská,573,50.59874619,15.327224194
4556348,PPL ParcelBox,576964,Semily,51301,Na Mýtě,182/182,50.60218719,15.330776888
4560178,PPL ParcelBox,574481,Studnice,54948,Studnice,131,50.42273189,16.091597805
4493837,PPL ParcelBox,554171,Šenov u Nového Jičína,74242,Dukelská,672,49.60150128,18.006357972
4586827,PPL ParcelBox,505188,Šternberk,78501,Lhotská,2464/19A,49.71751689,17.285835305
4311175,PPL ParcelBox,505188,Šternberk,78501,Nádražní,44426,49.72414969,17.292028305
4455316,PPL ParcelBox,505188,Šternberk,78501,Obchodní,2554-01-01 00:00:00,49.72027769,17.29
4575907,PPL ParcelBox,505188,Šternberk,78501,Průmyslová,2700-03-01 00:00:00,49.71180939,17.292490305
4506916,PPL ParcelBox,505188,Šternberk,78501,Uničovská,2148/98,49.72694439,17.286254388
4440153,PPL ParcelBox,544477,Stráž nad Nisou,46303,Kateřinská,572,50.78968639,15.037011388
4506909,PPL ParcelBox,598739,Stará Ves nad Ondřejnicí,73923,Zámecká,764,49.72622919,18.193082805
4541536,PPL ParcelBox,569569,Světlá nad Sázavou,58291,Komenského,1121,49.67502389,15.404487194
4552524,PPL ParcelBox,569569,Světlá nad Sázavou,58291,Lánecká,597,49.67210969,15.397056388
4384776,PPL ParcelBox,569569,Světlá nad Sázavou,58291,Na Bradle,994/994,49.66930781,15.398413888
4537586,PPL ParcelBox,587931,Stonařov,58833,Stonařov,332,49.28148419,15.585695805
4561248,PPL ParcelBox,540986,Sobotín,78816,Sobotín,248,50.01941719,17.078871388
4535870,PPL ParcelBox,560286,Sokolov,35601,Alšova,1747,50.17443219,12.672380305
4392906,PPL ParcelBox,560286,Sokolov,35601,B. Němcové,2229,50.17679061,12.647315
4567344,PPL ParcelBox,560286,Sokolov,35601,Jiráskova,957,50.1802825,12.648672194
4340144,PPL ParcelBox,560286,Sokolov,35601,K. H. Borovského,2171,50.17683469,12.670578305
4567346,PPL ParcelBox,560286,Sokolov,35601,Kališnická,2265,50.17238439,12.645166111
4579756,PPL ParcelBox,560286,Sokolov,35601,Malé nám.,2270,50.17244561,12.64668
4561010,PPL ParcelBox,560286,Sokolov,35601,M. Majerové,2241,50.17536719,12.668269194
4573914,PPL ParcelBox,572276,Sobětuchy,53701,Sobětuchy,56,49.93408831,15.766987194
4332118,PPL ParcelBox,558371,Starý Plzenec,33202,Nerudova,934,49.6965925,13.474836388
4568628,PPL ParcelBox,510483,Štěpánkovice,74728,Hlavní,227/74,49.95820169,18.036201694
4567304,PPL ParcelBox,563340,Spořice,43101,U Koupaliště,494,50.44520719,13.387830611
4300866,PPL ParcelBox,562092,Stráž pod Ralskem,47127,Revoluční,223,50.70185719,14.803776111
4560205,PPL ParcelBox,596868,Svratka,59202,nám. Nár. povst.,11,49.71078219,16.031284388
4353321,PPL ParcelBox,561215,Stříbro,34901,Gagarinova,1345,49.75901311,13.006617194
4506138,PPL ParcelBox,561215,Stříbro,34901,Třída 5. května,,49.75362219,12.990609694
4545726,PPL ParcelBox,557153,Sušice,34201,Hrádecká,1310,49.24101111,13.521688611
4325197,PPL ParcelBox,557153,Sušice,34201,Nádražní,1375,49.23737361,13.524475305
4558686,PPL ParcelBox,596884,Štěpánov nad Svratkou,59263,Štěpánov nad Svratkou,13,49.50517281,16.340246388
4304157,PPL ParcelBox,586625,Svatobořice-Mistřín,69604,Hlavní,1164/206,48.97350469,17.083743305
4581397,PPL ParcelBox,565709,Štětí,41108,Cihelná,698,50.45596581,14.370875805
4576598,PPL ParcelBox,599905,Starý Jičín,74231,Starý Jičín,96,49.57719831,17.963003888
4436433,PPL ParcelBox,550787,Strakonice,38601,Mírová,43/43,49.26390031,13.895266694
4567310,PPL ParcelBox,562823,Staré Křečany,40761,Staré Křečany,555,50.94843389,14.493928611
4301819,PPL ParcelBox,550787,Strakonice,38601,Tovární,10,49.25145861,13.911603888
4568236,PPL ParcelBox,550752,Staré Město,68603,Hradišťská,1955,49.07539311,17.447063611
4359037,PPL ParcelBox,550752,Staré Město,68603,Východní,2063,49.076985,17.455665305
4496072,PPL ParcelBox,510491,Štítina,74791,Hlavní,68,49.91275139,18.009475305
4482530,PPL ParcelBox,532860,Stochov,27303,Osvobození,540,50.14464922,13.965767416
4718456,PPL ParcelBox,545139,Štěpánovice,37373,Nad Rybníkem,33,49.00141361,14.652801111
4504124,PPL ParcelBox,560162,Strašice,33845,Strašice,40,49.73616469,13.756116388
4425705,PPL ParcelBox,593583,Slavkov u Brna,68401,Polní,1465,49.15078419,16.881027194
4544676,PPL ParcelBox,523704,Šumperk,78701,Dr. E. Beneše,2871-05-01 00:00:00,49.9646625,16.9748725
4548317,PPL ParcelBox,523704,Šumperk,78701,Gen. Krátkého,3,49.97124,16.9762525
4324124,PPL ParcelBox,523704,Šumperk,78701,Lidická,610/51,49.9647625,16.9861
4538055,PPL ParcelBox,523704,Šumperk,78701,nám. Republiky,2600-07-01 00:00:00,49.96798531,16.968800805
4540733,PPL ParcelBox,523704,Šumperk,78701,Temenická,2779/85,49.97458419,16.957406694
4538056,PPL ParcelBox,523704,Šumperk,78701,Uničovská,1785/32,49.95909311,16.986668888
4584219,PPL ParcelBox,523704,Šumperk,78701,Vítězná,3188-09-01 00:00:00,49.97617531,16.977407194
4688368,PPL ParcelBox,523704,Šumperk,78701,Zábřežská,1815/19,49.96260189,16.964738611
4548307,PPL ParcelBox,523704,Šumperk,78701,Žerotínova,2833/46,49.95762781,16.973525
4561247,PPL ParcelBox,541109,Sudkov,78821,Sudkov,157,49.91528689,16.941650305
4299158,PPL ParcelBox,585777,Slušovice,76315,Dostihová,653,49.25408139,17.800370611
4561196,PPL ParcelBox,558435,Štěnovice,33209,Plzeňská,42,49.67348111,13.395388888
4326981,PPL ParcelBox,500496,Olomouc,77900,Horní lán,1196/9,49.5751675,17.231497805
4430513,PPL ParcelBox,577731,Svitavy,56802,Nerudova,193/2,49.75537031,16.466800611
4490081,PPL ParcelBox,577731,Svitavy,56802,Riegrova,1624,49.75982139,16.460799194
4388359,PPL ParcelBox,577731,Svitavy,56802,Richarda Kloudy,1639/6,49.7555275,16.462691388
4494970,PPL ParcelBox,577731,Svitavy,56802,U Tří mostů,969/9,49.75392781,16.483076
4583482,PPL ParcelBox,583936,Syrovice,66467,Syrovice,274,49.07977689,16.548878111
4576273,PPL ParcelBox,585793,Spytihněv,76364,Spytihněv,,49.14102061,17.498390611
4504046,PPL ParcelBox,563811,Smržovka,46851,Husova,539/539,50.73855111,15.2454175
4307978,PPL ParcelBox,586587,Strážnice,69662,Skalická,730,48.88979439,17.293788111
4718924,PPL ParcelBox,534382,Sázava,28506,Poznaňská,496,49.87854311,14.905433888
4299989,PPL ParcelBox,534382,Sázava,28506,Průmyslová,332,49.87247219,14.887474194
4411569,PPL ParcelBox,590266,Třebíč,67401,Dělnické nám.,847/3,49.20985719,15.865653888
4545526,PPL ParcelBox,545309,Kožichovice,67401,Hrotovická,160,49.21022139,15.894450805
4541693,PPL ParcelBox,545309,Kožichovice,67401,Hrotovická,1202/27,49.20809611,15.894903888
4352906,PPL ParcelBox,590266,Třebíč,67401,Modřínová,600/1,49.21863581,15.892068111
4388360,PPL ParcelBox,590266,Třebíč,67401,Purkyňovo nám.,86/86,49.212445,15.890824194
4566951,PPL ParcelBox,590266,Třebíč,67401,Tomáše Bati,1090,49.20655611,15.858002805
4341036,PPL ParcelBox,590266,Třebíč,67401,Znojemská,1235/29,49.20654719,15.886893111
4552549,PPL ParcelBox,581071,Třebovice,56124,Třebovice,187,49.8577575,16.501864388
4276457,PPL ParcelBox,584029,Troubsko,66441,Jihlavská,700/21,49.17749719,16.497876694
4556327,PPL ParcelBox,547336,Třeboň,37901,Nádražní,641,49.01190719,14.758894694
4539366,PPL ParcelBox,547336,Třeboň,37901,Svobody,1029,49.00389081,14.760863611
4309606,PPL ParcelBox,552046,Tábor,39005,Helsinská,2760/18,49.385425,14.688111388
4492420,PPL ParcelBox,552046,Tábor,39002,Chýnovská,3192,49.40962061,14.686988611
4297349,PPL ParcelBox,552046,Tábor,39003,Kpt. Jaroše,2960,49.41914189,14.649939694
4579910,PPL ParcelBox,552046,Tábor,39002,Pionýrů,226,49.42478581,14.679717805
4542838,PPL ParcelBox,552046,Tábor,39005,Soběslavská,3046,49.38927689,14.691990805
4337315,PPL ParcelBox,552046,Tábor,39002,Soběslavská,2399,49.403661,14.685289888
4486973,PPL ParcelBox,552046,Tábor,39002,Soběslavská,3038,49.39664861,14.685758305
4353207,PPL ParcelBox,552046,Tábor,39003,Václava Soumara 2300 lok.18 unut,8,49.42324,14.651237194
4560204,PPL ParcelBox,539759,Třebotov,25226,V Zálesí,303,49.97574281,14.306584388
4563849,PPL ParcelBox,519651,Troubky,75102,Sportovní,744/3,49.42790611,17.342188611
4425704,PPL ParcelBox,590266,Třebíč,67401,Táborská,111/1,49.22356811,15.871407194
4455978,PPL ParcelBox,567442,Teplice,41501,Antonína Sochora,1870,50.64777811,13.853335611
4556353,PPL ParcelBox,567442,Teplice,41510,Bohosudovská,29,50.66166861,13.854066888
4303701,PPL ParcelBox,567442,Teplice,41501,Březová,3040,50.62345889,13.820161388
4457923,PPL ParcelBox,567442,Teplice,41503,Buzulucká,472,50.63483811,13.803591388
4584206,PPL ParcelBox,567442,Teplice,41501,Doubravická,1691,50.64346169,13.857111388
4571003,PPL ParcelBox,567442,Teplice,41501,Duchcovská,3132,50.63636781,13.8161075
4587730,PPL ParcelBox,567442,Teplice,41503,Stará Duchcovská,242/90,50.63888581,13.803630611
4584218,PPL ParcelBox,567442,Teplice,41501,Gagarinova,1423,50.65386831,13.854608111
4395190,PPL ParcelBox,567442,Teplice,41501,Gen. Svobody,1461,50.65697219,13.838400805
4332117,PPL ParcelBox,567442,Teplice,41501,Hrázní,1897,50.64914,13.835261388
4540696,PPL ParcelBox,567442,Teplice,41501,Maršovská,1539/3,50.65740139,13.845452194
4536565,PPL ParcelBox,567442,Teplice,41501,Nákladní,3201,50.64548361,13.822627194
4390778,PPL ParcelBox,567442,Teplice,41501,nám. Svobody,3316,50.63954061,13.824034388
4303700,PPL ParcelBox,567442,Teplice,41501,Pražská,300,50.6335,13.847137805
4575236,PPL ParcelBox,567442,Teplice,41501,Svahová,1698,50.64776389,13.8191875
4494424,PPL ParcelBox,588032,Třešť,58901,Revoluční,1206/6,49.29037939,15.48286
4560179,PPL ParcelBox,538892,Tehov,25101,Svatoján. náves,3,49.97080611,14.693015805
4325173,PPL ParcelBox,545171,Trhové Sviny,37401,Budovatelská,916,48.83996361,14.642819388
4358170,PPL ParcelBox,560715,Tachov,34701,Hornická,1449,49.79953469,12.626044694
4554005,PPL ParcelBox,560715,Tachov,34701,Oldřichovská,1437,49.7919375,12.662507805
4394175,PPL ParcelBox,560715,Tachov,34701,Sokolovská,2164,49.80307389,12.640386111
4568241,PPL ParcelBox,599956,Tichá,74274,Tichá,444,49.57100439,18.221443111
4588529,PPL ParcelBox,584002,Tišnov,66601,Dlouhá,1981,49.35103781,16.433942194
4302007,PPL ParcelBox,584002,Tišnov,66601,Dřínová,1683,49.35437689,16.425147194
4560177,PPL ParcelBox,584002,Tišnov,66601,Dvořákova,314,49.34818939,16.429362194
4555952,PPL ParcelBox,584002,Tišnov,66601,Horova,958,49.34141611,16.4325
4329721,PPL ParcelBox,584002,Tišnov,66601,Za Mlýnem,458,49.34159419,16.417727805
4426161,PPL ParcelBox,588024,Telč,58856,Dačická,613,49.17316061,15.4566
4276456,PPL ParcelBox,583979,Telnice,66459,Draha,110,49.09582031,16.716006388
4541544,PPL ParcelBox,572411,Třemošnice,53843,Náměstí Míru,353,49.86919861,15.5811375
4539190,PPL ParcelBox,585858,Tlumačov,76362,Nádražní,852,49.25379831,17.497687805
4556333,PPL ParcelBox,591840,Trnava,67401,Trnava,186,49.25416969,15.923351111
4455113,PPL ParcelBox,598810,Třinec,73961,Dukelská,1137,49.66686189,18.677911111
4456958,PPL ParcelBox,598810,Třinec,73961,nám. Svobody,527,49.66944061,18.675423888
4547067,PPL ParcelBox,598810,Třinec,73961,Nebory,613/613,49.67564669,18.618571888
4384618,PPL ParcelBox,598810,Třinec,73961,Sosnová,411,49.67876939,18.685537805
4548310,PPL ParcelBox,598810,Třinec,73961,Staré Město,1019,49.67145061,18.669628111
4452859,PPL ParcelBox,576859,Týniště nad Orlicí,51721,Mostecká,1063,50.14847669,16.068105
4579563,PPL ParcelBox,530841,Týnec nad Sázavou,25742,Chrást nad Sázavou,243,49.8467225,14.553798611
4390322,PPL ParcelBox,545201,Týn nad Vltavou,37501,Hlinecká,745,49.22611919,14.427156388
4325195,PPL ParcelBox,545201,Týn nad Vltavou,37501,Orlická,555,49.21760561,14.418699194
4569219,PPL ParcelBox,545201,Týn nad Vltavou,37501,Průmyslová,643,49.21543581,14.419908611
4550019,PPL ParcelBox,532983,Tuchlovice,27302,Náměstí,34,50.13812219,13.989624694
4568000,PPL ParcelBox,592692,Topolná,68711,Topolná,204,49.12126469,17.540392805
4504847,PPL ParcelBox,571041,Třebechovice pod Orebem,50346,Přemyslova,661,50.20124781,15.991709694
4328617,PPL ParcelBox,579025,Trutnov,54102,Horská,696,50.57789419,15.894254194
4552533,PPL ParcelBox,579025,Trutnov,54101,Maxima Gorkého,453,50.56040689,15.927000805
4472308,PPL ParcelBox,579025,Trutnov,54101,Polská,367,50.56568189,15.924819194
4341005,PPL ParcelBox,579025,Trutnov,54101,Za Cihelnou,533,50.56311689,15.897936111
4300864,PPL ParcelBox,577626,Turnov,51101,Alešova,1865,50.59123389,15.139234694
4495348,PPL ParcelBox,577626,Turnov,51101,Sobotecká,580,50.58006781,15.151795611
4553984,PPL ParcelBox,535222,Tišice,27715,Marie Podvalové,334,50.26051281,14.5578475
4440161,PPL ParcelBox,555657,Toužim,36401,Malé nám.,469,50.06053939,12.987100611
4556359,PPL ParcelBox,563820,Tanvald,46841,Palackého,545,50.73702,15.298213305
4299622,PPL ParcelBox,584045,Újezd u Brna,66453,Nádražní,364,49.10563719,16.752793111
4307389,PPL ParcelBox,592731,Uherský Brod,68801,Dolní valy,631,49.02454081,17.650816888
4392570,PPL ParcelBox,592731,Uherský Brod,68801,Močidla,2873,49.02553419,17.660770305
4720623,PPL ParcelBox,592731,Uherský Brod,68801,Na Láně,2009,49.03026919,17.635936694
4389822,PPL ParcelBox,592731,Uherský Brod,68801,Vlčnovská,2462,49.02102419,17.645743
4574882,PPL ParcelBox,592005,Uherské Hradiště,68601,Na Rybníku,973,49.06887639,17.475221888
4483346,PPL ParcelBox,592005,Uherské Hradiště,68601,Obchodní,1300,49.07019439,17.463713111
4334611,PPL ParcelBox,592005,Uherské Hradiště,68605,Sadová,1368,49.05806439,17.479790805
4579558,PPL ParcelBox,533017,Unhošť,27351,Pražská,836,50.08553689,14.132441694
4561243,PPL ParcelBox,505501,Újezd,78396,Újezd,78,49.76532831,17.179421111
4472191,PPL ParcelBox,505587,Uničov,78391,Dukelská,1157,49.77130689,17.115049194
4504862,PPL ParcelBox,505587,Uničov,78391,Litovelská,1279,49.76467781,17.111496111
4270637,PPL ParcelBox,505587,Uničov,78391,Šumperská,530,49.77740469,17.122569694
4572502,PPL ParcelBox,554804,Ústí nad Labem,40007,Čechova,772/2,50.66915611,14.095617805
4569190,PPL ParcelBox,554804,Ústí nad Labem,40001,Dukel. hrdinů,779/779,50.68718139,14.001164194
4544472,PPL ParcelBox,554804,Ústí nad Labem,40010,Havířská,354,50.68787719,13.985291388
4300364,PPL ParcelBox,554804,Ústí nad Labem,40011,Hornická,2515-11-01 00:00:00,50.67272831,14.028696111
4569194,PPL ParcelBox,554804,Ústí nad Labem,40011,Jana Zajíce,2884/19,50.68456419,14.023335611
4572499,PPL ParcelBox,554804,Ústí nad Labem,40001,Klíšská,996/135,50.66689719,14.013966111
4482089,PPL ParcelBox,554804,Ústí nad Labem,40011,Krušnohorská,2890-07-01 00:00:00,50.67688139,14.031120305
4566276,PPL ParcelBox,554804,Ústí nad Labem,40011,Ladova,2548/38,50.67921719,14.028813305
4566279,PPL ParcelBox,554804,Ústí nad Labem,40011,Maková,2801-01-01 00:00:00,50.68124061,14.033766388
4566280,PPL ParcelBox,554804,Ústí nad Labem,40011,Malátova,2446/16,50.67237139,14.040996888
4393834,PPL ParcelBox,554804,Ústí nad Labem,40001,Masarykova,974/232,50.67761,14.013596694
4476857,PPL ParcelBox,554804,Ústí nad Labem,40011,Mírová,2700,50.68234419,14.026954694
4300365,PPL ParcelBox,554804,Ústí nad Labem,40003,Novosedlické nám.,1239/2,50.64977861,14.059344388
4572503,PPL ParcelBox,554804,Ústí nad Labem,40007,Obvodová,732/20,50.66963281,14.092066888
4457918,PPL ParcelBox,554804,Ústí nad Labem,40331,Peškova,504,50.67939469,14.103403888
4544468,PPL ParcelBox,554804,Ústí nad Labem,40331,Seifertova,574,50.67562611,14.109002194
4572497,PPL ParcelBox,554804,Ústí nad Labem,40331,Seifertova,398/398,50.67412139,14.106923305
4482542,PPL ParcelBox,554804,Ústí nad Labem,40011,SNP,2379/24,50.66797561,14.040349194
4572498,PPL ParcelBox,554804,Ústí nad Labem,40011,Špálova,2684-01-01 00:00:00,50.67756811,14.029195611
4431041,PPL ParcelBox,554804,Ústí nad Labem,40011,Šrámkova,3218/22,50.67465939,14.057943111
4572501,PPL ParcelBox,554804,Ústí nad Labem,40003,Tolstého,39/41,50.64787,14.05563
4538579,PPL ParcelBox,553697,Trmice,40004,Tyršova,,50.65153669,14.003273888
4473168,PPL ParcelBox,554804,Ústí nad Labem,40007,U Pivovarské zahrady,794/7,50.66840689,14.075791694
4569193,PPL ParcelBox,554804,Ústí nad Labem,40007,Vojanova,606/35,50.67032061,14.065475805
4453583,PPL ParcelBox,554804,Ústí nad Labem,40001,Žižkova,3363/78,50.65111111,14.012222194
4570997,PPL ParcelBox,554804,Ústí nad Labem,40001,Žižkova,3500/24,50.65463169,14.028108611
4476192,PPL ParcelBox,579891,Ústí nad Orlicí,56201,Cihlářská,,49.979,16.402546888
4454145,PPL ParcelBox,579891,Ústí nad Orlicí,56201,Dukelská,332,49.96662061,16.409729388
4418745,PPL ParcelBox,579891,Ústí nad Orlicí,56204,Lochmanova,1440,49.97679419,16.395976111
4578229,PPL ParcelBox,554782,Praha,10400,K Netlukám,,50.0326975,14.609308111
4562824,PPL ParcelBox,559563,Úněšov,33038,Úněšov,34,49.88258531,13.149638305
4545543,PPL ParcelBox,584100,Veverská Bítýška,66471,Boční,620,49.27723031,16.435350305
4561216,PPL ParcelBox,505609,Velká Bystřice,78353,Zámecké náměstí,79,49.59093389,17.350203611
4566955,PPL ParcelBox,596973,Velká Bíteš,59501,Vlkovská,608,49.29684919,16.218713611
4360060,PPL ParcelBox,596973,Velká Bíteš,59501,Vlkovská,,49.29592269,16.219036694
4555941,PPL ParcelBox,590185,Vrbátky,79813,Vrbátky,68,49.50843861,17.200113305
4718926,PPL ParcelBox,545228,Včelná,37382,Jiřičkova,663,48.92819361,14.457563611
4549810,PPL ParcelBox,550621,Vacov,38486,Vacov,136,49.13615561,13.729428111
4588302,PPL ParcelBox,545198,Vidče,75653,Vidče,96,49.4410475,18.094585611
4570546,PPL ParcelBox,554928,Vendryně,73994,Vendryně,928,49.65517969,18.696368111
4506721,PPL ParcelBox,551953,Vodňany,38901,Budějovická,672,49.14289311,14.182324388
4305115,PPL ParcelBox,551953,Vodňany,38901,Dr. Hajného,1285,49.14781561,14.181133111
4549809,PPL ParcelBox,551953,Vodňany,38901,Výstavní,1266,49.14192969,14.174902805
4572820,PPL ParcelBox,585921,Veselá,76315,Veselá,17,49.23603389,17.775185805
4298334,PPL ParcelBox,533831,Velim,28101,Palackého,544,50.06340111,15.121900611
4553205,PPL ParcelBox,597007,Velké Meziříčí,59401,Družstevní,1435/2A,49.352605,16.0102475
4581547,PPL ParcelBox,545821,Velešín,38232,Sídliště,531,48.83079811,14.457746888
4568636,PPL ParcelBox,510891,Velké Heraltice,74775,Opavská,32,49.9747125,17.729020805
4504031,PPL ParcelBox,563838,Velké Hamry,46845,Velké Hamry,402,50.71745939,15.315541694
4566961,PPL ParcelBox,595071,Višňové,67138,Višňové,296,48.98116689,16.150754694
4541682,PPL ParcelBox,559580,Vejprnice,33027,Křimická,508,49.73277061,13.279271694
4567766,PPL ParcelBox,545163,Velké Karlovice,75606,Velké Karlovice,906,49.36360939,18.301710611
4542987,PPL ParcelBox,511021,Vítkov,74901,Komenského,127,49.77720581,17.754280305
4506908,PPL ParcelBox,511021,Vítkov,74901,Opavská,950,49.78017689,17.755053111
4546882,PPL ParcelBox,585891,Valašské Klobouky,76601,Cyrilometodějská,772,49.14256939,18.012811388
4580104,PPL ParcelBox,585891,Valašské Klobouky,76601,Masarykovo nám.,53,49.1401475,18.0059475
4572517,PPL ParcelBox,592790,Velehrad,68706,Salašská,269,49.10537969,17.394920611
4418628,PPL ParcelBox,579858,Vrchlabí,54301,Fügnerova,572/572,50.62321669,15.610766111
4570265,PPL ParcelBox,579858,Vrchlabí,54301,Lánovská,464,50.62101889,15.623000805
4552526,PPL ParcelBox,530883,Vlašim,25801,Lidická,1792/1792,49.70088719,14.899736388
4296870,PPL ParcelBox,530883,Vlašim,25801,Vlasákova,2034,49.71346639,14.907176111
4411563,PPL ParcelBox,530883,Vlašim,25801,Okružní,1884,49.70029811,14.906689694
4487130,PPL ParcelBox,545821,Velešín,38232,Budějovická,400,48.83003439,14.462369194
4568001,PPL ParcelBox,585971,Všemina,76315,Všemina,,49.27740811,17.860546888000002
4424234,PPL ParcelBox,545058,Valašské Meziříčí,75701,Křižná,184,49.473145,17.965778111
4495093,PPL ParcelBox,545058,Valašské Meziříčí,75701,Masarykova,671/33,49.48445528,17.963837777
4575906,PPL ParcelBox,545058,Valašské Meziříčí,75701,Nádražní,929,49.47455919,17.963355611
4389821,PPL ParcelBox,545058,Valašské Meziříčí,75701,Na Tržnici,758,49.47417669,17.973245805
4674638,PPL ParcelBox,545058,Valašské Meziříčí,75701,Sokolská,143/143,49.47075919,17.968215
4567993,PPL ParcelBox,545058,Valašské Meziříčí,75701,Štěpánov,728,49.46463389,17.981118111
4421675,PPL ParcelBox,545058,Valašské Meziříčí,75701,Zašovská,236,49.47628189,17.980331111
4560189,PPL ParcelBox,576883,Vamberk,51754,Dvořákova,48,50.11401439,16.275521888
4341302,PPL ParcelBox,576883,Vamberk,51754,Jiráskova,412,50.11491581,16.298365
4588556,PPL ParcelBox,586722,Veselí nad Moravou,69801,tř. Masarykova,1663,48.94412,17.371427194
4338482,PPL ParcelBox,562882,Varnsdorf,40747,Kmochova,2369,50.90741281,14.619431388
4492431,PPL ParcelBox,562882,Varnsdorf,40747,Legií,2772,50.91174331,14.625803305
4575238,PPL ParcelBox,562882,Varnsdorf,40747,Žitavská,857,50.90580831,14.633310611
4302006,PPL ParcelBox,553271,Veselí nad Lužnicí,39181,Ak. Bydžovského,553,49.18176561,14.695870305
4538022,PPL ParcelBox,553271,Veselí nad Lužnicí,39181,J. V. Sládka,699,49.19523939,14.7147975
4301367,PPL ParcelBox,586722,Veselí nad Moravou,69801,Hutník,1503,48.95469331,17.392613305
4304156,PPL ParcelBox,586722,Veselí nad Moravou,69801,Chaloupky,1755,48.95439919,17.385305805
4441032,PPL ParcelBox,592820,Vlčnov,68761,Vlčnov,1035,49.01052139,17.581071694
4486963,PPL ParcelBox,533840,Velký Osek,28151,Komenského,,50.09986669,15.1878725
4273405,PPL ParcelBox,582646,Velké Opatovice,67963,nám. Míru,519,49.61128689,16.680438888
4549672,PPL ParcelBox,582646,Velké Opatovice,67963,Pod Strážnicí,667,49.61399281,16.673556888
4533991,PPL ParcelBox,547646,Velké Poříčí,54932,Náměstí,563,50.46106939,16.189600805
4353320,PPL ParcelBox,550647,Vimperk,38501,1. máje,200,49.05889,13.78359
4549817,PPL ParcelBox,550647,Vimperk,38501,K. Weise,668,49.05545311,13.783886388
4391491,PPL ParcelBox,550647,Vimperk,38501,Mírová,469,49.06086719,13.775656888
4583953,PPL ParcelBox,586765,Vracov,69642,Drahy,402,48.97471969,17.206541888
4566288,PPL ParcelBox,562921,Verneřice,40725,Mírové nám.,141,50.66152531,14.302325
4556341,PPL ParcelBox,534587,Vrdy,28571,Čáslavská,14,49.92756861,15.449333805
4552560,PPL ParcelBox,534587,Vrdy,28571,Chrudimská,284,49.92590781,15.458908111
4587763,PPL ParcelBox,563404,Vejprty,43191,Moskevská,1243,50.49144469,13.028915305
4535741,PPL ParcelBox,500291,Vřesina,74285,Osvobození,294/294,49.8268525,18.127740805
4585914,PPL ParcelBox,545848,Vyšší Brod,38273,Míru,344,48.61884669,14.309754194
4476191,PPL ParcelBox,581186,Vysoké Mýto,56601,Dráby,936,49.94333331,16.166666611
4352892,PPL ParcelBox,581186,Vysoké Mýto,56601,Ležáků,722,49.94448331,16.150185305
4472333,PPL ParcelBox,581186,Vysoké Mýto,56601,Pivovarská,524,49.95174781,16.1456275
4579188,PPL ParcelBox,541630,Vsetín,75501,Bratří Hlaviců,78/78,49.33637581,18.003095
4547066,PPL ParcelBox,541630,Vsetín,75501,Dolní Jasenka,873,49.34840111,17.996783611
4452853,PPL ParcelBox,541630,Vsetín,75501,Jasenická,1795,49.33440831,18.012837194
4556365,PPL ParcelBox,541630,Vsetín,75501,Jiráskova,2062,49.34155439,17.98723
4567971,PPL ParcelBox,541630,Vsetín,75501,Mostecká,364,49.34034531,17.992314694
4506914,PPL ParcelBox,541630,Vsetín,75501,Okružní,204,49.33248081,17.9895325
4452852,PPL ParcelBox,541630,Vsetín,75501,Školní,1880,49.33987919,17.989511111
4567976,PPL ParcelBox,541630,Vsetín,75501,Tyršova,1434,49.33711139,17.997750805
4548473,PPL ParcelBox,562912,Velký Šenov,40778,Mírové nám.,567,50.99150311,14.378601694
4575895,PPL ParcelBox,530905,Votice,25901,Husova,471,49.63824639,14.6366925
4560194,PPL ParcelBox,545830,Větřní,38211,Šumavská,284,48.77520139,14.288988111
4584215,PPL ParcelBox,505650,Velký Týnec,78372,Grygovská,,49.54755081,17.331193111
4538047,PPL ParcelBox,505650,Velký Týnec,78372,Sokolská,438,49.5515525,17.333968305
4538548,PPL ParcelBox,598879,Vratimov,73932,Strmá,900/7,49.76867219,18.312463888
4569204,PPL ParcelBox,505668,Velký Újezd,78355,Olomoucká,138,49.5782875,17.481
4562825,PPL ParcelBox,559628,Všeruby,33016,Všeruby,2,49.84214331,13.229488305
4274772,PPL ParcelBox,584100,Veverská Bítýška,66471,Na Bítýškách,593,49.27019639,16.433202805
4506139,PPL ParcelBox,586714,Velká nad Veličkou,69674,Velká nad Veličkou,586,48.87977189,17.514594
4494023,PPL ParcelBox,551970,Volyně,38701,nám. Svobody,36,49.16535189,13.886379388
4586300,PPL ParcelBox,571113,Vysoká nad Labem,50331,Vysoká nad Labem,22,50.15387469,15.824155805
4474889,PPL ParcelBox,592889,Vyškov,68201,Brněnská,514/13c,49.27297581,16.992683611
4494941,PPL ParcelBox,592889,Vyškov,68201,Hybešova,643,49.28109531,17.008126388
4561242,PPL ParcelBox,592889,Vyškov,68201,Maxima Gorkého,554,49.27871669,16.983225805
4561218,PPL ParcelBox,592889,Vyškov,68201,Puškinova,419,49.27652611,16.98294
4532049,PPL ParcelBox,592889,Vyškov,68201,Sportovní,648/1,49.28077469,16.999144694
4496080,PPL ParcelBox,585939,Vizovice,76312,Vizovice,394,49.22127189,17.847675305
4419491,PPL ParcelBox,541354,Zábřeh,78901,Československé armády,861/28,49.87673361,16.885631111
4559795,PPL ParcelBox,541354,Zábřeh,78901,Na Hejtmance,5,49.8848,16.88122
4298101,PPL ParcelBox,560260,Zbiroh,33808,Zámostí,422,49.86095531,13.776456388
4482526,PPL ParcelBox,545252,Zubří,75654,Hlavní,1114,49.46391639,18.091338111
4567755,PPL ParcelBox,581259,Žamberk,56401,U Polikliniky,1134,50.08431719,16.461515
4556343,PPL ParcelBox,584215,Zbraslav,66484,Šlapalova,364,49.22182281,16.291955305
4566271,PPL ParcelBox,584231,Žabčice,66463,Nádražní,303,49.01264969,16.600215
4489710,PPL ParcelBox,539058,Zdiby,25066,Soběslav.nám.,,50.16896,14.427301388
4568216,PPL ParcelBox,592862,Zlechov,68710,Zlechov,450,49.07311331,17.381208611
4688370,PPL ParcelBox,597996,Zlaté Hory,79376,Krnovská,148,50.26115419,17.397546694
4538557,PPL ParcelBox,591998,Želetava,67526,nám. Míru,157,49.14251781,15.67247
4576585,PPL ParcelBox,585068,Zlín,76001,Anenská,,49.21164969,17.701688111
4392552,PPL ParcelBox,585068,Zlín,76001,nám. Míru,5469,49.227205,17.666417805000002
4569878,PPL ParcelBox,585068,Zlín,76005,Česká,5384,49.24352169,17.667443888
4496641,PPL ParcelBox,585068,Zlín,76001,Ke Křibům,5019,49.20132389,17.6551575
4323893,PPL ParcelBox,585068,Zlín,76005,Křiby,4718,49.24035469,17.6654425
4403823,PPL ParcelBox,585068,Zlín,76001,Kúty,4345,49.23142311,17.679629694
4352895,PPL ParcelBox,585068,Zlín,76001,L. Váchy,517,49.21728061,17.633503888
4310874,PPL ParcelBox,585068,Zlín,76001,Mokrá II,353,49.23993689,17.652786888
4504853,PPL ParcelBox,585068,Zlín,76005,Na Honech I,5541,49.23578689,17.670313111
4718946,PPL ParcelBox,585068,Zlín,76001,nám. Práce,2512,49.22123419,17.661425611
4439079,PPL ParcelBox,585068,Zlín,76001,Prostřední,516,49.22243939,17.6858425
4494530,PPL ParcelBox,585068,Zlín,76001,Příluky,,49.22280361,17.71868
4311509,PPL ParcelBox,585068,Zlín,76001,Štefánikova,477,49.22433611,17.689957194
4455110,PPL ParcelBox,585068,Zlín,76302,tř. Svobody,1244,49.20534811,17.583978888
4439078,PPL ParcelBox,585068,Zlín,76001,tř. Tomáše Bati,87,49.22573669,17.6753725
4567998,PPL ParcelBox,585068,Zlín,76001,tř. Tomáše Bati,165,49.2191225,17.639186888
4311349,PPL ParcelBox,585068,Zlín,76302,tř. Tomáše Bati,468,49.21339,17.614718888
4567743,PPL ParcelBox,585068,Zlín,76302,tř. Tomáše Bati,399,49.2136725,17.611803305
4453587,PPL ParcelBox,585068,Zlín,76302,tř. 3. května,1198,49.20406389,17.564465
4546883,PPL ParcelBox,585068,Zlín,76001,Tyršovo nábř.,69,49.23015331,17.668782194
4540502,PPL ParcelBox,585068,Zlín,76001,U Zimního stadionu,4286,49.21891281,17.659587805
4575887,PPL ParcelBox,585068,Zlín,76001,Václavská,118,49.20044811,17.686062194
4330042,PPL ParcelBox,585068,Zlín,76001,Vršava I,4975,49.24118139,17.688709388
4361817,PPL ParcelBox,585068,Zlín,76302,Zahradní,973,49.20700439,17.592942805
4491883,PPL ParcelBox,545341,Zliv,37344,Dolní nám.,572,49.06338189,14.366033111
4552548,PPL ParcelBox,581259,Žamberk,56401,Nádražní,1135,50.07541531,16.45945
4556344,PPL ParcelBox,533921,Zásmuky,28144,Dukelská,548,49.95246439,15.036301111
4505989,PPL ParcelBox,569780,Ždírec nad Doubravou,58263,Brodská,25,49.69937639,15.814906388
4540507,PPL ParcelBox,533114,Zlonice,27371,Dvořákova,242,50.2870575,14.092171388
4421261,PPL ParcelBox,593711,Znojmo,67182,Dobšická,17,48.85226781,16.077459388
4299987,PPL ParcelBox,593711,Znojmo,66902,Mičurinova,3620-02-01 00:00:00,48.86249781,16.043850305
4299888,PPL ParcelBox,593711,Znojmo,66904,Pod Svatým Janem,419/2,48.87743531,16.038821111
4488419,PPL ParcelBox,593711,Znojmo,66902,Přímětická,1812,48.86686439,16.044563611
4566972,PPL ParcelBox,593711,Znojmo,66902,Suchohrdelská,,48.85653169,16.072454388
4340150,PPL ParcelBox,595209,Žďár nad Sázavou,59102,Bezručova,39/4,49.57603581,15.937580305
4442021,PPL ParcelBox,595209,Žďár nad Sázavou,59101,Bří Čapků,1114/2,49.56318861,15.946509388
4583478,PPL ParcelBox,595209,Žďár nad Sázavou,59101,Brodská,1835/10,49.56372689,15.931671388
4310464,PPL ParcelBox,595209,Žďár nad Sázavou,59101,Okružní,968/79,49.56249689,15.93036
4560883,PPL ParcelBox,597007,Velké Meziříčí,59401,Za Horou,2243-01-01 00:00:00,49.35864389,15.990080611
4558691,PPL ParcelBox,595209,Žďár nad Sázavou,59101,Žitná,1084,49.57090469,15.946553305
4722782,PPL ParcelBox,584282,Židlochovice,66701,Masarykova,521,49.04388561,16.616269694
4506368,PPL ParcelBox,584282,Židlochovice,66701,nám. Míru,153,49.03773419,16.617605305
4561014,PPL ParcelBox,534633,Zruč nad Sázavou,28522,1. máje,1043,49.74641561,15.099082194
4556339,PPL ParcelBox,534633,Zruč nad Sázavou,28522,nám. Míru,594,49.74337889,15.089468888
4545724,PPL ParcelBox,566985,Žatec,43801,Husova,3078,50.31435831,13.533329194
4329533,PPL ParcelBox,566985,Žatec,43801,nám. Kruhové,3233,50.32758939,13.546361888
4568775,PPL ParcelBox,566985,Žatec,43801,Podměstí,2126,50.33082611,13.538681111
4544165,PPL ParcelBox,566985,Žatec,43801,Stavbařů,2811,50.31519719,13.543537194
4535760,PPL ParcelBox,555762,Žlutice,36452,Purkyňova,114,50.09038561,13.163290611
4540498,PPL ParcelBox,584223,Zbýšov,66411,Oslavanská,225,49.15331311,16.34977