ID ,name,city_code,city,zip_code,street,house_NO,latitude ,longtitude
1,DPD box,554782,Praha,14000,Nuselská,20,50.0629292,14.4435808
2,DPD box,554821,Ostrava,71300,Orlovská,803/162,49.8634858,18.3220972
3,DPD box,567442,Teplice,41510,Srbice,-,50.6590081,13.8655006
4,DPD box,554782,Praha,19000,Dvořišťská,964,50.095012,14.540466
5,DPD box,563889,Liberec,46001,Londýnská,507/35,50.7744861,15.0391608
6,DPD box,554782,Praha,19300,Náchodská,2479/63,50.113598,14.600117
7,DPD box,554782,Praha,10600,Jesenická,228/46,50.057924,14.49221
8,DPD box,563889,Liberec,46007,Dr. Milady Horákové,561,50.7530408,15.0551856
9,DPD box,539856,Všenory,25231,Květoslava Mašity,246,49.92652271,14.30307885
10,DPD box,554782,Praha,17000,Kostelní,1300/44,50.0972056,14.4223847
11,DPD box,554782,Praha,19800,Laponská,4,50.10807056,14.52564751
12,DPD box,539325,Jesenice,25242,Ve Dvoře,807,49.9685089,14.5152239
13,DPD box,582786,Brno,66442,U Dálnice,777,49.1386508,16.6338381
14,DPD box,554782,Praha,19900,Rýmařovská,561,50.135655,14.51026
15,DPD box,554782,Praha,10000,Pod Altánem,2406,50.069574,14.489395
16,DPD box,554782,Praha,15500,Plzeňská,1110/21,50.061333,14.309116
17,DPD box,554782,Praha,19000,Nad Šestikopy,812/4,50.117276,14.496297
18,DPD box,582786,Brno,61900,Vídeňská,132/100,49.15492,16.597842
19,DPD box,502545,Horka nad Moravou,78335,Olomoucká,612/34,49.62733502,17.20547848
20,DPD box,554782,Praha,14100,Chodovská,227/3,50.05310692,14.47098374
21,DPD box,537004,Nymburk,28802,U Staré sladovny,-,50.1857794,15.0405253
22,DPD box,532053,Kladno,27201,Pařížská,2511,50.1359097,14.1357181
23,DPD box,534676,Mělník,27601,Pražská,4296,50.342175,14.489905
24,DPD box,582786,Brno,62500,Netroufalky,770,49.1768275,16.5662219
25,DPD box,551953,Vodňany,38901,Dr. Hajného,1274,49.14841925,14.18110625
26,DPD box,554782,Praha,10000,Přetlucká,3295/50,50.0705044,14.5102497
27,DPD box,553271,Veselí nad Lužnicí,39181,Třída Čs. armády,830,49.1867717,14.7049761
28,DPD box,588458,Holešov,76901,Palackého,520,49.32629707,17.55415624
29,DPD box,563099,Jirkov,43111,Vinařická,2152,50.49961038,13.44494698
30,DPD box,534951,Kralupy nad Vltavou,27801,Veltruská,815,50.252751,14.318041
31,DPD box,582786,Brno,63500,Kubíčkova,8,49.2211514,16.5179053
32,DPD box,513717,Urbanice,50327,Urbanice,44,50.1793333,15.7317933
33,DPD box,544256,České Budějovice,37001,U Zimního stadionu,19/1,48.9696659,14.47433486
34,DPD box,532053,Kladno,27201,V Bažantnici,2655,50.131004,14.1373787
35,DPD box,579025,Trutnov,54101,Obchodní,136,50.5710017,15.8923258
36,DPD box,588296,Kroměříž,76701,Velehradská,3254/105,49.28456094,17.38867554
37,DPD box,539325,Jesenice,25242,Zbraslavská,68,49.9676867,14.512685
38,DPD box,529303,Benešov,25601,Čechova,1433,49.786398,14.692717
39,DPD box,554782,Praha,16000,Bechyňova,2571/3,50.10559,14.3892619
40,DPD box,560383,Chodov,35735,Tovární,1179,50.23819221,12.74336046
41,DPD box,580350,Choceň,56501,Pardubická,644,49.9931797,16.2177978
42,DPD box,554481,Cheb,35002,Pražská,2494/15,50.08167219,12.37864818
43,DPD box,583588,Oslavany,66412,Hlavní,86,49.1212989,16.3355703
44,DPD box,571164,Chrudim,53701,Dašická,1228,49.956248,15.799783
45,DPD box,554791,Plzeň,32300,Gerská,1247/34,49.779175,13.370295
46,DPD box,593711,Znojmo,66902,Přímětická,3658,48.8670172,16.0440975
47,DPD box,537683,Poděbrady,29001,Bílkova,270,50.13507736,15.09756956
48,DPD box,539813,Velké Přílepy,25264,Statenická,732,50.1574292,14.3023864
49,DPD box,505781,Zápy,25061,Zápy,275,50.17623856,14.67099742
50,DPD box,563889,Liberec,46011,Sousedská,626,50.7739631,15.0282197
51,DPD box,529516,Čerčany,25722,Havlíčkova,439,49.853177,14.707689
52,DPD box,540111,Dobříš,26301,Rukavičkářská,871,49.7909506,14.1781733
53,DPD box,567256,Litvínov,43601,Podkrušnohorská,308,50.6010723,13.60186731
54,DPD box,554821,Ostrava,70900,28. října,258/296,49.8260881,18.2434533
55,DPD box,534919,Netřebice,28802,Netřebice,80,50.21284732,15.14243697
56,DPD box,500496,Olomouc,77900,Na Tabulovém vrchu,4,49.5837592,17.2259464
57,DPD box,554791,Plzeň,32300,Sokolovská,1327/74,49.7725956,13.3703456
58,DPD box,575429,Opatovice nad Labem,53345,Pardubická,352,50.142291,15.7922742
59,DPD box,549576,Milevsko,39901,Blanická,1651,49.4406231,14.3613228
60,DPD box,570826,Kosmonosy,29306,Průmyslová,-,50.4287236,14.9355117
61,DPD box,586404,Písek,39719,Nádražní,2590,49.29660504,14.14428146
62,DPD box,582786,Brno,61500,Táborská,224,49.19266,16.6353756
63,DPD box,554782,Praha,15500,Šafránkova,1243,50.057439,14.337768
64,DPD box,554791,Plzeň,30100,U velkého rybníka,2299/27,49.77067826,13.39784284
65,DPD box,535419,Mladá Boleslav,29301,Jičínská,1326,50.4106253,14.9317756
66,DPD box,554791,Plzeň,30100,Skupova,490/24,49.723225,13.374087
67,DPD box,554782,Praha,15200,Tilleho náměstí,792/2,50.0350542,14.3765664
68,DPD box,554782,Praha,15800,Husníkova,-,50.048217,14.341094
69,DPD box,538132,Čelákovice,25088,Toušeňská,2042,50.1559125,14.7444955
70,DPD box,546127,Dačice,38001,Toužínská,63/1,49.0808319,15.4194992
71,DPD box,530484,Jeřmanice,46312,Milířská,_,50.7017572,15.0954331
72,DPD box,545058,Valašské Meziříčí,75701,Masarykova,873,49.48534839,17.96341078
73,DPD box,535419,Mladá Boleslav,29301,Kosmonosy,1255,50.4347953,14.9159353
74,DPD box,554782,Praha,14100,Postupická,2931/9,50.045335,14.491453
75,DPD box,579203,Dvůr Králové nad Labem,54401,Alešova,3083,50.42580238,15.8108655
76,DPD box,555088,Havířov,73601,E. F. Buriana,869/4a,49.77728435,18.43702817
77,DPD box,560715,Tachov,34701,Sokolovská,2164,49.80327022,12.64040205
78,DPD box,563510,Jablonec nad Nisou,46601,Na Vršku,4189/12,50.7256003,15.1588772
79,DPD box,545392,Český Krumlov,38101,Domoradická,299,48.82388434,14.33526065
80,DPD box,555134,Pardubice,53009,Poděbradská,295,50.05707669,15.7632317
81,DPD box,554782,Praha,16000,Maďarská,-,50.107736,14.402156
82,DPD box,571776,Luže,53854,Husova,247,49.89439457,16.02498846
83,DPD box,539627,Roztoky,25263,Lidická,2250,50.16046031,14.37836475
84,DPD box,598283,Sedlec,25065,Sedlec,9,50.1868381,14.4590561
85,DPD box,555088,Havířov,73601,Železničářů,1303/8,49.79117911,18.42019807
86,DPD box,574121,Jaroměř,55101,Dolecká,974,50.34499014,15.90706668
87,DPD box,539139,Černošice,25228,Radotínská,-,49.9656658,14.3282811
88,DPD box,544558,Hrdějovice,37361,Na Bahnech,601,49.01465945,14.49500488
89,DPD box,511382,Přerov,75002,Kojetínská,3133\10,49.45008847,17.44338108
90,DPD box,539163,Davle,25206,K Pivovaru,302,49.8891483,14.3956978
91,DPD box,552046,Tábor,39005,Soběslavská,3046,49.38979363,14.6922371
92,DPD box,589250,Prostějov,79601,Martinákova,2451/4,49.4789428,17.1089814
93,DPD box,582786,Brno,66442,Brněnská,687,49.1285347,16.6047347
94,DPD box,584550,Klobouky u Brna,69172,Klobouky u Brna,900,49.000296,16.865272
95,DPD box,592005,Uherské Hradiště,68601,Za Olšávkou,399,49.0557186,17.4668753
96,DPD box,554804,Ústí nad Labem,40001,Žižkova,3500/24,50.6544519,14.0278736
97,DPD box,523704,Šumperk,78701,Generála Krátkého,3,49.9706939,16.9761814
98,DPD box,567027,Most,43401,Rudolická,1706/4,50.51147999,13.65146897
99,DPD box,554499,Aš,35201,Chebská,2934,50.21396201,12.19990527
100,DPD box,550752,Staré Město,68603,Východní,2260,49.0788858,17.4541403
101,DPD box,572659,Jičín,50601,Hradecká,1141,50.43539365,15.36873598
102,DPD box,558419,Držovice,79607,Konečná,25,49.48407098,17.12860656
103,DPD box,598917,Karviná,73401,tř. 17. listopadu,883,49.84616626,18.5532119
104,DPD box,513164,Ždánice,28163,Ždánice,138,49.96871061,14.95852218
105,DPD box,554782,Praha,18400,Ústecká,11,50.13907577,14.45145167
106,DPD box,554821,Ostrava,70030,U Studia,3143/36,49.7996825,18.2335405
107,DPD box,511382,Přerov,75002,tř. 17. listopadu,3170/41,49.45337048,17.45683068
108,DPD box,538833,Sulice,25168,Hlavní,345,49.9207633,14.5787472
109,DPD box,537004,Nymburk,28802,Sadová,2167,50.19144782,15.03009938
110,DPD box,579891,Ústí nad Orlicí,56201,Cihlářská,1516,49.97912565,16.40256873
111,DPD box,568759,Chotěboř,58301,Havlíčkova,1842,49.71172448,15.66301792
112,DPD box,554782,Praha,15500,Helsinská,1,50.0496133,14.2906811
113,DPD box,564567,Litoměřice,41201,Stránského,1908,50.5364706,14.1204667
114,DPD box,554782,Praha,14200,Čimelická,964/15,50.0143533,14.45291
115,DPD box,552046,Tábor,39003,Václava Soumara,2300,49.423382,14.651275
116,DPD box,569810,Hradec Králové,50003,Víta Nejedlého,1062/12,50.21261846,15.85463931
117,DPD box,555771,Klatovy,33901,Domažlická,909,49.39330783,13.2850964
118,DPD box,529303,Benešov,25601,Červené Vršky,2400,49.79307907,14.67992584
119,DPD box,562335,Děčín,40505,Teplická,761/107,50.78145398,14.14823728
120,DPD box,532053,Kladno,27309,28. října,1542,50.16489977,14.10885041
121,DPD box,554804,Ústí nad Labem,40011,Šrámkova,3218/22,50.67477243,14.05795591
122,DPD box,534676,Mělník,27601,Mladoboleslavská,3339,50.34935926,14.48938506
123,DPD box,578347,Litomyšl,57001,Svitavská,1207,49.86342953,16.32811268
124,DPD box,554782,Praha,12800,Na Slupi,2103/2c,50.0663125,14.4228006
125,DPD box,554782,Praha,19000,Pešlova,363/5,50.11198723,14.50169401
126,DPD box,544256,České Budějovice,37001,Za Otýlií,287/6,48.9967642,14.4898222
127,DPD box,554782,Praha,14200,Štúrova,1284,50.0259747,14.4518864
128,DPD box,567027,Most,43401,Tyršova,3460,50.4989073,13.63237362
129,DPD box,577626,Turnov,51101,Sobotecká,580,50.5800106,15.151925
130,DPD box,530310,Neveklov,25756,Pražská,310,49.7559703,14.5293025
131,DPD box,544256,České Budějovice,37006,Hraniční,2253,48.97574,14.5151086
132,DPD box,554782,Praha,19000,U Elektry,7,50.10214808,14.51964948
133,DPD box,549240,Písek,39701,Pražská,443/59,49.3174039,14.1322344
134,DPD box,586846,Jihlava,58601,Brněnská,4971/74,49.39646732,15.60998104
135,DPD box,554961,Karlovy Vary,36005,Dolní Kamenná,1004/7,50.23179002,12.85413846
136,DPD box,544256,České Budějovice,37011,J. Boreckého,34,48.9883478,14.45919806
137,DPD box,564443,Svijany,46346,Svijany,69,50.57356776,15.06708029
138,DPD box,554804,Ústí nad Labem,40010,Havířská,354/15,50.68820584,13.98605237
139,DPD box,554782,Dolní Chabry,18400,Osecká,8,50.147655,14.448323
140,DPD box,554782,Praha,15000,Brožíkova,3,50.071283,14.388434
141,DPD box,567027,Most,43406,Okružní,3130,50.49109311,13.65497014
142,DPD box,564095,Hrádek nad Nisou,46334,Vlámská,826/826,50.8660295,14.84551355
143,DPD box,564028,Frýdlant,46401,Fügnerova/Husova,-,50.922774,15.08615325
144,DPD box,539911,Příbram,26101,Jinecká,319,49.69751103,14.01862888
145,DPD box,582786,Brno,60200,Nádražní,118/7,49.19023177,16.61070924
146,DPD box,554791,Plzeň,30100,Rokycanská třída,1171,49.74766649,13.40398934
147,DPD box,598003,Frýdek Místek,73801,17. listopadu,2261,49.67577896,18.32458656
148,DPD box,544256,České Budějovice,37011,České Vrbné,2360,48.99975058,14.45138286
149,DPD box,590266,Třebíč,67401,Hrotovická,160,49.21045557,15.89465249
150,DPD box,532053,Kladno,27201,Unhošťská,3231,50.1420914,14.1174986
151,DPD box,554782,Praha,10100,Chodovská,1549/18,50.05623893,14.47292001
152,DPD box,554782,Praha,19000,Novovysočanská,108,50.09727557,14.48007965
153,DPD box,593711,Znojmo,66902,Suchohrdelská,2799/26,48.85608238,16.07225574
154,DPD box,567442,Teplice,41501,Pražská,3226,50.63444944,13.8465408
155,DPD box,554782,Praha,14800,Krejnická,20,50.0328839,14.4819633
156,DPD box,598879,Vratimov,73932,Buničitá,1239,49.7722353,18.3033828
157,DPD box,554782,Praha,14200,Špirkova,522/14,50.0129681,14.4338406
158,DPD box,554782,Praha,19800,Skorkovská,1310,50.1108131,14.571535
159,DPD box,582786,Brno,60200,Řeznická,1,49.18842535,16.62045484
160,DPD box,547760,Černovice,39494,Lhotkova,683,49.3748425,14.9671711
161,DPD box,545881,Jindřichův Hradec,37701,Václavská,618,49.131983,15.003399
162,DPD box,554782,Praha,15000,Kartouzská,233/9,50.07423315,14.4022005
163,DPD box,554821,Ostrava,72000,Prodloužená,807,49.7738327,18.26421091
164,DPD box,532053,Kladno,27201,Americká,2777,50.1261996,14.11797692
165,DPD box,534081,Chabeřice,28522,Chabeřice,9,49.750395,15.072148
166,DPD box,563129,Klášterec nad Ohří,43151,Chomutovská,210,50.3863069,13.1763703
167,DPD box,505188,Šternberk,78501,Obchodní,2554/1,49.72073349,17.29058874
168,DPD box,578444,Moravská Třebová,57101,Svitavská,-,49.7574117,16.6473494
169,DPD box,554782,Praha,14800,Dobronická,1256,50.01152798,14.47608357
170,DPD box,592889,Vyškov,68201,Brněnská,514/13c,49.27309842,16.99275739
171,DPD box,545881,Jindřichův Hradec,37701,sídliště Vajgar,730,49.1432153,15.0230106
172,DPD box,561380,Česká Lípa,47001,Hrnčířská,2985,50.6810883,14.5375658
173,DPD box,500496,Olomouc,77900,Rooseveltova,52,49.58079668,17.25643144
174,DPD box,574121,Jaroměř,55101,Husova,69,50.3557169,15.9133723
175,DPD box,554782,Praha,19900,Veselská,721,50.1394172,14.4988178
176,DPD box,538523,Mukařov,25162,Pražská,309,49.989729,14.741573
177,DPD box,598003,Frýdek Místek,73802,Příborská,2270,49.6723,18.329801
178,DPD box,555134,Pardubice,53002,nábř. Závodu míru,2712,50.038985,15.766201
179,DPD box,536326,Mnichovo Hradiště,29501,Studentská,1443,50.52293259,14.97216558
180,DPD box,554782,Praha,14900,Leopoldova,1,50.0386808,14.5116158
181,DPD box,552046,Tábor,39002,Soběslavská,3038,49.39693632,14.68449391
182,DPD box,530883,Vlašim,25801,Okružní,1884,49.70039696,14.90678667
183,DPD box,539627,Roztoky,25263,Čapkova,887,50.165712,14.38919924
184,DPD box,538728,Říčany,25101,Černokostelecká,2270/22,50.00288382,14.65864214
185,DPD box,554171,Šenov u Nového Jičína,74242,Dukelská,672,49.60191331,18.00684872
186,DPD box,573868,Náchod,54701,Dobrošovská,1703,50.41402934,16.17131793
187,DPD box,533017,Unhošť,27351,Lidická,1527,50.0987053,14.1371875
188,DPD box,560286,Sokolov,35601,M. Majerové,2241,50.17545005,12.66802887
189,DPD box,554782,Praha,19000,Malletova,2477/3,50.1012481,14.48484139
190,DPD box,578576,Polička,57201,Hegerova,1120,49.7198016,16.27817384
191,DPD box,598003,Frýdek Místek,73801,Nádražní,-,49.678828,18.35313
192,DPD box,531057,Beroun,26601,Švermova,1368/2,49.95808,14.051522
193,DPD box,583251,Kuřim,66434,Legionářská,1265/70,49.304805,16.531283
194,DPD box,533165,Kolín,28002,V Kasárnách,1019,50.0327586,15.19012608
195,DPD box,531057,Beroun,26601,Škroupova,854,49.96564215,14.0836103
196,DPD box,576069,Rychnov nad Knežnou,51601,Štemberkova,1698,50.15615355,16.27655917
197,DPD box,554782,Praha,19300,Ve Žlíbku,1800,50.10145369,14.62562036
198,DPD box,575500,Přelouč,53501,Sportovní,1699,50.04127599,15.56664792
199,DPD box,554782,Praha,14200,Nad Lesním divadlem,1318/21,50.02487178,14.44188706
200,DPD box,538523,Mukařov,25162,Do Chobotu,117,49.9825783,14.7390861
201,DPD box,554642,Mariánské Lázně,35301,Chebská,185/23,49.9636803,12.6951294
202,DPD box,554782,Praha,15500,K Hájům,1233/2,50.055572,14.324028
203,DPD box,554481,Cheb,35002,Evropská,175,50.07439465,12.37437246
204,DPD box,550647,Vimperk,38501,Sušická,617,49.05865199,13.77818453
205,DPD box,565555,Roudnice nad Labem,41301,9.května,2067,50.4210139,14.2267125
206,DPD box,571164,Chrudim,53701,Dr. M. Horákové,63/1,49.93738652,15.80231979
207,DPD box,538141,Čestlice,25101,Obchodní,111,50.0038944,14.5740892
208,DPD box,567027,Most,43401,K. J. Erbena,302/16,50.500467,13.661925
209,DPD box,554791,Plzeň,32300,Alej Svobody,770/23,49.767972,13.364298
210,DPD box,500496,Olomouc,77200,Holická,1136/26,49.5826,17.26991643
211,DPD box,584291,Břeclav,69002,Lidická,3341/137,48.78042094,16.90148504
212,DPD box,562335,Děčín,40502,Ústecká,1905/8,50.7702722,14.2061128
213,DPD box,547999,Humpolec,39601,Pražská,489,49.5414611,15.3369161
214,DPD box,544256,České Budějovice,37001,Okružní,2615/7,48.998135,14.4903858
215,DPD box,583120,Ivančice,66491,Oslavanská,1548,49.1033516,16.3653126
216,DPD box,554782,Praha,16900,Radimova,2322,50.08774025,14.36562722
217,DPD box,566985,Žatec,43801,Stavbařů,2811,50.3152718,13.54274034
218,DPD box,554782,Praha,10800,Tiskařská,12,50.08243,14.5352592
219,DPD box,549339,Čimelice,39804,Čimelice,330,49.4613967,14.0688872
220,DPD box,563277,Chomutov,43111,Obchodní zóna,261,50.4844831,13.4396228
221,DPD box,554961,Karlovy Vary,36001,Sportovní ulice,633/13a,50.24167437,12.89208786
222,DPD box,572659,Jičín,50601,Jungmannova,1103,50.43368672,15.35704793
223,DPD box,554782,Praha,15500,Jeremiášova,1102,50.0544144,14.3089458
224,DPD box,538957,Úvaly,25082,Pražská,276,50.07306363,14.72106773
225,DPD box,554782,Praha,14200,Libušská,319/126,50.00172,14.4681653
226,DPD box,562335,Dečín,40502,Dělnická,1861/32,50.7643684,14.19206184
227,DPD box,500496,Olomouc,77900,Vejdovského,1179,49.587351,17.270425
228,DPD box,554821,Ostrava,72527,Spojovací,396,49.84987144,18.14577433
229,DPD box,592005,Uherské Hradiště,68601,Města Mayen,1749,49.070696,17.4733475
230,DPD box,554782,Praha,19000,Freyova,-,50.11010028,14.50076679
231,DPD box,554782,Praha,19000,Čerpadlová,1034/2b,50.101179,14.507754
232,DPD box,574929,Dolní Ředice,53375,Dašická,-,50.0758097,15.9204706
233,DPD box,592005,Uherské Hradiště,68601,Tř. Maršála Malinovského,1304,49.0610464,17.4683161
234,DPD box,554782,Praha,10100,Vršovické nám.,111/2,50.06864328,14.45340729
235,DPD box,581372,Boskovice,68001,Chrudichromská,2454/3,49.49273612,16.64839334
236,DPD box,554782,Praha,14900,Brandlova,1599/8,50.03267179,14.5179072
237,DPD box,538728,Říčany,25101,Pod Lihovarem,1828/2,49.9971536,14.6585372
238,DPD box,554782,Praha,14000,Budějovická,45,50.0421678,14.4596536
239,DPD box,554961,Karlovy Vary,36001,Jenišov,125,50.2237211,12.8048114
240,DPD box,599727,Karlík,25229,K Třešňovce,64,49.9372867,14.2613525
241,DPD box,599051,Bohumín,73552,1. Máje,905,49.9034097,18.3795236
242,DPD box,582786,Brno,61900,Skandinávská,2,49.1578997,16.6277789
243,DPD box,554782,Praha,19800,Poděbradská,489/116,50.1056558,14.5368211