ID ,name,city_code,city,zip_code,street,house_NO,latitude ,longtitude
,Penguin box,592013,Babice,,Babice,547,,
,Penguin box,592013,Babice,,Babice,258,,
,Penguin box,581330,Benešov,,Benešov,154,,
,Penguin box,579050,Bernartice,,Bernartice,62,,
,Penguin box,550833,Bílsko,,Bílsko,,,
,Penguin box,552062,Bílsko,,Bílsko,12,,
,Penguin box,525588,Bludov,,Jiráskova ulice,336,,
,Penguin box,592901,Bohdalice,,Bohdalice,45,,
,Penguin box,539953,Bohutín,,Bohutín,40,,
,Penguin box,525979,Bohutín,,Bohutín,103,,
,Penguin box,539970,Borotice,,Borotice,48,,
,Penguin box,577839,Borová,,Borová,105,,
,Penguin box,582891,Březina,,Březina,24,,
,Penguin box,581429,Březina,,Březina,122,,
,Penguin box,538744,Březnice,,Březnice,26,,
,Penguin box,585131,Březová,,Březová,3,,
,Penguin box,506451,Březová,,Lesní Albrechtice,10,,
,Penguin box,506451,Březová,,Březová,106,,
,Penguin box,599735,Březová-Oleško,,Hlavní,1143,,
,Penguin box,593842,Břežany,,Břežany,103,,
,Penguin box,598062,Bystřice,,Bystřice,145,,
,Penguin box,598062,Bystřice,,Bystřice,392,,
,Penguin box,533998,Církvice,,Církvice,6,,
,Penguin box,550272,Cvrčovice,,Cvrčovice,74,,
,Penguin box,592137,Částkov,,Částkov,75,,
,Penguin box,576221,Čestice,,Čestice,128,,
,Penguin box,501476,Dlouhá Loucka,,Pionýrská,176,,
,Penguin box,577987,Dlouhá Loučka,,Dlouhá Loučka,122,,
,Penguin box,595489,Dobrá Voda,,Dobrá Voda,46,,
,Penguin box,501646,Dolany,,Dolany,55,,
,Penguin box,556106,Dolany,,Dolany,114,,
,Penguin box,501646,Dolany,,Pohořany,103,,
,Penguin box,501646,Dolany,,Véska,9,,
,Penguin box,581551,Drnovice,,Drnovice,371,,
,Penguin box,581551,Drnovice,,Drnovice,43,,
,Penguin box,593001,Drnovice,,Drnovice,321,,
,Penguin box,531154,Drozdov,,Drozdov,16,,
,Penguin box,568678,Herálec,,Herálec,144,,
,Penguin box,595594,Herálec - Český Herálec,,Český Herálec,114,,
,Penguin box,571393,Hlinsko,,Poděbradovo nám.,10,,
,Penguin box,581593,Hodonín,,Hodonín,17,,
,Penguin box,539228,Holubice,,Holubice,175,,
,Penguin box,550825,Holubice,,Holubice,61,,
,Penguin box,550825,Holubice,,Holubice,213,,
,Penguin box,537161,Hradčany,,Hradčany,74,,
,Penguin box,594148,Hrádek,,Hrádek,309,,
,Penguin box,512176,Hrádek,,Hrádek,352,,
,Penguin box,513750,Hranice,,třída 1. máje,1624,,
,Penguin box,513750,Hranice,,Nádražní,1285,,
,Penguin box,513750,Hranice,,Zborovská,293,,
,Penguin box,513750,Hranice,,Nová,1820,,
,Penguin box,513750,Hranice,,Cementářenské Sídliště,1298,,
,Penguin box,513750,Hranice,,Jungmanova,1805,,
,Penguin box,513750,Hranice,,Dobrovského,,,
,Penguin box,513750,Hranice,,Máchova,1281,,
,Penguin box,513750,Hranice,,Nádražní,735,,
,Penguin box,513750,Hranice,,Uhřinov,,,
,Penguin box,531235,Hvozdec,,Hvozdec,61,,
,Penguin box,590703,Chlístov,,Chlístov,7,,
,Penguin box,503444,Litovel,,Chudobín,31,,
,Penguin box,597431,Janov,,Janov,63,,
,Penguin box,578134,Janov,,Janov,2,,
,Penguin box,578134,Jasenná,,Jasenná,58,,
,Penguin box,585301,Jasenná,,Jasenná,159,,
,Penguin box,585301,Jasenná,,Jasenná,54,,
,Penguin box,536393,Jestřebí,,Jestřebí,,,
,Penguin box,594211,Jezeřany - Maršovice,,Jezeřany - Maršovice,136,,
,Penguin box,548081,Jiřice,,Jiřice,19,,
,Penguin box,529613,Josefův Důl,,Josefův Důl,36,,
,Penguin box,560421,Kaceřov,,Kaceřov,49,,
,Penguin box,587346,Kamenice,,Řehořov,50,,
,Penguin box,583197,Kanice,,Kanice,44,,
,Penguin box,566144,Kanice,,Kanice,32,,
,Penguin box,542946,Kateřinice,,Kateřinice,4,,
,Penguin box,532053,Kladno,,náměstí Jana Masaryka,3113,,
,Penguin box,532053,Kladno,,Benešova,3230,,
,Penguin box,514047,Klokočí,,Klokočí,40,,
,Penguin box,537292,Kněžice,,Kněžice,90,,
,Penguin box,581739,Knínice,,Knínice,64,,
,Penguin box,514055,Kojetín,,Popůvky,3,,
,Penguin box,514055,Kojetín,,Kovalovice,25,,
,Penguin box,595888,Kozlov,,Kozlov,51,,
,Penguin box,529940,Kozmice,,Kozmice,12,,
,Penguin box,569372,Krchleby,,Krchleby,82,,
,Penguin box,541966,Krupá,,Krupá,53,,
,Penguin box,532533,Ledce,,Ledce,200,,
,Penguin box,530051,Lešany,,Břežany,73,,
,Penguin box,571695,Leština,,Leština,66,,
,Penguin box,598364,Lhotka,,Lhotka,114,,
,Penguin box,565121,Liběšice - Zimoř,,Zimoř,24,,
,Penguin box,549622,Lípa,,Lípa,53,,
,Penguin box,514772,Lipová,,Lipová,89,,
,Penguin box,539457,Líšnice,,Líšnice,33,,
,Penguin box,554791,Plzeň,,Řepná,20,,
,Penguin box,597589,Lomnice,,Lomnice,69,,
,Penguin box,597589,Lomnice,,Tylov,164,,
,Penguin box,581976,Lomnice,,náměstí Palackého,32,,
,Penguin box,570320,Lovčice,,Lovčice,34,,
,Penguin box,558028,Lužany,,Lužany,130,,
,Penguin box,573167,Markvartice,,Markvartice,76,,
,Penguin box,591114,Markvartice,,Markvartice,67,,
,Penguin box,588741,Martinice,,Martinice,149,,
,Penguin box,552372,Medlov,,Medlov,194,,
,Penguin box,592366,Medlovice,,Medlovice,87,,
,Penguin box,548367,Mezilesí,,Mezilesí,26,,
,Penguin box,540382,Mikulovice,,Široký Brod,119,,
,Penguin box,586391,Moravany,,Moravany,73,,
,Penguin box,571865,Mukařov,,Borovice ev. č.,115,,
,Penguin box,583456,Nebovidy,,Nebovidy,153,,
,Penguin box,572870,Němčice,,Němčice,175,,
,Penguin box,589764,Nezamyslice,,1.máje,35,,
,Penguin box,560201,Nová Ves,,Nová Ves,112,,
,Penguin box,583502,Nová Ves,,Nová Ves,64,,
,Penguin box,530344,Olbramovice,,Olbramovice Ves,51,,
,Penguin box,561967,Olešná,,Olešná,94,,
,Penguin box,544884,Olešnice,,Olešnice,17,,
,Penguin box,578487,Opatov,,Opatov,306,,
,Penguin box,591319,Opatov,,Opatov,6,,
,Penguin box,576590,Opočno,,Čánka,17,,
,Penguin box,580732,Ostrov,,Ostrov,285,,
,Penguin box,554073,Osvračín,,Osvračín,207,,
,Penguin box,555134,Pardubice,,Bělehradská,286,,
,Penguin box,555134,Pardubice,,Družby,335,,
,Penguin box,555134,Pardubice,,Stavbařů,152,,
,Penguin box,541044,Petrovice,,Petrovice,66,,
,Penguin box,582212,Petrovice,,Petrovice,163,,
,Penguin box,599743,Petřvald,,Petřvald,160,,
,Penguin box,540684,Písečná,,Písečná,64,,
,Penguin box,540684,Písečná,,Písečná,227,,
,Penguin box,540684,Písečná,,Písečná,272,,
,Penguin box,540684,Písečná,,Písečná,228,,
,Penguin box,570575,Písek,,Písek,101,,
,Penguin box,537675,Pňov-Předhradí-Pňov,,Husova,37,,
,Penguin box,534811,Podhradí,,Podhradí,1,,
,Penguin box,584801,Pohořelice,,Nová Ves,35,,
,Penguin box,584801,Pohořelice,,náměstí Svobody,725,,
,Penguin box,584801,Pohořelice,,Smolín,27,,
,Penguin box,539562,Pohoří,,Chotouň,100,,
,Penguin box,539562,Polepy,,Polepy,147,,
,Penguin box,516911,Polom,,Polom,56,,
,Penguin box,592528,Popovice,,Popovice,116,,
,Penguin box,572080,Proseč,,Záboří,143,,
,Penguin box,572098,Prosetín,,Prosetín,29,,
,Penguin box,559393,Přehýšov,,Přehýšov,214,,
,Penguin box,511382,Přerov,,U Silnice,26,,
,Penguin box,549720,Přílepy,,Přílepy,3,,
,Penguin box,593516,Račice - PÍstovice,,Račice,168,,
,Penguin box,593516,Račice - Pístovice,,Pístovice,155,,
,Penguin box,517275,Radíkov,,Malinovského,73,,
,Penguin box,533629,Radim,,Radim,6,,
,Penguin box,549924,Radkov,,Radkov,74,,
,Penguin box,530531,Radošovice,,Radošovice,17,,
,Penguin box,578673,Rohozná,,Rohozná,140,,
,Penguin box,575569,Rohoznice,,Rohoznice,89,,
,Penguin box,572179,Rosice,,Rosice,336,,
,Penguin box,582298,Rudice,,Rudice,135,,
,Penguin box,592552,Rudice,,Rudice,24,,
,Penguin box,582310,Sebranice,,Sebranice,133,,
,Penguin box,572225,Seč,,sídliště 9. května,383,,
,Penguin box,548766,Sedlice,,Sedlice,67,,
,Penguin box,568406,Slatina,,Slatina,171,,
,Penguin box,578789,Staré Město,,Staré Město,67,,
,Penguin box,589047,Střížovice,,Střížovice,4,,
,Penguin box,590088,Suchdol,,Suchdol,65,,
,Penguin box,542474,Šanov,,Šanov,101,,
,Penguin box,594903,Šumice,,Šumice,89,,
,Penguin box,592676,Šumice,,Šumice,123,,
,Penguin box,530751,Tehov,,Tehov,2,,
,Penguin box,568295,Telnice,,Telnice,77,,
,Penguin box,586676,Terezín,,Terezín,133,,
,Penguin box,505269,Těšetice,,Těšetice,40,,
,Penguin box,591840,Trnava,,Trnava,67,,
,Penguin box,585866,Trnava,,Trnava,110,,
,Penguin box,589098,Třebětice,,Třebětice,23,,
,Penguin box,576859,Týniště nad Orlicí,,Štěpánovsko,99,,
,Penguin box,530867,Veliš,,Veliš,61,,
,Penguin box,520420,Veselíčko,,Veselíčko,65,,
,Penguin box,549061,Věžná,,Věžná,35,,
,Penguin box,569712,Vilémov,,Vilémov,222,,
,Penguin box,569712,Vilémov,,Vilémov,180,,
,Penguin box,572489,Vinary,,Vinary,21,,
,Penguin box,541516,Višňová,,Višňová,98,,
,Penguin box,597082,Vlkov,,Vlkov,104,,
,Penguin box,581143,Voděrady,,Voděrady,96,,
,Penguin box,581143,Voděrady,,Džbánov,4,,
,Penguin box,576891,Voděrady,,Voděrady,78,,
,Penguin box,590177,Vranovice - Kelčice,,Vranovice,27,,
,Penguin box,511161,Vršovice,,Vršovice,22,,
,Penguin box,586773,Vřesovice,,Vřesovice,212,,
,Penguin box,582701,Vysočany,,Molenburk,112,,
,Penguin box,582701,Vysočany,,Molenburk,179,,
,Penguin box,550680,Záblatí,,Záblatí,3,,
,Penguin box,578827,Zahrádka,,Hůrky,16,,
,Penguin box,534625,Zbýšov,,Zbýšov,81,,
,Penguin box,539881,Zlatníky Hodkovice,,Náves sv. Petra a Pavla,113,,
,Penguin box,545252,Zubří,,Sídliště,1750,,
,Penguin box,541478,Zvole,,Zvole,123,,
,Penguin box,597155,Zvole,,Zvole,41,,
,Penguin box,582743,Žďár,,Žďár,163,,
,Penguin box,500011,Želechovice nad Dřevnicí,,4. května,560,,
,Penguin box,500011,Želechovice nad Dřevnicí,,Družstevníků,491,,
,Penguin box,500046,Libhošť,,Libhošť,377,,
,Penguin box,500046,Libhošť,,Libhošť,403,,
,Penguin box,500160,Město Libavá,,Domašovská,228,,
,Penguin box,500496,Olomouc,,Vídeňská,18,,
,Penguin box,500496,Olomouc,,Třída Svornosti,1177,,
,Penguin box,500496,Olomouc,,Pionýrská,993,,
,Penguin box,500496,Olomouc,,Schweitzerova,385,,
,Penguin box,500496,Olomouc,,Na Střelnici,336,,
,Penguin box,500496,Olomouc,,Mošnerova,1244,,
,Penguin box,500496,Olomouc,,Trnkova,24,,
,Penguin box,500496,Olomouc,,třída Svornosti,916,,
,Penguin box,500496,Olomouc,,Přichystalova,66,,
,Penguin box,500496,Olomouc,,Hálkova,151,,
,Penguin box,500496,Olomouc,,Horní lán,,,
,Penguin box,500496,Olomouc,,Jižní,298,,
,Penguin box,500496,Olomouc,,28. října,458,,
,Penguin box,500496,Olomouc,,Kyselovská,559,,
,Penguin box,500496,Olomouc,,Werichova,16,,
,Penguin box,500496,Olomouc,,Fischerova,692,,
,Penguin box,500496,Olomouc,,Fischerova,4,,
,Penguin box,500496,Olomouc,,Raisova,3,,
,Penguin box,500496,Olomouc,,Mišákova,16,,
,Penguin box,500496,Olomouc,,Schweitzerova,439,,
,Penguin box,500496,Olomouc,,Emy Destinnové,942,,
,Penguin box,500496,Olomouc,,Kolárovo Náměstí,697,,
,Penguin box,500496,Olomouc,,Heyrovského,6,,
,Penguin box,500496,Olomouc,,Hněvotínská,496,,
,Penguin box,500496,Olomouc,,Starého,3,,
,Penguin box,500496,Olomouc,,Kubatova,3,,
,Penguin box,500496,Olomouc,,Šternberská,96,,
,Penguin box,500496,Olomouc,,Aldova,240,,
,Penguin box,500496,Olomouc,,Kosinova,873,,
,Penguin box,500496,Olomouc,,Svolinského 224/,23,,
,Penguin box,500496,Olomouc,,Radíkovská,,,
,Penguin box,500496,Olomouc,,Ladova,,,
,Penguin box,500496,Olomouc,,Generála Píky,,,
,Penguin box,500496,Olomouc,,Dvořákova,316,,
,Penguin box,500496,Olomouc,,Boženy Němcové,83,,
,Penguin box,500496,Olomouc,,Letců,872,,
,Penguin box,500496,Olomouc,,U Cukrovaru,623,,
,Penguin box,500496,Olomouc,,Balbínova,364,,
,Penguin box,500496,Olomouc,,Urxova,461,,
,Penguin box,500496,Olomouc,,Kapitána Jaroše,339,,
,Penguin box,500496,Olomouc,,Na Šibeníku,227,,
,Penguin box,500496,Olomouc,,Za Vodojemem,1006,,
,Penguin box,500496,Olomouc,,Vrbová,336,,
,Penguin box,500496,Olomouc,,Frajtovo Náměstí,323,,
,Penguin box,500496,Olomouc,,Jarmily Glazarové,340,,
,Penguin box,500496,Olomouc,,Táborská,191,,
,Penguin box,500496,Olomouc,,Družební,768,,
,Penguin box,500496,Olomouc,,Horní lán,10,,
,Penguin box,500496,Olomouc,,Helsinská,256,,
,Penguin box,500496,Olomouc,,Neředínská,48,,
,Penguin box,500496,Olomouc,,Foerstrova,962,,
,Penguin box,500496,Olomouc,,Kmochova,1065,,
,Penguin box,500496,Olomouc,,Wolkerova,802,,
,Penguin box,500496,Olomouc,,Jílová,533,,
,Penguin box,500496,Olomouc,,Karafiátová,511,,
,Penguin box,500496,Olomouc - Lazce,,U Sportovní haly,41,,
,Penguin box,500496,Olomouc - Nedvězí,,Neklanova,203,,
,Penguin box,500526,Bělkovice-Lašťany,,Bělkovice-Lašťany,7,,
,Penguin box,500852,Bohuňovice,,Trusovická,525,,
,Penguin box,500852,Bohuňovice,,Za Pilou,45,,
,Penguin box,500879,Bystročice,,Bystročice,225,,
,Penguin box,501476,Dlouhá Loučka,,9. května,598,,
,Penguin box,501476,Dlouhá Loučka,,Dvorská,562,,
,Penguin box,501646,Dolany,,Dolany,245,,
,Penguin box,501751,Drahanovice,,Drahanovice,144,,
,Penguin box,501794,Dub nad Moravou,,Bolelouc,551,,
,Penguin box,501794,Dub nad Moravou,,Tovačovská,206,,
,Penguin box,501841,Grygov,,Šrámkova,19,,
,Penguin box,502146,Hlubočky,,Kosmonautů,439,,
,Penguin box,502146,Hlubočky,,Hrubá voda,94,,
,Penguin box,502146,Hlubočky,,Olomoucká,436,,
,Penguin box,502146,Hlubočky,,Olomoucká,14,,
,Penguin box,502146,Hlubočky,,Na Orátě,401,,
,Penguin box,502235,Hněvotín,,Hněvotín,87,,
,Penguin box,502235,Hněvotín,,Hněvotín,384,,
,Penguin box,502545,Horka Nad Moravou,,Nám. Osvobození,79,,
,Penguin box,503142,Jívová,,Jívová,68,,
,Penguin box,503444,Litovel,,Karla Sedláka,1a,,
,Penguin box,503444,Litovel,,Třebízského,663,,
,Penguin box,503444,Litovel,,Březové,,,
,Penguin box,503444,Litovel,,Novosady,550,,
,Penguin box,503444,Litovel,,Vítězná,402,,
,Penguin box,503444,Litovel,,Svatoplukova,908,,
,Penguin box,503444,Litovel,,Cholinská,1120,,
,Penguin box,503444,Litovel,,Dukelská,581,,
,Penguin box,503444,Litovel,,Studentů,238,,
,Penguin box,503444,Litovel,,Unčovice,90,,
,Penguin box,503444,Litovel - Nasobůrky,,Nasobůrky,151,,
,Penguin box,503657,Lutín,,Na Sídlišti,205,,
,Penguin box,503657,Lutín,,Třebčín,,,
,Penguin box,503657,Lutín,,Na Zábraní,30,,
,Penguin box,503657,Lutín,,Na Sídlišti,291,,
,Penguin box,503738,Majetín,,U Sokolovny,328,,
,Penguin box,504505,Náměšť na Hané,,Sokolská,496,,
,Penguin box,504505,Náměšť na Hané,,Fučíkova,730,,
,Penguin box,505081,Senice na Hané,,Jos. Vodičky,276,,
,Penguin box,505081,Senice na Hané,,Cakov,8,,
,Penguin box,505081,Senice na Hané,,Odrlice,14,,
,Penguin box,505081,Senice na Hané,,Sokolská,255,,
,Penguin box,505145,Březová nad Svitavou,,Moravské náměstí,37,,
,Penguin box,505145,Březová nad Svitavou,,Hradecká,316,,
,Penguin box,505161,Štěpánov,,Štěpánov,543,,
,Penguin box,505161,Štěpánov,,Moravská Huzová,114,,
,Penguin box,505161,Štěpánov,,Březce,717,,
,Penguin box,505161,Štěpánov,,Dolní,11,,
,Penguin box,505366,Tršice,,Tršice,75,,
,Penguin box,505366,Tršice,,Tršice,271,,
,Penguin box,505366,Tršice,,Tršice,155,,
,Penguin box,505587,Uničov,,Šumperská,527,,
,Penguin box,505609,Velká Bystřice,,Tovární,1002,,
,Penguin box,505650,Velký Týnec,,Na Výstavišti,,,
,Penguin box,505650,Velký Týnec,,Grygovská,258,,
,Penguin box,505668,Velký Újezd,,Přerovská,18,,
,Penguin box,505927,Opava,,Olomoucká,2379,,
,Penguin box,505927,Opava,,Na Pomezí,737,,
,Penguin box,505927,Opava,,Těšínská,2830,,
,Penguin box,505927,Opava,,Jurečkova,2267,,
,Penguin box,505927,Opava,,Hobzikova,2568,,
,Penguin box,505927,Opava,,Bezručovo nam.,8,,
,Penguin box,505927,Opava,,Jamnická,129,,
,Penguin box,505927,Opava,,Květinova,347,,
,Penguin box,505927,Opava,,Popská,26,,
,Penguin box,505927,Opava,,Heydukova,881,,
,Penguin box,505927,Opava,,Zborovská,524,,
,Penguin box,505927,Opava,,Elišky Krásnohorské,2522,,
,Penguin box,505927,Opava,,Lepařova,1417,,
,Penguin box,505927,Opava,,Odbojářů,,,
,Penguin box,505927,Opava,,Neumannova,226,,
,Penguin box,505927,Opava,,Solná,166,,
,Penguin box,505927,Opava,,Na Pastvisku,810,,
,Penguin box,505927,Opava,,Liptovská,974,,
,Penguin box,505927,Opava,,Rolnická,596,,
,Penguin box,505927,Opava,,Boženy Němcové,1612,,
,Penguin box,505927,Opava,,Požárnická,,,
,Penguin box,505927,Opava,,Liptovská,964,,
,Penguin box,505927,Opava,,U Panského dvora,1622,,
,Penguin box,505927,Opava,,Joži Davida,286,,
,Penguin box,505927,Opava,,Těšínská,2914,,
,Penguin box,505927,Opava,,6. května,79,,
,Penguin box,505927,Opava - Kateřinky,,Antonína Sovy,1229,,
,Penguin box,505927,Opava - Kateřinky,,Holasická,1153,,
,Penguin box,505927,Opava - Kateřinky,,Edvarda Beneše,1015,,
,Penguin box,505927,Opava - Podvihov,,Polomská,43,,
,Penguin box,505927,Opava - Suché Lazce,,Ve Dvoře,193,,
,Penguin box,506320,Brumovice,,Hlavní,69,,
,Penguin box,506460,Budišov nad Budišovkou,,Na Sídlišti,715,,
,Penguin box,506702,Dolní Benešov,,Opavská,150,,
,Penguin box,506737,Chvalčov,,Na Kůtku,83,,
,Penguin box,506753,Háj ve Slezsku,,Nádražní,12,,
,Penguin box,506761,Alojzov,,Alojzov,113,,
,Penguin box,507091,Nýdek,,Nýdek,502,,
,Penguin box,507091,Nýdek,,Nýdek,205,,
,Penguin box,507113,Holasovice,,Holasovice,120,,
,Penguin box,507237,Komorní Lhotka,,Komorní Lhotka,70,,
,Penguin box,507270,Hradec nad Moravicí,,Písecká,392,,
,Penguin box,507504,Kobeřice,,Hlučínská,793,,
,Penguin box,507580,Kravaře,,Opavská,650,,
,Penguin box,507580,Kravaře,,Mlýnská,373,,
,Penguin box,507971,Ludgeřovice,,Markvartovická,52,,
,Penguin box,507971,Ludgeřovice,,Na Návsi,237,,
,Penguin box,507971,Ludgeřovice,,Na Návsi,1378,,
,Penguin box,509574,Oldřišov,,Svobody,158,,
,Penguin box,509647,Píšť,,Ratibořská,143,,
,Penguin box,509841,Raduň,,Poštovní,239,,
,Penguin box,510297,Služovice,,Služovice,189,,
,Penguin box,510343,Stěbořice,,Stěbořice,17,,
,Penguin box,510378,Sudice,,Hlavní,153,,
,Penguin box,510432,Šilheřovice,,Střední,305,,
,Penguin box,510891,Velké Heraltice,,Školní,216,,
,Penguin box,510891,Velké Heraltice,,Jasanová,250,,
,Penguin box,510939,Velké Hoštice,,Zámecká,69,,
,Penguin box,511021,Vítkov,,Budišovská,1010,,
,Penguin box,511021,Vítkov,,U Nemocnice,,,
,Penguin box,511021,Vítkov,,Pivovarská,492,,
,Penguin box,511021,Vítkov,,Selská,946,,
,Penguin box,511021,Vítkov,,Husova,,,
,Penguin box,511021,Vítkov,,Opavská,686,,
,Penguin box,511021,Vítkov,,Těchanovická,291,,
,Penguin box,511021,Vítkov,,Skřivánčí pole,918,,
,Penguin box,511021,Vítkov,,Vodní,175,,
,Penguin box,511021,Vítkov,,Klokočovská,223,,
,Penguin box,511382,Přerov,,Boženy Němcové,2322,,
,Penguin box,511382,Přerov,,Klivarova,2610,,
,Penguin box,511382,Přerov,,Sportovní,,,
,Penguin box,511382,Přerov,,Bohuslava Němce,371,,
,Penguin box,511382,Přerov,,Husova,2949,,
,Penguin box,511382,Přerov,,HUSOVA,1097,,
,Penguin box,511382,Přerov,,Grymovská,43,,
,Penguin box,511382,Přerov,,Sokolů,31,,
,Penguin box,511382,Přerov,,9. května,2603,,
,Penguin box,511382,Přerov,,Nová čtvrť,299,,
,Penguin box,511382,Přerov,,Větrná,106,,
,Penguin box,511382,Přerov,,U Parku,2,,
,Penguin box,511382,Přerov,,Kosmákova,302,,
,Penguin box,511382,Přerov,,K Nadjezdu,121,,
,Penguin box,511382,Přerov,,Dvořákova,828,,
,Penguin box,511382,Přerov,,Výmyslov,2973,,
,Penguin box,511382,Přerov,,Jižní čtvrť III,2522,,
,Penguin box,511382,Přerov,,Bří Hovůrkových,9,,
,Penguin box,511382,Přerov,,Kainarova,280,,
,Penguin box,511382,Přerov,,Bratrská,1739,,
,Penguin box,511382,Přerov,,Pod Valy,202,,
,Penguin box,511382,Přerov,,Jasínkova,329,,
,Penguin box,511382,Přerov,,Trávník,1305,,
,Penguin box,511382,Přerov,,Zámecká,7,,
,Penguin box,511382,Přerov,,Pod Zahradami,229,,
,Penguin box,511382,Přerov,,Sokolská,2778,,
,Penguin box,511382,Přerov,,Popovická,360,,
,Penguin box,511382,Přerov,,Dluhonská,2011,,
,Penguin box,511382,Přerov,,Tř. Gen. Janouška,2592,,
,Penguin box,511382,Přerov,,Kopaniny,496,,
,Penguin box,511382,Přerov,,Čekyňská,68,,
,Penguin box,511382,Přerov,,Osmek,528,,
,Penguin box,511382,Přerov,,Pod Skalkou,89,,
,Penguin box,511382,Přerov,,Jilemnického,2504,,
,Penguin box,511382,Přerov,,Tršická,81,,
,Penguin box,511382,Přerov,,Dr. Skaláka,1325,,
,Penguin box,511382,Přerov,,Tyršova,9,,
,Penguin box,511382,Přerov,,Dr. Milady Horákové,27,,
,Penguin box,511382,Přerov,,Hranická,73,,
,Penguin box,511382,Přerov,,Seifertova,437,,
,Penguin box,511382,Přerov,,Čechova,387,,
,Penguin box,511382,Přerov,,Pod Skalkou,37,,
,Penguin box,511382,Přerov,,Svisle,785,,
,Penguin box,511382,Přerov,,Bayerova,1378,,
,Penguin box,511382,Přerov,,Velká Dlážka,1262,,
,Penguin box,511382,Přerov,,Budovatelů,1235,,
,Penguin box,511382,Přerov,,Kabelíkova,2675,,
,Penguin box,511382,Přerov,,Ztracená,344,,
,Penguin box,512281,Beňov,,Beňov,19,,
,Penguin box,512800,Brodek u Přerova,,Havlíčkova,482,,
,Penguin box,512800,Brodek u Přerova,,9.května,442,,
,Penguin box,512800,Brodek u Přerova,,Družstevní,445,,
,Penguin box,512869,Strahovice,,Strahovice,126,,
,Penguin box,513229,Dřevohostice,,Náměstí,67,,
,Penguin box,513393,Přistoupim,,Přistoupim,80,,
,Penguin box,513539,Velká Lečice,,Velká Lečice,113,,
,Penguin box,513750,Hranice,,lipnická,5,,
,Penguin box,513750,Hranice,,Tyršova,880,,
,Penguin box,513750,Hranice,,Hromůvka,1521,,
,Penguin box,513750,Hranice,,Pod Lipami,1231,,
,Penguin box,513750,Hranice,,Tř. 1. Máje,1729,,
,Penguin box,513750,Hranice,,Struhlovsko,1795,,
,Penguin box,513750,Hranice,,Purgešova,,,
,Penguin box,513750,Hranice,,Mlýnský Příkop,1788,,
,Penguin box,513750,Hranice,,Galašova,1739,,
,Penguin box,513750,Hranice,,Struhlovsko,1497,,
,Penguin box,513768,Hustopeče nad Bečvou,,Dlouhá,253,,
,Penguin box,514055,Kojetín,,Družstevní,1363,,
,Penguin box,514055,Kojetín,,Nádražní,908,,
,Penguin box,514055,Kojetín,,Dudíkova,1247,,
,Penguin box,514055,Kojetín,,Družstevní,1364,,
,Penguin box,514055,Kojetín,,Tyršova,1277,,
,Penguin box,514152,Kokory,,Kokory,33,,
,Penguin box,514705,Lipník nad Bečvou,,Hranická,989,,
,Penguin box,514705,Lipník nad Bečvou,,Blahoslavova,845,,
,Penguin box,514705,Lipník nad Bečvou,,M. J. Husa,1647,,
,Penguin box,514705,Lipník nad Bečvou,,Zahradní,1250,,
,Penguin box,515191,Lobodice,,Lobodice,12,,
,Penguin box,516350,Oprostovice,,Oprostovice,36,,
,Penguin box,517101,Potštát,,Bočkovo náměstí,5,,
,Penguin box,517101,Potštát,,Potoční,,,
,Penguin box,517101,Potštát,,Lipná,,,
,Penguin box,517101,Potštát - Kyžlířov,,Kyžlířov,9,,
,Penguin box,517607,Rokytnice,,Rokytnice,286,,
,Penguin box,523704,Šumperk,,Generála Svobody,1977,,
,Penguin box,523704,Šumperk,,Masarykovo nám.,1281,,
,Penguin box,523704,Šumperk,,Dr. E. Beneše,5,,
,Penguin box,523704,Šumperk,,8 . května,,,
,Penguin box,523704,Šumperk,,Zahradní,2654,,
,Penguin box,523704,Šumperk,,Jeremenkova,1571,,
,Penguin box,523704,Šumperk,,8. května,750,,
,Penguin box,523704,Šumperk,,Čičákova,985,,
,Penguin box,523704,Šumperk,,Jiřího z Poděbrad,1577,,
,Penguin box,523704,Šumperk,,Reissova,3087,,
,Penguin box,523704,Šumperk,,Anglická,,,
,Penguin box,523704,Šumperk,,8. května,,,
,Penguin box,523704,Šumperk,,Nezvalova,360,,
,Penguin box,523704,Šumperk,,Finská,2715,,
,Penguin box,523704,Šumperk,,Vrchlického,1720,,
,Penguin box,523704,Šumperk,,Balbínova,1614,,
,Penguin box,523704,Šumperk,,Langrova,,,
,Penguin box,523704,Šumperk,,Evaldova,190,,
,Penguin box,523704,Šumperk,,Temenická,11,,
,Penguin box,523704,Šumperk,,Prievidzská,2415,,
,Penguin box,523704,Šumperk,,Šumavská,2155,,
,Penguin box,523704,Šumperk,,Nerudova,1256,,
,Penguin box,523704,Šumperk,,Alšova,1647,,
,Penguin box,523704,Šumperk,,Bohdíkovská,,,
,Penguin box,525588,Bludov,,V potokách,910,,
,Penguin box,525588,Bludov,,Družstevní,302,,
,Penguin box,525588,Bludov,,Školní,691,,
,Penguin box,525588,Bludov,,Za Školou,368,,
,Penguin box,525588,Bludov,,Palackého,479,,
,Penguin box,526169,Branná,,Branná,26,,
,Penguin box,529303,Benešov,,Bezručova,1064,,
,Penguin box,529621,Divišov,,U Haltýře,198,,
,Penguin box,529931,Kondrac,,Kondrac,87,,
,Penguin box,530107,Louňovice pod Blaníkem,,Mládežnická,235,,
,Penguin box,530182,Žákava,,Žákava,178,,
,Penguin box,530212,Načeradec,,Zámecké náměstí,283,,
,Penguin box,530352,Ostředek,,Ostředek,43,,
,Penguin box,530352,Ostředek,,Třemošnice,27,,
,Penguin box,530743,Bílkovice,,Bílkovice,78,,
,Penguin box,530778,Tichonice,,Tichonice,13,,
,Penguin box,530859,Semtěš,,Semtěš,17,,
,Penguin box,530859,Semtěš,,Semtěš,51,,
,Penguin box,530883,Vlašim,,Ulice Komenského,1580,,
,Penguin box,530883,Vlašim,,Dolnokralovická,1291,,
,Penguin box,530913,Vracovice,,Vracovice,40,,
,Penguin box,531057,Beroun,,Drašarova,1451,,
,Penguin box,531138,Cerhovice,,Kovářská,308,,
,Penguin box,531146,Drahelčice,,Na Malé Růži,,,
,Penguin box,531189,Hořovice,,Masarykova,1424,,
,Penguin box,531189,Hořovice,,Palachova,732,,
,Penguin box,531227,Hudlice,,Na Vršíčkách,35,,
,Penguin box,531227,Hudlice,,Hořejší,,,
,Penguin box,531227,Hudlice,,Jáchymovská,,,
,Penguin box,531243,Hýskov,,Na Břasích,206,,
,Penguin box,531286,Bratčice,,Bratčice,75,,
,Penguin box,531316,Karlštejn,,Karlštejn,185,,
,Penguin box,531316,Karlštejn,,Karlštejn,318,,
,Penguin box,531324,Komárov,,Pionýrů,521,,
,Penguin box,531324,Komárov,,Zaječovská,473,,
,Penguin box,531448,Libomyšl,,Libomyšl,175,,
,Penguin box,531502,Liblice,,Liblice,24,,
,Penguin box,531596,Nižbor,,Křivoklátská,71,,
,Penguin box,531642,Osov,,Osovec,17,,
,Penguin box,531766,Stašov,,Stašov,67,,
,Penguin box,532029,Žebrák,,Sokolská,373,,
,Penguin box,532029,Žebrák,,Pražská,129,,
,Penguin box,532053,Kladno,,Arbesova,,,
,Penguin box,532053,Kladno,,Unhošťská,3231,,
,Penguin box,532053,Kladno,,Litevská,2570,,
,Penguin box,532053,Kladno,,Polská,2333,,
,Penguin box,532053,Kladno,,Velvarská,1273,,
,Penguin box,532053,Kladno,,Sevastopolská,,,
,Penguin box,532053,Kladno,,Moskevská,2986,,
,Penguin box,532053,Kladno,,Vojtěcha Lanny,3291,,
,Penguin box,532053,Kladno,,Tylova,1185,,
,Penguin box,532053,Kladno,,Ukrajinská,2192,,
,Penguin box,532053,Kladno - Kročehlavy,,Italská,2371,,
,Penguin box,532053,Kladno - Kročehlavy,,5. května,3242,,
,Penguin box,532061,Václavice,,Václavice,90,,
,Penguin box,532088,Beřovice,,Beřovice,48,,
,Penguin box,532118,Brandýsek,,Slánská,396,,
,Penguin box,532118,Brandýsek,,Slánská,47,,
,Penguin box,532142,Bratronice,,Lhotecká,181,,
,Penguin box,532321,Hořešovice,,Hořešovice,11,,
,Penguin box,532363,Hrdlív,,Hrdlív,176,,
,Penguin box,532401,Jarpice,,Jarpice,15,,
,Penguin box,532444,Kačice,,Čelechovická,313,,
,Penguin box,532444,Kačice,,Pod Strání,19,,
,Penguin box,532452,Kamenné Žehrovice,,Havířská,32,,
,Penguin box,532452,Kamenné Žehrovice,,Karlovarská třída,468,,
,Penguin box,532452,Kamenné Žehrovice,,Na Hřištěm,,,
,Penguin box,532452,Kamenné Žehrovice,,V Zelnišťatech,237,,
,Penguin box,532461,Klobuky,,Nám. 9 Května,153,,
,Penguin box,532584,Lidice,,Starosty Hejmy,204,,
,Penguin box,532657,Malíkovice,,Hvězda,72,,
,Penguin box,532665,Neuměřice,,Neuměřice,85,,
,Penguin box,532789,Ptice,,Za Úřadem,228,,
,Penguin box,532983,Tuchlovice,,Karlovarská,34,,
,Penguin box,533017,Unhošť,,K Ovčandě,111,,
,Penguin box,533017,Unhošť,,Zd. Hofbauera,618,,
,Penguin box,533041,Velvary,,Chržínská,32,,
,Penguin box,533068,Vraný,,Vraný,82,,
,Penguin box,533165,Kolín,,Západní,243,,
,Penguin box,533165,Kolín,,V Kasárnách,1019,,
,Penguin box,533271,Český Brod,,Jana Kouly,445,,
,Penguin box,533271,Český Brod,,Zárubova,1081,,
,Penguin box,533271,Český Brod,,Slovenská,,,
,Penguin box,533271,Český Brod,,Komenského,341,,
,Penguin box,533271,Český Brod,,Na Bělidle,511,,
,Penguin box,533271,Český Brod,,Štolmířská,1599,,
,Penguin box,533271,Český Brod,,Pod Malým vrchem,905,,
,Penguin box,533271,Český Brod - Liblice,,Ve Staré vsi,280,,
,Penguin box,533271,Český Brod - Liblice,,U Hřiště,174,,
,Penguin box,533424,Kouřim,,Okružní,513,,
,Penguin box,533432,Kozojedy,,Družstevní,25,,
,Penguin box,533441,Krakovany,,Krakovany,113,,
,Penguin box,533530,Nová Ves I,,Legerovo náměstí,27,,
,Penguin box,533530,Nová Ves I,,Václavské Náměstí,22,,
,Penguin box,533564,Oleška,,Oleška,39,,
,Penguin box,533670,Chrustenice,,Chrustenice,121,,
,Penguin box,533700,Starý Kolín,,Hudečkova,46,,
,Penguin box,533751,Třebovle,,Třebovle,22,,
,Penguin box,533769,Tři Dvory,,Tři Dvory,271,,
,Penguin box,533815,Uhlířská Lhota,,Uhlířská Lhota,69,,
,Penguin box,533831,Velim,,třída Krále Jiřího,113,,
,Penguin box,533947,Žiželice,,Masarykovo náměstí,1,,
,Penguin box,533955,Kutná Hora,,Masarykova,96,,
,Penguin box,534005,Čáslav,,Sadová,660,,
,Penguin box,534048,Vižina,,Vižina,36,,
,Penguin box,534102,Chotusice,,Chotusice,82,,
,Penguin box,534188,Malešov,,Malešov,45,,
,Penguin box,534251,Okřesaneč,,Okřesaneč,108,,
,Penguin box,534471,Záhornice,,Hlavní,108,,
,Penguin box,534587,Vrdy,,Sluneční,327,,
,Penguin box,534617,Zbraslavice,,Zbraslavice,91,,
,Penguin box,534633,Zruč nad Sázavou,,Poštovní,593,,
,Penguin box,534650,Žehušice,,K Lávce,136,,
,Penguin box,534668,Žleby,,Náměstí na Kopci,25,,
,Penguin box,534676,Mělník,,Vodárenská,3653,,
,Penguin box,534676,Mělník,,Pražská,4296,,
,Penguin box,534714,Býkev,,Býkev,27,,
,Penguin box,534731,Cítov,,Daminěves,21,,
,Penguin box,534765,Dolní Beřkovice,,Vliněves,9,,
,Penguin box,534765,Dolní Beřkovice,,náměstí Míru,1,,
,Penguin box,534838,Chorušice,,Chorušice,89,,
,Penguin box,534838,Chorušice,,Velký Újezd,118,,
,Penguin box,534897,Kly,,Kly,300,,
,Penguin box,534927,Dubicko,,Zábřežská,215,,
,Penguin box,534927,Dubicko,,7.května,194,,
,Penguin box,535036,Malý Újezd,,Malý Újezd,97,,
,Penguin box,535133,Obříství,,M. Zd. Poláka,307,,
,Penguin box,535354,Zálezlice,,Zálezlice,60,,
,Penguin box,535419,Mladá Boleslav,,Havlíčkova,1255,,
,Penguin box,535443,Bělá pod Bezdězem,,Tyršova,396,,
,Penguin box,535478,Bezno,,Zahradní,273,,
,Penguin box,535621,Čachovice,,Husova,,,
,Penguin box,535702,Dolní Bousov,,Na Tvrzi,613,,
,Penguin box,535729,Dolní Slivno,,Dolní Slivno,80,,
,Penguin box,535753,Hůry,,Průběžná,222,,
,Penguin box,535885,Hoštejn,,Hoštejn,106,,
,Penguin box,535893,Vitín,,Vitín,140,,
,Penguin box,535931,Chotětov,,Hřivno,34,,
,Penguin box,536008,Katusice,,náměstí Budovatelů,3,,
,Penguin box,536008,Katusice,,Státních statků,,,
,Penguin box,536041,Kněžmost,,Sobotecká,185,,
,Penguin box,536181,Kropáčova Vrutice,,Kropáčova Vrutice,41,,
,Penguin box,536261,Loukovec,,Loukovec,71,,
,Penguin box,536407,Obruby,,Obruby,85,,
,Penguin box,536857,Velké Všelisy,,Velké Všelisy,18,,
,Penguin box,536938,Všejany,,Nádražní,146,,
,Penguin box,536989,Žerčice,,Žerčice,77,,
,Penguin box,537004,Nymburk,,Kolínská,284,,
,Penguin box,537021,Běrunice,,Hlavní,1,,
,Penguin box,537021,Běrunice - Velké Výkleky,,U Mlýna,59,,
,Penguin box,537098,Dlouhopolsko,,Dlouhopolsko,142,,
,Penguin box,537128,Dymokury,,Černohorská,33,,
,Penguin box,537128,Dymokury,,Revoluční,97,,
,Penguin box,537225,Chotěšice,,Chotěšice,30,,
,Penguin box,537276,Kamenné Zboží,,Kamenné Zboží,125,,
,Penguin box,537314,Kostelní Lhota,,Kostelní Lhota,148,,
,Penguin box,537331,Kostomlaty nad Labem,,Hradištská,297,,
,Penguin box,537373,Kovanice,,Chvalovice,87,,
,Penguin box,537373,Kovanice,,Kovanice,93,,
,Penguin box,537446,Loučeň,,Za Poštou,97,,
,Penguin box,537446,Loučeň,,Na Pískách,183,,
,Penguin box,537446,Loučeň,,Nymburská,307,,
,Penguin box,537446,Loučeň,,Za Poštou,49,,
,Penguin box,537454,Lysá nad Labem,,Čapkova,22,,
,Penguin box,537489,Městec Králové,,Janáčkova,903,,
,Penguin box,537489,Městec Králové,,Husova,539,,
,Penguin box,537624,Ostrá,,Ostrá,81,,
,Penguin box,537683,Poděbrady,,Olbrachtova,600,,
,Penguin box,537683,Poděbrady,,Boučkova,679,,
,Penguin box,537705,Poříčany,,Lipová,368,,
,Penguin box,537721,Přerov nad Labem,,Přerov nad Labem,114,,
,Penguin box,537721,Přerov nad Labem,,Přerov nad Labem,159,,
,Penguin box,537764,Sadská,,Na Valech,708,,
,Penguin box,537764,Sadská,,Pražská,1079,,
,Penguin box,537764,Sadská,,Lázeňská,736,,
,Penguin box,537781,Semice,,Semice,249,,
,Penguin box,537861,Stratov,,Stratov,171,,
,Penguin box,537969,Otovice,,Hroznětínská,130,,
,Penguin box,537985,Všechlapy,,Všechlapy,200,,
,Penguin box,538027,Smolné Pece,,Smolné Pece,182,,
,Penguin box,538051,Bašť,,K Bažantnici,976,,
,Penguin box,538132,Čelákovice,,Toušeňská,2042,,
,Penguin box,538426,Kunice,,U Žežulárny,13,,
,Penguin box,538426,Kunice,,Všešímská,223,,
,Penguin box,538507,Mochov,,Sokolovská,36,,
,Penguin box,538540,Nehvizdy,,Družstevní,350,,
,Penguin box,538574,Odolena Voda,,Dolní náměstí,24,,
,Penguin box,538591,Dolní Rychnov,,Náměstí,75,,
,Penguin box,538591,Dolní Rychnov,,Černý vrch,434,,
,Penguin box,538647,Postřižín,,K Moklině,335,,
,Penguin box,538647,Postřižín,,Polní,90,,
,Penguin box,538647,Postřižín,,Pod Vinicí,200,,
,Penguin box,538655,Předboj,,Západní Stráň,345,,
,Penguin box,538680,Pyšely,,nám. T. G. Masaryka,35,,
,Penguin box,538728,Říčany,,Černokostelecká,2270,,
,Penguin box,538728,Říčany,,Marie Pujmanové,2045,,
,Penguin box,538833,Sulice,,Hlavní,873,,
,Penguin box,538850,Svojetice,,Na Kopci,14,,
,Penguin box,538892,Tehov,,Svatojánská náves,3,,
,Penguin box,538914,Lázně Toušeň,,Na Pruhu,282,,
,Penguin box,538981,Velké Popovice,,Jiráskova,92,,
,Penguin box,539058,Zdiby - Veltěž,,Za Sokolovnou,100,,
,Penguin box,539236,Horoměřice,,Nebušická,709,,
,Penguin box,539236,Horoměřice,,Severní,517,,
,Penguin box,539252,Hradištko,,Velká Podkova,1602,,
,Penguin box,539309,Chýně,,Květnová,16,,
,Penguin box,539309,Chýně,,Johančina,783,,
,Penguin box,539309,Chýně,,Štěrbova,957,,
,Penguin box,539309,Chýně,,Buková,706,,
,Penguin box,539309,Chýně,,Na Kališti,563,,
,Penguin box,539309,Chýně,,U Dráhy,322,,
,Penguin box,539333,Jílové u Prahy,,Komenského,365,,
,Penguin box,539368,Kamenný Přívoz,,Hostěradice,11,,
,Penguin box,539384,Kněževes,,Nová čtvrť,101,,
,Penguin box,539392,Kosoř,,Průběžná,23,,
,Penguin box,539406,Lety,,Na Návsi,68,,
,Penguin box,539422,Libeř,,Libeř ev. č.,40,,
,Penguin box,539490,Měchenice,,Na Vyhlídce,285,,
,Penguin box,539490,Měchenice,,Hlavní,100,,
,Penguin box,539503,Ohrobec,,K Lesíčku,129,,
,Penguin box,539627,Roztoky,,Jungmannova,966,,
,Penguin box,539741,Štěnovický Borek,,Štěnovický Borek,64,,
,Penguin box,539759,Třebotov,,Klidná,69,,
,Penguin box,539830,Vonoklasy,,Karlická,127,,
,Penguin box,539848,Vrané nad Vltavou,,Nádražní,137,,
,Penguin box,539848,Vrané nad Vltavou,,Vltavská,7,,
,Penguin box,539856,Všenory,,Nad Nádražím,604,,
,Penguin box,539961,Libina,,Dolní Libina,134,,
,Penguin box,539961,Libina,,Obědné,17,,
,Penguin box,539961,Libina,,Libina,392,,
,Penguin box,539961,Libina,,Libina,767,,
,Penguin box,540021,Buková u Příbramě,,Buková u Příbramě,13,,
,Penguin box,540111,Dobříš,,Fričova,1101,,
,Penguin box,540111,Dobříš,,Za Poštou,1044,,
,Penguin box,540111,Dobříš,,Čs. armády,406,,
,Penguin box,540111,Dobříš,,Školní,1035,,
,Penguin box,540111,Dobříš,,Žižkova,751,,
,Penguin box,540111,Dobříš,,Hornická,1007,,
,Penguin box,540111,Dobříš,,U Ovčína,1484,,
,Penguin box,540226,Loučná nad Desnou,,Loučná nad Desnou,84,,
,Penguin box,540226,Loučná nad Desnou,,Loučná nad Desnou,82,,
,Penguin box,540226,Loučná nad Desnou,,Kouty nad Desnou,3,,
,Penguin box,540226,Loučná nad Desnou,,Filipová,72,,
,Penguin box,540382,Mikulovice,,Hlavní,37,,
,Penguin box,540382,Mikulovice,,Sokolská,534,,
,Penguin box,540404,Jince,,Slavíkova,2,,
,Penguin box,540404,Jince,,Husova,241,,
,Penguin box,540404,Jince,,Zborovská,346,,
,Penguin box,540404,Jince,,Zborovská,351,,
,Penguin box,540471,Mohelnice,,Družstevní,338,,
,Penguin box,540480,Moravičany,,Moravičany,290,,
,Penguin box,540498,Kosova Hora,,Kosova Hora,34,,
,Penguin box,540501,Nový Malín,,Nový Malín,429,,
,Penguin box,540501,Nový Malín,,Plechy,17,,
,Penguin box,540501,Nový Malín,,Nový Malín,110,,
,Penguin box,540544,Oskava,,Oskava,14,,
,Penguin box,540773,Postřelmov,,Závořická,,,
,Penguin box,540862,Rapotín,,Šumperská,775,,
,Penguin box,540862,Rapotín,,Družstevní,122,,
,Penguin box,540862,Rapotín,,Stará,10,,
,Penguin box,540862,Rapotín,,Jesenická,231,,
,Penguin box,540862,Rapotín,,Jesenická,543,,
,Penguin box,540862,Rapotín,,Na Výsluní,348,,
,Penguin box,540901,Nový Knín,,Sídliště,411,,
,Penguin box,540919,Rovensko,,Rovensko,74,,
,Penguin box,541028,Pečice,,Pečice,101,,
,Penguin box,541079,Staré Město,,Hanušovická,351,,
,Penguin box,541079,Staré Město,,Jesenická,205,,
,Penguin box,541079,Staré Město,,sídl. Budovatelů,401,,
,Penguin box,541125,Svébohov,,Svébohov,10,,
,Penguin box,541231,Rožmitál pod Třemšínem,,Na Spravedlnosti,366,,
,Penguin box,541231,Rožmitál pod Třemšínem,,Na Tržišti,492,,
,Penguin box,541231,Rožmitál pod Třemšínem,,U Stadionu,540,,
,Penguin box,541265,Velké Losiny,,K Vyhlídce,622,,
,Penguin box,541265,Velké Losiny,,Velké Losiny,695,,
,Penguin box,541265,Velké Losiny,,sídliště U Papírny,508,,
,Penguin box,541303,Vidnava,,Hrdinů,279,,
,Penguin box,541303,Vidnava,,Sokolská,17,,
,Penguin box,541338,Stará Huť,,Karla Čapka,451,,
,Penguin box,541575,Žulová,,Na Rybníčku,43,,
,Penguin box,541575,Žulová,,Tomíkovice,336,,
,Penguin box,541630,Vsetín,,Smetanova,1110,,
,Penguin box,541656,Rakovník,,Československých legií,1873,,
,Penguin box,541656,Rakovník,,Pod Nemocnicí,2154,,
,Penguin box,541656,Rakovník,,Dukelských hrdinů,1908,,
,Penguin box,541737,Hořovičky,,Hořovičky,9,,
,Penguin box,542067,Městečko,,Městečko,1,,
,Penguin box,542113,Mšecké Žehrovice,,Mšecké Žehrovice,4,,
,Penguin box,542351,Řevničov,,Štefanikova,258,,
,Penguin box,542377,Senomaty,,Kloučkova,58,,
,Penguin box,542377,Senomaty,,Malá strana,41,,
,Penguin box,542377,Senomaty,,Na Vyhlídce,327,,
,Penguin box,542393,Vrbka,,Vrbka,69,,
,Penguin box,542415,Slabce - Modřejovice,,Modřejovice ev. č.,4,,
,Penguin box,542601,Zavidov,,Zavidov,67,,
,Penguin box,542644,Francova Lhota,,Francova Lhota,396,,
,Penguin box,542679,Halenkov,,Halenkov,611,,
,Penguin box,542687,Horní Bečva,,Horní Bečva,830,,
,Penguin box,542687,Horní Bečva,,Horní Bečva,473,,
,Penguin box,542784,Huslenky,,Huslenky,493,,
,Penguin box,542814,Hutisko-Solanec,,Solanec pod Soláněm,609,,
,Penguin box,542865,Jablůnka,,Jablůnka,4,,
,Penguin box,542911,Karolinka,,U Školy,549,,
,Penguin box,542911,Karolinka,,Pod Horů,50,,
,Penguin box,543543,Hruška,,Hruška,30,,
,Penguin box,544248,Pavlíkov,,Pavlíkov,3,,
,Penguin box,544256,České Budějovice,,J. Boreckého,34,,
,Penguin box,544256,České Budějovice,,České Vrbné,2327,,
,Penguin box,544302,Lešná,,Lešná,126,,
,Penguin box,544485,Hluboká nad Vltavou,,Lidická,349,,
,Penguin box,544558,Hrdějovice,,Na Bahnech,601,,
,Penguin box,544574,Oznice,,Oznice,157,,
,Penguin box,544639,Jílovice,,Jílovice,177,,
,Penguin box,544639,Jílovice,,Jílovice,170,,
,Penguin box,544655,Pozděchov,,Pozděchov,250,,
,Penguin box,544698,Prostřední Bečva,,Prostřední Bečva,551,,
,Penguin box,544787,Ratiboř,,Ratiboř,282,,
,Penguin box,544990,Valašská Polanka,,Valašská Polanka,344,,
,Penguin box,545058,Valašské Meziříčí,,Masarykova,873,,
,Penguin box,545058,Valašské Meziříčí,,Šafaříkova,555,,
,Penguin box,545066,Srubec,,Ledenická-Stará Pohůrka,330,,
,Penguin box,545121,Ševětín,,J.A. Komenského,59,,
,Penguin box,545121,Ševětín,,Zahradní,241,,
,Penguin box,545198,Vidče,,Vidče,96,,
,Penguin box,545210,Vigantice,,Vigantice,53,,
,Penguin box,545210,Vigantice,,Vigantice,204,,
,Penguin box,545252,Zubří,,Hlavní,82,,
,Penguin box,545252,Zubří,,Dropávka,1139,,
,Penguin box,545252,Zubří,,Hamerská,810,,
,Penguin box,545252,Zubří,,Sídliště 6. května,1048,,
,Penguin box,545252,Zubří,,sídliště 6. května,1113,,
,Penguin box,545252,Zubří,,Pod Hůrkou,301,,
,Penguin box,545252,Zubří,,Starozuberská,870,,
,Penguin box,545252,Zubří,,Horní,483,,
,Penguin box,545309,Kožichovice,,Kožichovice,6,,
,Penguin box,545392,Český Krumlov,,Domoradická,299,,
,Penguin box,545392,Český Krumlov,,Urbinská,185,,
,Penguin box,545392,Český Krumlov,,Vyšný,77,,
,Penguin box,545392,Český Krumlov,,Špičák,117,,
,Penguin box,545392,Český Krumlov,,Vyšný,28,,
,Penguin box,545392,Český Krumlov,,Vyšenská,129,,
,Penguin box,545392,Český Krumlov,,Polská,436,,
,Penguin box,545392,Český Krumlov,,Nové Spolí,118,,
,Penguin box,545392,Český Krumlov,,Po Vodě,106,,
,Penguin box,545392,Český Krumlov,,Domoradická,1,,
,Penguin box,545431,Brloh,,Brloh,148,,
,Penguin box,545554,Kájov,,Májová,,,
,Penguin box,545554,Kájov,,Kájovská,22,,
,Penguin box,545562,Kaplice,,Míru,756,,
,Penguin box,545562,Kaplice,,Českobudějovická,335,,
,Penguin box,545562,Kaplice,,Osiková,1044,,
,Penguin box,545562,Kaplice,,1. máje,771,,
,Penguin box,545562,Kaplice,,SNP,462,,
,Penguin box,545562,Kaplice - Hubenov,,Hubenov,9,,
,Penguin box,545767,Rožmberk Nad Vltavou,,Rožmberk nad Vltavou,22,,
,Penguin box,545848,Vyšší Brod,,Pohraniční stráže,423,,
,Penguin box,545848,Vyšší Brod,,Pohraniční stráže,313,,
,Penguin box,545848,Vyšší Brod,,Dřevařská,,,
,Penguin box,545848,Vyšší Brod,,Zahradní,324,,
,Penguin box,545848,Vyšší Brod,,Náměstí,42,,
,Penguin box,545848,Vyšší Brod - Hrudkov,,Hrudkov,12,,
,Penguin box,545881,Jindřichův Hradec,,Řečička,779,,
,Penguin box,545881,Jindřichův Hradec,,Políkno,69,,
,Penguin box,545881,Jindřichův Hradec,,Na Palici,389,,
,Penguin box,545881,Jindřichův Hradec,,Otín,53,,
,Penguin box,545881,Jindřichův Hradec,,Dolní Radouň,116,,
,Penguin box,545881,Jindřichův Hradec,,Kalabisova,111,,
,Penguin box,545881,Jindřichův Hradec,,Otín,66,,
,Penguin box,545881,Jindřichův Hradec,,Dolní Skrýchov,39,,
,Penguin box,545881,Jindřichův Hradec,,Sládkův kopec,1106,,
,Penguin box,545881,Jindřichův Hradec,,Mládežnická,233,,
,Penguin box,545881,Jindřichův Hradec,,Buk,10,,
,Penguin box,545881,Jindřichův Hradec,,Děbolín,86,,
,Penguin box,545881,Jindřichův Hradec,,Otín,26,,
,Penguin box,545881,Jindřichův Hradec,,Otín,150,,
,Penguin box,545881,Jindřichův Hradec,,Anglická,1213,,
,Penguin box,545881,Jindřichův Hradec,,Horní Žďár,31,,
,Penguin box,545881,Jindřichův Hradec,,28. října,891,,
,Penguin box,545881,Jindřichův Hradec,,Matná,35,,
,Penguin box,545881,Jindřichův Hradec,,Děbolín,23,,
,Penguin box,546038,Budíškovice 103,,Budíškovice,103,,
,Penguin box,546402,Hospříz,,Hospříz,107,,
,Penguin box,546461,Chlum u Třeboně,,Sídliště F. Hrubína,394,,
,Penguin box,546461,Chlum u Třeboně,,Náměstí,232,,
,Penguin box,546461,Chlum u Třeboně,,Chelčického,265,,
,Penguin box,546615,Kunžak,,Nová,185,,
,Penguin box,546801,Nová Včelnice,,Na hliněnce,456,,
,Penguin box,546801,Nová Včelnice,,Na Hliněnce,457,,
,Penguin box,546801,Nová Včelnice,,Československé armády,417,,
,Penguin box,546984,Bílov,,Bílov,91,,
,Penguin box,547026,Bystrovany,,Malátova,11,,
,Penguin box,547026,Bystrovany,,Budovcova,110,,
,Penguin box,547182,Kozmice,,Hlavní,360,,
,Penguin box,547239,Strmilov,,Náměstí,268,,
,Penguin box,547263,Studená,,1. máje,458,,
,Penguin box,547280,Suchdol nad Lužnicí,,sídliště 17. listopadu,503,,
,Penguin box,547280,Suchdol nad Lužnicí,,Lužnická,561,,
,Penguin box,547280,Suchdol nad Lužnicí,,Bezručova,,,
,Penguin box,547280,Suchdol nad Lužnicí,,Pražská,839,,
,Penguin box,547280,Suchdol nad Lužnicí,,sídliště 9. května,863,,
,Penguin box,547492,Pelhřimov,,třída Legií,985,,
,Penguin box,547603,Bratřice,,Bratřice,11,,
,Penguin box,547646,Velké Poříčí,,Poříčská,620,,
,Penguin box,547662,Cetoraz,,Cetoraz,206,,
,Penguin box,547760,Černovice,,Družstevní,554,,
,Penguin box,547760,Černovice,,Mariánské náměstí,84,,
,Penguin box,547760,Černovice,,Na Sadech,722,,
,Penguin box,547760,Černovice,,V Hati,766,,
,Penguin box,547778,Červená Řečice,,Červená Řečice,10,,
,Penguin box,547786,Adršpach,,Horní Adršpach,128,,
,Penguin box,547905,Rybník,,Rybník,271,,
,Penguin box,547948,Hořepník,,náměstí Prof. Bechyně,53,,
,Penguin box,547999,Humpolec,,Horní náměstí,10,,
,Penguin box,548031,Dlouhoňovice,,Sídlištní,130,,
,Penguin box,548081,Jiřice,,Jiřice,220,,
,Penguin box,548383,Mladé Bříště,,Mladé Bříště,7,,
,Penguin box,548456,Nová Cerekev,,Nová Cerekev,179,,
,Penguin box,548456,Nová Cerekev,,Nová Cerekev,5,,
,Penguin box,548472,Obrataň,,Obrataň,160,,
,Penguin box,548561,Počátky,,Tyršova,535,,
,Penguin box,548561,Počátky,,Sídliště,582,,
,Penguin box,548561,Počátky,,Lipárky,528,,
,Penguin box,548715,Řečice,,Řečice,42,,
,Penguin box,548855,Bříšťany,,Bříšťany,4,,
,Penguin box,549142,Vyskytná,,Vyskytná,145,,
,Penguin box,549177,Zachotín,,Zachotín,4,,
,Penguin box,549231,Žirovnice,,Tyršova,385,,
,Penguin box,549231,Žirovnice,,Hradecká,77,,
,Penguin box,549231,Žirovnice,,Sídliště,594,,
,Penguin box,549231,Žirovnice,,Nádražní,263,,
,Penguin box,549240,Písek,,Pažoutova,2608,,
,Penguin box,549240,Písek,,Vinařického,417,,
,Penguin box,549240,Písek,,Na Spravedlnosti,741,,
,Penguin box,549240,Písek,,Na Stráni,139,,
,Penguin box,549240,Písek,,Alšova,1035,,
,Penguin box,549240,Písek,,V Lukách,,,
,Penguin box,549240,Písek,,Na Stínadlech,445,,
,Penguin box,549240,Písek,,Dr. M. Horákové,1711,,
,Penguin box,549266,Bernartice,,Za Humny,276,,
,Penguin box,549461,Pohořelice,,Náves,300,,
,Penguin box,549517,Kovářov,,Kovářov,30,,
,Penguin box,549576,Milevsko,,Písecké předměstí,1393,,
,Penguin box,549576,Milevsko,,Kpt. Nálepky,1032,,
,Penguin box,549576,Milevsko,,Švermova,1434,,
,Penguin box,549576,Milevsko,,Suchanova,6,,
,Penguin box,549576,Milevsko,,5. května,1213,,
,Penguin box,549576,Milevsko,,Jiráskova,836,,
,Penguin box,549576,Milevsko,,Masarykova,172,,
,Penguin box,549576,Milevsko,,Sadová,1280,,
,Penguin box,549576,Milevsko,,náměstí E. Beneše,733,,
,Penguin box,549576,Milevsko,,J. A. Komenského,932,,
,Penguin box,549576,Milevsko,,R. Svobodové,670,,
,Penguin box,549576,Milevsko,,Č. Holase,1236,,
,Penguin box,549576,Milevsko,,F. Kudláčka,1176,,
,Penguin box,549576,Milevsko,,B. Němcové,868,,
,Penguin box,549576,Milevsko,,Tyršovo náměstí,518,,
,Penguin box,549584,Mirotice,,Školní,261,,
,Penguin box,549649,Tečovice,,Tečovice,,,
,Penguin box,549649,Tečovice,,Tečovice,60,,
,Penguin box,549665,Raškovice,,Raškovice,318,,
,Penguin box,549665,Raškovice,,Raškovice,391,,
,Penguin box,549720,Přílepy,,Přílepy,115,,
,Penguin box,549916,Pikárec,,Pikárec,99,,
,Penguin box,550132,Olšany,,Olšany,240,,
,Penguin box,550141,Medlovice,,Medlovice,1,,
,Penguin box,550213,Heršpice,,Heršpice,267,,
,Penguin box,550256,Kašnice,,Kašnice,41,,
,Penguin box,550442,Netolice,,9. května,559,,
,Penguin box,550752,Staré Město,,Za Mlýnem,313,,
,Penguin box,550752,Staré Město,,Alšova,1348,,
,Penguin box,550752,Staré Město,,Kopánky,1729,,
,Penguin box,550752,Staré Město,,Sées,2002,,
,Penguin box,550752,Staré Město,,Kopánky,1636,,
,Penguin box,550779,Naloučany,,Naloučany,29,,
,Penguin box,550787,Strakonice,,Tovární,67,,
,Penguin box,550787,Strakonice,,Virtova,23,,
,Penguin box,550787,Strakonice,,Mládežnická,1260,,
,Penguin box,550787,Strakonice,,Nová,266,,
,Penguin box,550787,Strakonice,,Radomyšlská,101,,
,Penguin box,550787,Strakonice,,Vodárenská,332,,
,Penguin box,550787,Strakonice,,sídliště 1. máje,1137,,
,Penguin box,550787,Strakonice,,Dražejov,35,,
,Penguin box,551457,Studeněves,,Studeněves,70,,
,Penguin box,551481,Kněžičky,,Kněžičky,38,,
,Penguin box,551660,Radomyšl,,Maltézské náměstí,216,,
,Penguin box,551732,Moravskoslezský Kočov,,Moravský Kočov,195,,
,Penguin box,551821,Tvrdkov,,Tvrdkov,62,,
,Penguin box,551830,Škvořetice,,Škvořetice,100,,
,Penguin box,552003,Čaková,,Čaková,90,,
,Penguin box,552046,Tábor,,Kapitána Jaroše,2392,,
,Penguin box,552046,Tábor,,Soběslavská,3038,,
,Penguin box,552046,Tábor,,U Stadionu Míru,,,
,Penguin box,552046,Tábor,,Václava Soumara,,,
,Penguin box,552046,Tábor,,Vídeňská,2776,,
,Penguin box,552046,Tábor,,Kpt. Jaroše,2876,,
,Penguin box,552046,Tábor,,Havanská,2814,,
,Penguin box,552046,Tábor,,Spojovací,80,,
,Penguin box,552046,Tábor,,U Trati,3103,,
,Penguin box,552046,Tábor,,U Čápova dvora,,,
,Penguin box,552046,Tábor,,Varšavská,2741,,
,Penguin box,552046,Tábor,,U Obecních domů,1616,,
,Penguin box,552046,Tábor,,Sofijská,2798,,
,Penguin box,552046,Tábor,,Nábřeží,206,,
,Penguin box,552046,Tábor,,Zbyňkova,926,,
,Penguin box,552054,Bechyně,,Na Libuši,640,,
,Penguin box,552119,Věrovany - Nenakonice,,Nenakonice,461,,
,Penguin box,552151,Skrbeň,,U Školy,16,,
,Penguin box,552275,Dráchov,,Dráchov,126,,
,Penguin box,552321,Hlavatce,,Hlavatce,76,,
,Penguin box,552364,Ústín,,Ústín,170,,
,Penguin box,552411,Přáslavice,,Přáslavice,259,,
,Penguin box,552429,Svésedlice,,Svésedlice,13,,
,Penguin box,552461,Chotoviny,,U parku,,,
,Penguin box,552461,Chotoviny,,Rudé Armády,260,,
,Penguin box,552496,Chýnov,,Tyršova,362,,
,Penguin box,552500,Pazderna,,Pazderna,65,,
,Penguin box,552526,Nižní Lhoty,,Nižní Lhoty,71,,
,Penguin box,552551,Staré Město,,Jamnická,505,,
,Penguin box,552569,Staříč,,Chleboviceká,203,,
,Penguin box,552666,Malšice,,Malšice,50,,
,Penguin box,552691,Žabeň,,Žabeň,150,,
,Penguin box,552739,Horní Suchá,,Vnitřní,829,,
,Penguin box,552739,Horní Suchá,,6. srpna,,,
,Penguin box,552739,Horní Suchá,,Stavební,1225,,
,Penguin box,552747,Nemyšl,,Nemyšl,30,,
,Penguin box,552801,Opařany,,Opařany,336,,
,Penguin box,552828,Planá Nad Lužnicí,,Okružní,354,,
,Penguin box,552828,Planá Nad Lužnicí,,Hájkova,350,,
,Penguin box,552828,Planá Nad Lužnicí,,ČSLA,532,,
,Penguin box,552828,Planá Nad Lužnicí,,Ústrašická,31,,
,Penguin box,552828,Planá Nad Lužnicí,,Na Pískách,,,
,Penguin box,552828,Planá Nad Lužnicí,,ČSLA,725,,
,Penguin box,553051,Dolní Životice,,Štáblovská,35,,
,Penguin box,553107,Bratříkovice,,Bratříkovice,30,,
,Penguin box,553174,Sudoměřice u Tábora,,Sudoměřice u Tábora,36,,
,Penguin box,553221,Hrabová,,Hrabová,7,,
,Penguin box,553298,Vlastiboř,,Vlastiboř,83,,
,Penguin box,553328,Vodice,,Vodice,20,,
,Penguin box,553450,Blížejov,,Blížejov,1,,
,Penguin box,553468,Velká Kraš,,Velká Kraš,74,,
,Penguin box,553476,Nemile,,Lupěné,33,,
,Penguin box,553476,Nemile,,Nemile,93,,
,Penguin box,553581,Draženov,,Draženov,70,,
,Penguin box,553611,Litohlavy,,Litohlavy,91,,
,Penguin box,553697,Trmice,,Tyršova,869,,
,Penguin box,553697,Trmice,,Za Humny,,,
,Penguin box,553786,Kdyně,,Prapořiště,95,,
,Penguin box,553794,Klenčí pod Čerchovem,,Klenčí pod Čerchovem,285,,
,Penguin box,553948,Milavče,,Milavče,114,,
,Penguin box,554171,Šenov u Nového Jičína,,Družstevní,482,,
,Penguin box,554171,Šenov u Nového Jičína,,Malostranská,565,,
,Penguin box,554171,Šenov u Nového Jičína,,Malostranská,349,,
,Penguin box,554782,Praha,,Pražská,99,,
,Penguin box,554782,Praha,,V Benátkách,1751,,
,Penguin box,554782,Praha,,Čimelická,964,,
,Penguin box,554782,Praha,,U Elektry,888,,
,Penguin box,554782,Praha,,Růžová,941,,
,Penguin box,554782,Praha,,Breitcetlova,882,,
,Penguin box,554782,Praha,,Chodovská,1549,,
,Penguin box,554782,Praha,,Palmetová,2159,,
,Penguin box,554782,Praha,,Poděbradská,1011,,
,Penguin box,554782,Praha,,Fajtlova,1090,,
,Penguin box,554782,Praha,,Pod Altánem,2406,,
,Penguin box,554782,Praha,,V Hůrkách,2077,,
,Penguin box,554782,Praha,,Jesenická,3328,,
,Penguin box,554782,Praha,,Novovysočanská,984,,
,Penguin box,554782,Praha,,Špirkova,522,,
,Penguin box,554782,Praha,,Bucharova,2946,,
,Penguin box,554782,Praha,,Jankovcova,1603,,
,Penguin box,554782,Praha,,Tvrdého,643,,
,Penguin box,554782,Praha,,Česká,1113,,
,Penguin box,554782,Praha,,K Hutím,855,,
,Penguin box,554782,Praha,,Trojdílná,440,,
,Penguin box,554782,Praha,,Jílovská,427,,
,Penguin box,554782,Praha,,Pod Třešňovkou,234,,
,Penguin box,554782,Praha,,Náchodská,2479,,
,Penguin box,554782,Praha,,Dvořišťská,1321,,
,Penguin box,554782,Praha,,Veselská,721,,
,Penguin box,554782,Praha,,Laponská,1160,,
,Penguin box,554782,Praha,,Beranových,130,,
,Penguin box,554782,Praha,,Breitcetlova,880,,
,Penguin box,554782,Praha,,Plzeňská,136,,
,Penguin box,554782,Praha,,Na Pankráci,1727,,
,Penguin box,554782,Praha,,Svojšovická,2878,,
,Penguin box,554782,Praha,,Vinohradská,16,,
,Penguin box,554782,Praha,,Kolmistrova,1151,,
,Penguin box,554782,Praha,,Budějovická,1667,,
,Penguin box,554782,Praha,,Jeremiášova,1102,,
,Penguin box,554782,Praha,,Rýmařovská,561,,
,Penguin box,554782,Praha,,Kyslíková,2225,,
,Penguin box,554782,Praha,,Klapálkova,3135,,
,Penguin box,554782,Praha,,Sedmidomky,456,,
,Penguin box,554782,Praha,,Libušská,,,
,Penguin box,554782,Praha,,Lohniského,830,,
,Penguin box,554782,Praha,,U Jedličkova Ústavu,1349,,
,Penguin box,554782,Praha,,K Vltavě,653,,
,Penguin box,554782,Praha,,Krhanická,365,,
,Penguin box,554782,Praha,,Na Cikorce,1228,,
,Penguin box,554782,Praha,,Prosecká,848,,
,Penguin box,554782,Praha,,Okružní,2162,,
,Penguin box,554782,Praha,,Urbánkova,3364,,
,Penguin box,554782,Praha,,Petržílova,3302,,
,Penguin box,554782,Praha,,Hausmannova,3007,,
,Penguin box,554782,Praha,,Konstantinova,1498,,
,Penguin box,554782,Praha,,Libušská,319,,
,Penguin box,554782,Praha,,Štěchovická,1899,,
,Penguin box,554782,Praha,,Elektrárenská,,,
,Penguin box,554782,Praha,,Majerského,2031,,
,Penguin box,554782,Praha,,Ve Žlíbku,1800,,
,Penguin box,554782,Praha,,Machovická,1675,,
,Penguin box,554782,Praha,,Řepínská,669,,
,Penguin box,554782,Praha,,Hekova,118,,
,Penguin box,554782,Praha,,Lindnerova,1403,,
,Penguin box,554782,Praha,,Magnitogorská,1408,,
,Penguin box,554782,Praha,,Šolínova,513,,
,Penguin box,554782,Praha,,Heyrovského náměstí,288,,
,Penguin box,554782,Praha,,Mrkvičkova,1353,,
,Penguin box,554782,Praha,,U Krbu,383,,
,Penguin box,554782,Praha,,Květnová,570,,
,Penguin box,554782,Praha,,Bechyňská,45,,
,Penguin box,554782,Praha,,V Americe,78,,
,Penguin box,554782,Praha,,Šimůnkova,1625,,
,Penguin box,554782,Praha,,V Předpolí,1472,,
,Penguin box,554782,Praha,,Bělocerkevská,1305,,
,Penguin box,554782,Praha,,Stříbrského,686,,
,Penguin box,554782,Praha,,Jesenická,2143,,
,Penguin box,554782,Praha,,Přetlucká,2304,,
,Penguin box,554782,Praha,,Malínská,1293,,
,Penguin box,554782,Praha,,Rektorská,594,,
,Penguin box,554782,Praha,,V Hůrkách,1296,,
,Penguin box,554782,Praha,,Sněženková,2587,,
,Penguin box,554782,Praha,,U Dětského hřiště,891,,
,Penguin box,554791,Plzeň,,Raisova,11,,
,Penguin box,554791,Plzeň,,Jugoslávská,2,,
,Penguin box,554791,Plzeň,,Lábkova,67,,
,Penguin box,554791,Plzeň,,U Velkého rybníka,2299,,
,Penguin box,554791,Plzeň,,náměstí Milady Horákové,8,,
,Penguin box,554791,Plzeň,,Pod Lesem,,,
,Penguin box,554791,Plzeň,,Kaznějovská,1301,,
,Penguin box,554791,Plzeň,,Dlážděná,177,,
,Penguin box,554791,Plzeň,,Křimická,460,,
,Penguin box,554791,Plzeň,,Kovářská 2844/,13a,,
,Penguin box,554791,Plzeň,,Kralovická,145,,
,Penguin box,554791,Plzeň,,Sokolovská,777,,
,Penguin box,554791,Plzeň,,Hluboká,2448,,
,Penguin box,554791,Plzeň,,Masarykova,269,,
,Penguin box,554791,Plzeň,,Baarova,2582,,
,Penguin box,554791,Plzeň,,Skupova,2577,,
,Penguin box,554791,Plzeň,,Skupova,395,,
,Penguin box,554791,Plzeň,,Šimerova,459,,
,Penguin box,554791,Plzeň,,Hradecká,248,,
,Penguin box,554791,Plzeň,,Červenohradecká,186,,
,Penguin box,554791,Plzeň,,Nad Dalmatinkou,894,,
,Penguin box,554791,Plzeň,,Táborská,1304,,
,Penguin box,554791,Plzeň,,Lábkova,900,,
,Penguin box,554791,Plzeň,,Na Chmelnicích,1691,,
,Penguin box,554791,Plzeň,,Žlutická,62,,
,Penguin box,554791,Plzeň,,Mandlova,439,,
,Penguin box,554791,Plzeň,,Kralovická,1430,,
,Penguin box,554791,Plzeň,,K Silu,,,
,Penguin box,554791,Plzeň,,Skupova,458,,
,Penguin box,554791,Plzeň,,Terezie Brzkové,762,,
,Penguin box,554791,Plzeň,,Elišky Krásnohorské,710,,
,Penguin box,554791,Plzeň,,Majakovského,1193,,
,Penguin box,554791,Plzeň,,Na dlouhých,958,,
,Penguin box,554791,Plzeň,,Brněnská,1053,,
,Penguin box,554791,Plzeň,,Komenského,1087,,
,Penguin box,554791,Plzeň,,Žlutická,1647,,
,Penguin box,554791,Plzeň,,Klatovská třída,2342,,
,Penguin box,554791,Plzeň,,Ke Kukačce,791,,
,Penguin box,554791,Plzeň,,Heyrovského,481,,
,Penguin box,554791,Plzeň,,Mezi Silnicemi,410,,
,Penguin box,554791,Plzeň,,V Brance,394,,
,Penguin box,554791,Plzeň,,Sokolovská,791,,
,Penguin box,554791,Plzeň,,K Sinoru,62,,
,Penguin box,554791,Plzeň,,V Obilí,1227,,
,Penguin box,554791,Plzeň - Doubravka,,Těšínská,1486,,
,Penguin box,554791,Plzeň - Slovany,,Částkova,1968,,
,Penguin box,554821,Ostrava,,Novinářská,3178,,
,Penguin box,554821,Ostrava,,Spojovací,396,,
,Penguin box,554821,Ostrava,,Novoveská,3137,,
,Penguin box,554821,Ostrava,,Josefa Kainara,523,,
,Penguin box,554821,Ostrava,,Psohlavců,435,,
,Penguin box,554821,Ostrava,,Na Obvodu,49,,
,Penguin box,554821,Ostrava,,U Rourovny,687,,
,Penguin box,554821,Ostrava,,Bratří Sedláčků,158,,
,Penguin box,554821,Ostrava,,Bivojova,720,,
,Penguin box,554821,Ostrava,,Thomayerova,1474,,
,Penguin box,554821,Ostrava,,Hladnovská,757,,
,Penguin box,554821,Ostrava,,Jeremenkova,70,,
,Penguin box,554821,Ostrava,,Rostislavova,430,,
,Penguin box,554821,Ostrava,,Pod Výhonem,5420,,
,Penguin box,554821,Ostrava,,Rudná,3114,,
,Penguin box,554821,Ostrava,,Kuršova,406,,
,Penguin box,554821,Ostrava - Hrabová,,Prodloužená,807,,
,Penguin box,554821,Ostrava - Nová Ves,,U Boříka,31,,
,Penguin box,554821,Ostrava - Slezská,,Michálkovická,1810,,
,Penguin box,554821,Ostrava - Svinov,,Evžena Rošického,1078,,
,Penguin box,554821,Ostrava - Vítkovice,,Šalounova,778,,
,Penguin box,554821,Ostrava - Zábřeh,,Čujkovova,2709,,
,Penguin box,554910,Vražné,,Vražné,37,,
,Penguin box,554928,Vendryně,,Vendryně,835,,
,Penguin box,554928,Vendryně,,Vendryně,600,,
,Penguin box,554928,Vendryně,,Vendryně,656,,
,Penguin box,554928,Vendryně,,Vendryně,401,,
,Penguin box,555088,Havířov,,Marie Pujmanové,1124,,
,Penguin box,555088,Havířov,,Šrámkova,1379,,
,Penguin box,555088,Havířov,,U Stadionu,,,
,Penguin box,555088,Havířov,,Železničářů,8,,
,Penguin box,555134,Pardubice,,Josefa Janáčka,962,,
,Penguin box,555134,Pardubice,,Ležáků,347,,
,Penguin box,555134,Pardubice,,Kunětická,115,,
,Penguin box,555134,Pardubice,,Havlíčkova,295,,
,Penguin box,555134,Pardubice,,Na Drážce,1568,,
,Penguin box,555134,Pardubice,,Benešovo náměstí,2456,,
,Penguin box,555134,Pardubice,,Sakařova,1325,,
,Penguin box,555134,Pardubice,,Lidmily Malé,825,,
,Penguin box,555134,Pardubice,,Zahradní,591,,
,Penguin box,555134,Pardubice,,Jiráskova,1295,,
,Penguin box,555134,Pardubice,,Luční,,,
,Penguin box,555134,Pardubice,,Erno Košťála,1003,,
,Penguin box,555134,Pardubice,,Ostřešanská,238,,
,Penguin box,555134,Pardubice,,Lexova,2326,,
,Penguin box,555134,Pardubice,,Komenského,94,,
,Penguin box,555134,Pardubice,,Sokolovská,2389,,
,Penguin box,555134,Pardubice,,Ke Kobelnici,172,,
,Penguin box,555134,Pardubice,,Žitná,2601,,
,Penguin box,555134,Pardubice,,Dašická,1198,,
,Penguin box,555134,Pardubice,,Macanova,,,
,Penguin box,555134,Pardubice,,Nábřeží Závodu Míru,1823,,
,Penguin box,555134,Pardubice,,Bělehradská,379,,
,Penguin box,555134,Pardubice,,Družstevní,117,,
,Penguin box,555134,Pardubice,,nábřeží Závodu míru,1951,,
,Penguin box,555134,Pardubice,,Stavařov,100,,
,Penguin box,555134,Pardubice,,kpt. Bartoše,411,,
,Penguin box,555134,Pardubice,,Varšavská,214,,
,Penguin box,555134,Pardubice,,Brožíkova,426,,
,Penguin box,555134,Pardubice,,Gagarinova,378,,
,Penguin box,555134,Pardubice,,K Olšině,299,,
,Penguin box,555134,Pardubice,,Marie Majerové,282,,
,Penguin box,555134,Pardubice,,Přeloučská,135,,
,Penguin box,555134,Pardubice,,Ohrazenická,180,,
,Penguin box,555134,Pardubice,,Generála Svobody,172,,
,Penguin box,555134,Pardubice,,Lexova,2338,,
,Penguin box,555134,Pardubice,,V Zahrádkách,,,
,Penguin box,555134,Pardubice,,Lonkova,475,,
,Penguin box,555240,Semanín,,Semanín,30,,
,Penguin box,555398,Nová Role,,Chodovská,116,,
,Penguin box,555398,Nová Role,,Na Pěší zóně,125,,
,Penguin box,555398,Nová Role,,Tovární,1,,
,Penguin box,555398,Nová Role - Mezirolí,,Mezirolí,61,,
,Penguin box,555398,Nová Role - Mezirolí,,Mezirolí,136,,
,Penguin box,555550,Stanovice,,Stanovice,44,,
,Penguin box,555797,Běšiny,,Kozí,46,,
,Penguin box,555797,Běšiny,,Běšiny,177,,
,Penguin box,556378,Chudenice,,Mírové nám.,261,,
,Penguin box,556378,Chudenice,,Kvapilova,203,,
,Penguin box,556432,Kašperské Hory,,Petra Bezruče,,,
,Penguin box,556432,Kašperské Hory,,Smetanova,382,,
,Penguin box,556432,Kašperské Hory,,Besední,384,,
,Penguin box,556467,Kolinec,,Kolinec,170,,
,Penguin box,556882,Rabštejnská Lhota,,Rabštejnská Lhota,182,,
,Penguin box,556882,Rabštejnská Lhota,,Rabštejnská Lhota,85,,
,Penguin box,556963,Spešov,,Spešov,,,
,Penguin box,556998,Jezernice,,Jezernice,8,,
,Penguin box,556998,Jezernice,,Jezernice,253,,
,Penguin box,557081,Sytno,,Sytno ev. č.,437,,
,Penguin box,557099,Soběšice,,Soběšice,20,,
,Penguin box,557170,Ostrata,,Ostrata,41,,
,Penguin box,557188,Šelešovice,,Šelešovice,63,,
,Penguin box,557536,Žihobce,,Bílenice,59,,
,Penguin box,557536,Žihobce,,Rozsedly,56,,
,Penguin box,557722,Horšice,,Horšice,7,,
,Penguin box,557781,Chlumčany,,Komenského,377,,
,Penguin box,558109,Nepomuk,,Na Daníčkách,614,,
,Penguin box,558141,Nezvěstice,,Nezvěstice,200,,
,Penguin box,558141,Nezvěstice,,Nezvěstice,190,,
,Penguin box,558257,Příchovice,,Příchovice,36,,
,Penguin box,558265,Ptenín,,Ptenín,58,,
,Penguin box,558362,Spálené Poříčí,,Plzeňská,52,,
,Penguin box,558362,Spálené Poříčí,,Mírová,319,,
,Penguin box,558427,Šťáhlavy,,Náves republiky,81,,
,Penguin box,558427,Šťáhlavy,,Nezvěstická,612,,
,Penguin box,558427,Šťáhlavy,,Nezvěstická,454,,
,Penguin box,558427,Šťáhlavy,,U Hřiště,525,,
,Penguin box,558427,Šťáhlavy - Šťáhlavice,,Šťáhlavice,120,,
,Penguin box,558435,Štěnovice,,Liliová,417,,
,Penguin box,558435,Štěnovice,,Polní,509,,
,Penguin box,558851,Dýšina,,Malé náměstí,225,,
,Penguin box,558851,Dýšina,,K Chlumu,234,,
,Penguin box,558885,Horní Bříza,,Družstevní,605,,
,Penguin box,558915,Hromnice,,Žichlice,85,,
,Penguin box,558915,Hromnice,,Hromnice,183,,
,Penguin box,558966,Chrást,,U stadionu,625,,
,Penguin box,558966,Chrást,,Budovatelů,526,,
,Penguin box,558982,Jarov,,Jarov,56,,
,Penguin box,559059,Kozolupy,,Kozolupy,147,,
,Penguin box,559075,Kralovice,,Na Výsluní,811,,
,Penguin box,559075,Kralovice,,Mírová,558,,
,Penguin box,559075,Kralovice,,Plzeňská třída,265,,
,Penguin box,559083,Krašovice,,Krašovice,132,,
,Penguin box,559130,Kyšice,,Horní Náves,417,,
,Penguin box,559148,Ledce,,Ledce,268,,
,Penguin box,559164,Líně,,Vodárenská,432,,
,Penguin box,559164,Líně,,Polesní,,,
,Penguin box,559521,Třemošná,,U Stadionu,783,,
,Penguin box,559521,Třemošná,,Máchova,102,,
,Penguin box,559521,Třemošná,,Třemošná,,,
,Penguin box,559717,Rokycany,,Jiráskova,1249,,
,Penguin box,559717,Rokycany,,Míru,16,,
,Penguin box,559717,Rokycany,,Šťáhlavská,430,,
,Penguin box,559717,Rokycany,,Pod Husovými sady,1160,,
,Penguin box,559717,Rokycany,,Raisova,817,,
,Penguin box,559717,Rokycany,,Škroupova,1081,,
,Penguin box,559717,Rokycany,,Horákova,596,,
,Penguin box,559717,Rokycany,,Dělostřelců,1241,,
,Penguin box,559776,Dobřív,,Dobřív,265,,
,Penguin box,559776,Dobřív,,Pavlovsko,94,,
,Penguin box,560014,Mýto,,Nádražní,539,,
,Penguin box,560120,Radnice,,Sídliště,509,,
,Penguin box,560286,Sokolov,,Marie Majerové,2241,,
,Penguin box,560308,Bublava,,Bublava ev. č.,135,,
,Penguin box,560324,Citice,,Citice,14,,
,Penguin box,560464,Královské Poříčí,,Lázeňská,86,,
,Penguin box,560600,Rotava,,Sídliště,684,,
,Penguin box,560600,Rotava,,U Kina,410,,
,Penguin box,560707,Vřesová,,Vřesová,3,,
,Penguin box,560715,Tachov,,Zárečná,1522,,
,Penguin box,560715,Tachov,,Vodní,459,,
,Penguin box,560715,Tachov,,Bělojarská,1455,,
,Penguin box,560715,Tachov,,Hornická,1355,,
,Penguin box,560715,Tachov,,Na Stráni,677,,
,Penguin box,560715,Tachov,,Trocnovská,1724,,
,Penguin box,560715,Tachov,,1. máje,1623,,
,Penguin box,560715,Tachov,,Bělojarská,1474,,
,Penguin box,560715,Tachov,,Plánská,2031,,
,Penguin box,560715,Tachov,,Slovenská,983,,
,Penguin box,560758,Bor,,Borská,580,,
,Penguin box,560758,Bor,,Západočeská,727,,
,Penguin box,560910,Chodský Újezd,,Chodský Újezd,180,,
,Penguin box,561151,Přimda,,Borská,213,,
,Penguin box,561223,Studánka,,Studánka,170,,
,Penguin box,561606,Horní Police,,9. května,1,,
,Penguin box,561878,Nový Oldřichov,,Nový Oldřichov,86,,
,Penguin box,562009,Rynárec,,Rynárec,11,,
,Penguin box,562301,Dolní Novosedly,,Dolní Novosedly,55,,
,Penguin box,562335,Děčín,,Plzeňská,9,,
,Penguin box,562459,Polště,,Polště,39,,
,Penguin box,562751,Mikulášovice,,Mikulášovice,1058,,
,Penguin box,562840,Domanín,,Domanín,33,,
,Penguin box,562971,Chomutov,,Palackého,4446,,
,Penguin box,562971,Chomutov,,Žižkovo náměstí,5762,,
,Penguin box,562971,Chomutov,,Černovická,5430,,
,Penguin box,562971,Chomutov,,Březenecká,4470,,
,Penguin box,562971,Chomutov,,Mánesova,4980,,
,Penguin box,562971,Chomutov,,Dřínovská,4559,,
,Penguin box,562971,Chomutov,,Okrajová,5439,,
,Penguin box,562971,Chomutov,,Alešova,5807,,
,Penguin box,562971,Chomutov,,Komenského,4440,,
,Penguin box,562971,Chomutov,,Fügnerova,2838,,
,Penguin box,562971,Chomutov,,Podhorská,3212,,
,Penguin box,562971,Chomutov,,17. listopadu,4627,,
,Penguin box,562971,Chomutov,,Jiráskova,4191,,
,Penguin box,562971,Chomutov,,Lipská,5333,,
,Penguin box,562971,Chomutov,,Kosmonautů,4149,,
,Penguin box,562971,Chomutov,,Kamenná,5119,,
,Penguin box,562971,Chomutov,,Sukova,4702,,
,Penguin box,562971,Chomutov,,Zahradní,5177,,
,Penguin box,562971,Chomutov,,Březenecká,4455,,
,Penguin box,562971,Chomutov,,5. května,3707,,
,Penguin box,563102,Kadaň,,Chomutovská,1574,,
,Penguin box,563111,Kalek,,Kalek,26,,
,Penguin box,563129,Klášterec nad Ohří,,Budovatelská,645,,
,Penguin box,563129,Klášterec nad Ohří,,Příčná,562,,
,Penguin box,563471,Všehrdy,,Všehrdy,45,,
,Penguin box,563617,Jílové u Držkova,,Jílové u Držkova,75,,
,Penguin box,563633,Josefův důl,,Josefův důl,349,,
,Penguin box,563871,Železný Brod,,Masarykova,704,,
,Penguin box,563889,Liberec,,Olbrachtova,808,,
,Penguin box,563889,Liberec,,Palachova,1404,,
,Penguin box,564192,Páleč,,Páleč,10,,
,Penguin box,564486,Podlesí,,Podlesí,307,,
,Penguin box,564486,Podlesí,,Podlesí,207,,
,Penguin box,564923,Chodouny,,Chodouny,15,,
,Penguin box,564974,Káraný,,Káraný,310,,
,Penguin box,564982,Květnice,,Koniklecová,,,
,Penguin box,564982,Květnice,,Rozmarýnová,1123,,
,Penguin box,565008,Dobročovice,,Dobročovice,38,,
,Penguin box,565130,Všesulov 12,,Všesulov,,,
,Penguin box,565318,Mšené-lázně,,Na Pankráci,174,,
,Penguin box,565351,Krakov,,Krakov,22,,
,Penguin box,565644,Mečeříž,,Mečeříž,4,,
,Penguin box,565822,Mohelnice nad Jizerou,,Mohelnice nad Jizerou,48,,
,Penguin box,565997,Bitozeves,,Bitozeves,80,,
,Penguin box,566047,Košátky,,Košátky,78,,
,Penguin box,566136,Brnířov,,Brnířov,30,,
,Penguin box,567027,Most,,Rudolická,1706,,
,Penguin box,567027,Most,,Tyršova,3460,,
,Penguin box,567086,Příšov,,Příšov,8,,
,Penguin box,567175,Horní Jiřetín,,Havlíkova,49,,
,Penguin box,567175,Horní Jiřetín,,Sadová,577,,
,Penguin box,567311,Meziboří,,J.A. Komenského,225,,
,Penguin box,567311,Meziboří,,Nám. 8 . května,400,,
,Penguin box,567311,Meziboří,,B. Němcové,306,,
,Penguin box,567311,Meziboří,,Okružní,139,,
,Penguin box,567787,Proboštov,,Přítkov,,,
,Penguin box,567787,Proboštov,,Lipová,639,,
,Penguin box,567787,Proboštov,,Proboštovská,,,
,Penguin box,568007,Chabařovice,,V Aleji,436,,
,Penguin box,568007,Chabařovice,,Na Konečné,492,,
,Penguin box,568015,Chlumec,,U Šmelce,416,,
,Penguin box,568015,Chlumec,,Chlumecká,401,,
,Penguin box,568163,Žermanice,,Pustky,,,
,Penguin box,568228,Darkovice,,U Kluziště,152,,
,Penguin box,568228,Darkovice,,Kučoviny,176,,
,Penguin box,568236,Děhylov,,Ke Koupališti,161,,
,Penguin box,568244,Vřesina,,Mírová,180,,
,Penguin box,568414,Havlíčkův Brod,,Čechova,1360,,
,Penguin box,568414,Havlíčkův Brod,,Vrchlického,2456,,
,Penguin box,568414,Havlíčkův Brod,,Na Svahu,3148,,
,Penguin box,568414,Havlíčkův Brod,,Humpolecká,1089,,
,Penguin box,568414,Havlíčkův Brod,,sídliště Pražská,2798,,
,Penguin box,568414,Havlíčkův Brod,,Na Spravedlnosti,3207,,
,Penguin box,568414,Havlíčkův Brod,,Mírovka,54,,
,Penguin box,568414,Havlíčkův Brod,,Žižkov II,1277,,
,Penguin box,568414,Havlíčkův Brod,,Mírová,616,,
,Penguin box,568414,Havlíčkův Brod,,Wolkerova,,,
,Penguin box,568414,Havlíčkův Brod,,Jihlavská,1107,,
,Penguin box,568414,Havlíčkův Brod,,Svatý kříž,199,,
,Penguin box,568414,Havlíčkův Brod,,Šmolovy,196,,
,Penguin box,568414,Havlíčkův Brod,,V Rámech,270,,
,Penguin box,568414,Havlíčkův Brod,,Smetanovo náměstí,3290,,
,Penguin box,568414,Havlíčkův Brod,,Chotěbořská,2616,,
,Penguin box,568414,Havlíčkův Brod,,Bratříků,3520,,
,Penguin box,568422,Velké Albrechtice,,Velké Albrechtice,248,,
,Penguin box,568449,Zbyslavice,,Hlavní,124,,
,Penguin box,568481,Bernartice nad Odrou,,Bernartice nad Odrou,217,,
,Penguin box,568490,Čachotín,,Čachotín,41,,
,Penguin box,568511,Hostašovice,,Hostašovice,74,,
,Penguin box,568601,Dolní Město,,Dolní Město,163,,
,Penguin box,568635,Golčův Jeníkov,,V Zahradách,823,,
,Penguin box,568635,Golčův Jeníkov,,Ráj,517,,
,Penguin box,568635,Golčův Jeníkov,,Obora,26,,
,Penguin box,568660,Havlíčkova Borová,,Náměstí,278,,
,Penguin box,568686,Mošnov,,Mošnov,54,,
,Penguin box,568716,Skotnice,,Skotnice,123,,
,Penguin box,568732,Ženklava,,Ženklava,111,,
,Penguin box,568759,Chotěboř,,Větrná,1730,,
,Penguin box,568759,Chotěboř,,Krále Jana,1949,,
,Penguin box,568759,Chotěboř,,F. X. Svobody,475,,
,Penguin box,568759,Chotěboř,,F. X. Šaldy,790,,
,Penguin box,568759,Chotěboř,,Třešňová,1170,,
,Penguin box,568759,Chotěboř,,Maková,1873,,
,Penguin box,568759,Chotěboř,,Kosmonautů,1665,,
,Penguin box,568759,Chotěboř,,Trávní,1512,,
,Penguin box,568759,Chotěboř - Počátky,,Počátky,2,,
,Penguin box,568759,Chotěboř - Střížov,,Střížov,37,,
,Penguin box,568759,Chotěboř - Svinný,,Svinný,27,,
,Penguin box,568775,Pustějov,,Pustějov,178,,
,Penguin box,568805,Jeřišno,,Jeřišno,25,,
,Penguin box,568830,Řepiště,,Mírová,178,,
,Penguin box,568830,Řepiště,,Slezská,420,,
,Penguin box,568864,Doubrava,,Doubrava,135,,
,Penguin box,568864,Doubrava,,Doubrava,127,,
,Penguin box,568872,Charváty,,Charváty,264,,
,Penguin box,568945,Krucemburk,,Mikuláše střely,351,,
,Penguin box,569186,Okrouhlice,,Okrouhlice,203,,
,Penguin box,569291,Pohled,,Revoluční,39,,
,Penguin box,569321,Přibyslav,,Jiráskova,599,,
,Penguin box,569321,Přibyslav,,Ronovská,784,,
,Penguin box,569321,Přibyslav,,Seifertova,826,,
,Penguin box,569356,Česká Ves,,Jánského,42,,
,Penguin box,569356,Česká Ves,,Jánského,7,,
,Penguin box,569356,Česká Ves,,Holanova,423,,
,Penguin box,569356,Česká Ves,,Polní,642,,
,Penguin box,569429,Sázavka,,Sázavka,50,,
,Penguin box,569437,Bratrušov,,Bratrušov,218,,
,Penguin box,569437,Bratrušov,,Bratrušov,180,,
,Penguin box,569445,Vikýřovice,,Školní,362,,
,Penguin box,569445,Vikýřovice,,Šumperská,397,,
,Penguin box,569445,Vikýřovice,,Petrovská,168,,
,Penguin box,569445,Vikýřovice,,Krátká,441,,
,Penguin box,569518,Sobíňov,,Sobíňov,200,,
,Penguin box,569551,Nové Heřminovy,,Nové Heřminovy,155,,
,Penguin box,569569,Světlá nad Sázavou,,Na Bradle,994,,
,Penguin box,569593,Štoky,,Štoky,78,,
,Penguin box,569682,Veselý Žďár,,Veselý Žďár,144,,
,Penguin box,569810,Hradec Králové,,Víta Nejedlého,1062,,
,Penguin box,569810,Hradec Králové,,Labská kotlina,960,,
,Penguin box,569810,Hradec Králové,,Dukelská třída,1713,,
,Penguin box,569925,Černožice,,Gen. Svobody,265,,
,Penguin box,569933,Čistěves,,Čistěves,27,,
,Penguin box,569976,Dohalice,,Dohalice,17,,
,Penguin box,570036,Větřkovice,,Větřkovice,220,,
,Penguin box,570044,Hořiněves,,Hořiněves,119,,
,Penguin box,570109,Chlumec nad Cidlinou,,Zimova,592,,
,Penguin box,570109,Chlumec nad Cidlinou,,Na Vinici,,,
,Penguin box,570176,Kosice,,Kosice,118,,
,Penguin box,570273,Libřice,,Libřice,62,,
,Penguin box,570451,Nechanice,,Školská,348,,
,Penguin box,570451,Nechanice,,Lubno,17,,
,Penguin box,570451,Nechanice,,Ráábova,110,,
,Penguin box,570656,Praskačka,,Praskačka,12,,
,Penguin box,570834,Skřivany,,Skřivany,329,,
,Penguin box,570834,Skřivany,,Tovární,32,,
,Penguin box,570834,Skřivany,,Sportovní,329,,
,Penguin box,570869,Smidary,,Šnajdrova,256,,
,Penguin box,570877,Smiřice,,Fučíkova,456,,
,Penguin box,570877,Smiřice,,Generála Govorova,570,,
,Penguin box,570940,Dolní Stakory,,Dolní Stakory,58,,
,Penguin box,570958,Stračov,,Stračov,133,,
,Penguin box,571041,Třebechovice pod Orebem,,Žižkova,,,
,Penguin box,571121,Niměřice,,Dolní Cetno,25,,
,Penguin box,571164,Chrudim,,Čs. armády,685,,
,Penguin box,571164,Chrudim,,Dr. Jana Malíka,799,,
,Penguin box,571164,Chrudim,,Husova,780,,
,Penguin box,571164,Chrudim,,Fontinova,477,,
,Penguin box,571164,Chrudim,,Václavská,1083,,
,Penguin box,571164,Chrudim,,Topol,80,,
,Penguin box,571164,Chrudim,,Fibichova,51,,
,Penguin box,571164,Chrudim,,Topolská,1203,,
,Penguin box,571164,Chrudim,,Na Větrníků,1248,,
,Penguin box,571164,Chrudim,,Havlíčkova,795,,
,Penguin box,571164,Chrudim,,Družstevní,955,,
,Penguin box,571164,Chrudim,,U stadionu,708,,
,Penguin box,571164,Chrudim,,Tylovo Nábřeží,,,
,Penguin box,571164,Chrudim,,Dr. Václava Peška,668,,
,Penguin box,571164,Chrudim,,Vestec,,,
,Penguin box,571164,Chrudim,,Na Větrníku,1209,,
,Penguin box,571164,Chrudim,,Strojařů,1224,,
,Penguin box,571164,Chrudim,,Palackého třída,276,,
,Penguin box,571164,Chrudim,,Vaňkova,1369,,
,Penguin box,571164,Chrudim,,Pardubická,879,,
,Penguin box,571164,Chrudim,,Svěchyňova,940,,
,Penguin box,571164,Chrudim,,Topolská,744,,
,Penguin box,571164,Chrudim,,U stadionu,724,,
,Penguin box,571164,Chrudim,,Ke Hřišti,730,,
,Penguin box,571164,Chrudim,,Václavská,567,,
,Penguin box,571164,Chrudim,,Vlčnov,4,,
,Penguin box,571164,Chrudim,,Revoluční,594,,
,Penguin box,571164,Chrudim,,Medlešice,184,,
,Penguin box,571164,Chrudim,,Bohuslava Martinů,692,,
,Penguin box,571164,Chrudim,,Na Rozhledně,840,,
,Penguin box,571164,Chrudim,,Na Šancích,1178,,
,Penguin box,571253,Ctětín,,Ctětín,55,,
,Penguin box,571385,Heřmanův Městec,,Jiráskova,508,,
,Penguin box,571385,Heřmanův Městec,,Průhon,1056,,
,Penguin box,571385,Heřmanův Městec,,U Bažantnice,781,,
,Penguin box,571385,Heřmanův Městec,,Pokorného,155,,
,Penguin box,571385,Heřmanův Městec - Konopáč,,Konopáč,146,,
,Penguin box,571393,Hlinsko,,Tylovo náměstí,372,,
,Penguin box,571393,Hlinsko,,Družstevní,1531,,
,Penguin box,571393,Hlinsko,,Ležáků,1139,,
,Penguin box,571393,Hlinsko,,Československé armády,1274,,
,Penguin box,571393,Hlinsko,,Husova,144,,
,Penguin box,571393,Hlinsko,,Rataje,1123,,
,Penguin box,571440,Holetín,,Dolní Holetín,82,,
,Penguin box,571539,Chrast,,Náměstí,16,,
,Penguin box,571547,Chroustovice,,Chroustovice,6,,
,Penguin box,571571,Kameničky,,Kameničky,149,,
,Penguin box,571601,Libovice,,Libovice,135,,
,Penguin box,571644,Štíhlice,,Štíhlice,44,,
,Penguin box,571661,Krouna,,Krouna,172,,
,Penguin box,571776,Luže,,Svatopluka Čecha,122,,
,Penguin box,571814,Zdětín,,Zdětín,26,,
,Penguin box,571831,Miřetice,,Miřetice,166,,
,Penguin box,571911,Nasavrky,,Náměstí,293,,
,Penguin box,571954,Sudovo Hlavno,,Sudovo Hlavno,71,,
,Penguin box,571962,Orel,,Orel,56,,
,Penguin box,571962,Orel,,Orel,67,,
,Penguin box,572004,Perálec,,Perálec,80,,
,Penguin box,572080,Proseč,,Zahradní,288,,
,Penguin box,572080,Proseč,,náměstí Dr. Tošovského,36,,
,Penguin box,572161,Ronov nad Doubravou,,Chittussiho náměstí,112,,
,Penguin box,572241,Skuteč,,Rubešova,,,
,Penguin box,572241,Skuteč,,Družstevní,905,,
,Penguin box,572241,Skuteč,,Vítězslava Nováka,307,,
,Penguin box,572241,Skuteč,,Smetanova,271,,
,Penguin box,572241,Skuteč,,Boženy Němcové,317,,
,Penguin box,572241,Skuteč,,Tomáškova,185,,
,Penguin box,572241,Skuteč,,Vítězslava Nováka,686,,
,Penguin box,572250,Březinky,,Březinky,42,,
,Penguin box,572268,Slatiňany,,Vítězství,119,,
,Penguin box,572268,Slatiňany,,Staré Náměstí,128,,
,Penguin box,572268,Slatiňany,,T. G. Masaryka,,,
,Penguin box,572268,Slatiňany,,Tyršova,431,,
,Penguin box,572268,Slatiňany - Škrovád,,Škrovád,12,,
,Penguin box,572276,Sobětuchy,,Sobětuchy,20,,
,Penguin box,572276,Sobětuchy,,Vrcha,173,,
,Penguin box,572420,Tuněchody,,Tuněchody,21,,
,Penguin box,572578,Zaječice,,Zaječice,305,,
,Penguin box,572624,Útěchov,,Útěchov,65,,
,Penguin box,572659,Jičín,,Jungmanova,1103,,
,Penguin box,572691,Hradec nad Svitavou,,Hradec nad Svitavou,549,,
,Penguin box,572691,Hradec nad Svitavou,,Hradec nad Svitavou,496,,
,Penguin box,572691,Hradec nad Svitavou,,Hradec nad Svitavou,164,,
,Penguin box,572781,Cerekvice nad Bystřicí,,Třebovětice,4,,
,Penguin box,572781,Cerekvice nad Bystřicí,,Cerekvice nad Bystřicí,49,,
,Penguin box,572829,Dětenice,,Dětenice,141,,
,Penguin box,572837,Dobrá Voda u Hořic,,Dobrá Voda u Hořic,193,,
,Penguin box,572969,Chomutice,,Chomutice,53,,
,Penguin box,572977,Dubany,,Dubany,23,,
,Penguin box,573051,Konecchlumí,,Konecchlumí,92,,
,Penguin box,573060,Kopidlno,,U Cihelny,604,,
,Penguin box,573060,Kopidlno,,U Cihelny,619,,
,Penguin box,573060,Kopidlno,,Havlíčkova,442,,
,Penguin box,573060,Kopidlno,,Švermova,147,,
,Penguin box,573086,Lískovice,,Lískovice,72,,
,Penguin box,573191,Sadová,,Sadová,113,,
,Penguin box,573272,Ostroměř,,V Chaloupkách,65,,
,Penguin box,573442,Samšina,,Samšina,35,,
,Penguin box,573779,Máslojedy,,Máslojedy,28,,
,Penguin box,573809,Vysoké Veselí,,Mírové Náměstí,13,,
,Penguin box,573809,Vysoké Veselí,,Rybniční,172,,
,Penguin box,573876,Zderaz,,Zderaz,103,,
,Penguin box,573965,Červený Kostelec,,17. listopadu,640,,
,Penguin box,574121,Jaroměř,,Pionýrská,713,,
,Penguin box,574210,Machov,,Machov,13,,
,Penguin box,574431,Slavětín nad Metují,,Slavětín nad Metují,96,,
,Penguin box,574554,Velichovky,,Pod Kostelem,29,,
,Penguin box,574767,Lázně Bohdaneč,,Za Sokolovnou,650,,
,Penguin box,574767,Lázně Bohdaneč,,Na Lužci,512,,
,Penguin box,574848,Býšť,,Býšť,133,,
,Penguin box,574899,Dašice,,Třebízského,477,,
,Penguin box,574988,Holice,,Staroholická,71,,
,Penguin box,574988,Holice,,Staroholická,459,,
,Penguin box,575011,Horní Ředice,,Holická,55,,
,Penguin box,575054,Choltice,,Lipoltická,245,,
,Penguin box,575054,Choltice,,Nádražní,203,,
,Penguin box,575071,Chvaletice,,V Telčicích,487,,
,Penguin box,575071,Chvaletice,,U Stadionu,240,,
,Penguin box,575178,Kladruby nad Labem,,Kladruby nad Labem,111,,
,Penguin box,575259,Labské Chrčice,,Labské Chrčice,126,,
,Penguin box,575429,Opatovice nad Labem,,Vavřinecká,279,,
,Penguin box,575429,Opatovice nad Labem,,Pardubická,22,,
,Penguin box,575429,Opatovice nad Labem,,Neplachova,152,,
,Penguin box,575500,Přelouč,,Pardubická,91,,
,Penguin box,575500,Přelouč,,Sportovní,1613,,
,Penguin box,575500,Přelouč,,Obránců míru,1310,,
,Penguin box,575500,Přelouč,,Veverkova,1520,,
,Penguin box,575500,Přelouč,,Edvarda Beneše,1634,,
,Penguin box,575500,Přelouč,,Jiráskova,1135,,
,Penguin box,575500,Přelouč,,Náměstí 17. listopadu,1235,,
,Penguin box,575500,Přelouč,,Pardubická,1422,,
,Penguin box,575500,Přelouč,,Obránců míru,1376,,
,Penguin box,575500,Přelouč,,Studentská,1258,,
,Penguin box,575593,Rybitví,,Školní,181,,
,Penguin box,575593,Rybitví,,U Stadionu,200,,
,Penguin box,575593,Rybitví,,Sokolovská,149,,
,Penguin box,575640,Sezemice,,Pardubická,313,,
,Penguin box,575640,Sezemice,,Smetanova,735,,
,Penguin box,575640,Sezemice,,Masarykova,240,,
,Penguin box,575704,Staré Hradiště,,Hradecká,37,,
,Penguin box,575704,Staré Hradiště,,U Pošty,33,,
,Penguin box,575704,Staré Hradiště,,Hradiště na Písku,15,,
,Penguin box,575879,Uhersko,,Uhersko,34,,
,Penguin box,576018,Vyšehněvice,,Vyšehněvice,8,,
,Penguin box,576026,Zdechovice,,Zdechovice,192,,
,Penguin box,576123,Bolehošť,,Bolehošť,21,,
,Penguin box,576131,Borohrádek,,Družstevní,,,
,Penguin box,576131,Borohrádek,,Tyršova,293,,
,Penguin box,576182,Častolovice,,Masarykova,10,,
,Penguin box,576301,Doudleby nad Orlicí,,Komenského,518,,
,Penguin box,576301,Doudleby nad Orlicí,,V Poříčí,441,,
,Penguin box,576301,Doudleby nad Orlicí,,Rudé armády,45,,
,Penguin box,576361,Kostelec nad Orlicí,,Příkopy,1236,,
,Penguin box,576361,Kostelec nad Orlicí,,U Váhy,1189,,
,Penguin box,576361,Kostelec nad Orlicí,,Proškova,1376,,
,Penguin box,576361,Kostelec nad Orlicí,,Drtinova,463,,
,Penguin box,576425,Kvasiny,,Kvasiny,418,,
,Penguin box,576425,Kvasiny,,Kvasiny,69,,
,Penguin box,576590,Opočno,,Pohořská,712,,
,Penguin box,576590,Opočno,,Palackého,564,,
,Penguin box,576701,Rokytnice v Orlických horách,,Dolní sídliště,260,,
,Penguin box,576701,Rokytnice v Orlických horách,,Nebeská Rybná,173,,
,Penguin box,576808,Solnice,,Vašátkova,38,,
,Penguin box,576841,Tutleky,,Tutleky,21,,
,Penguin box,576859,Týniště nad Orlicí,,T.G. Masaryka,965,,
,Penguin box,576859,Týniště nad Orlicí,,T. G. Masaryka,172,,
,Penguin box,576859,Týniště nad Orlicí,,Okružní,908,,
,Penguin box,576859,Týniště nad Orlicí,,Na Bělidle,949,,
,Penguin box,576859,Týniště nad Orlicí,,Na Netřebě,51,,
,Penguin box,576859,Týniště nad Orlicí,,Čs. armády,930,,
,Penguin box,576859,Týniště nad Orlicí,,Lipská,259,,
,Penguin box,576859,Týniště nad Orlicí - Křivice,,Křivice,4,,
,Penguin box,576859,Týniště nad Orlicí - Petrovice,,Petrovice,51,,
,Penguin box,576859,Týniště nad Orlicí - Rašovice,,Rašovice,64,,
,Penguin box,576883,Vamberk,,Polská,,,
,Penguin box,576883,Vamberk,,Vrabcova,142,,
,Penguin box,576883,Vamberk,,Jiráskova,329,,
,Penguin box,576883,Vamberk,,Struha,873,,
,Penguin box,576883,Vamberk - Merklovice,,Merklovice,102,,
,Penguin box,576999,Benešov u Semil,,Benešov u Semil,21,,
,Penguin box,577073,Háje nad Jizerou,,Loukov,57,,
,Penguin box,577430,Radostná pod Kozákovem,,Volavec,39,,
,Penguin box,577456,Rokytnice nad Jizerou,,Rokytnice nad Jizerou,414,,
,Penguin box,577529,Slaná,,Slaná,94,,
,Penguin box,577731,Svitavy,,Lanškrounská,421,,
,Penguin box,577731,Svitavy,,Milady Horákové,469,,
,Penguin box,577731,Svitavy,,Větrná,616,,
,Penguin box,577731,Svitavy,,Svitavská,194,,
,Penguin box,577731,Svitavy,,Antonína Slavíčka,646,,
,Penguin box,577731,Svitavy,,Ruská,1930,,
,Penguin box,577731,Svitavy,,U Stadionu,994,,
,Penguin box,577731,Svitavy,,Lázeňská,,,
,Penguin box,577731,Svitavy,,Chelčického,1614,,
,Penguin box,577731,Svitavy,,Pražská,681,,
,Penguin box,577863,Brněnec,,Moravská Chrastová,131,,
,Penguin box,577863,Brněnec,,Moravská Chrastová,195,,
,Penguin box,577863,Brněnec,,Brněnec,3,,
,Penguin box,577928,Bystré,,Školní,24,,
,Penguin box,577928,Bystré,,Družstevní,346,,
,Penguin box,577936,Cerekvice nad Loučnou,,Cerekvice nad Loučnou,176,,
,Penguin box,578134,Janov,,Janov,300,,
,Penguin box,578151,Jaroměřice,,Jaroměřice,130,,
,Penguin box,578193,Jevíčko,,Na Salajce,323,,
,Penguin box,578193,Jevíčko,,U Zámečku,451,,
,Penguin box,578193,Jevíčko,,Petra Bezruče,,,
,Penguin box,578231,Koclířov,,Koclířov,130,,
,Penguin box,578258,Korouhev,,Korouhev,223,,
,Penguin box,578339,Linhartice,,Linhartice,18,,
,Penguin box,578380,Městečko Trnávka,,Městečko Trnávka,11,,
,Penguin box,578398,Mikuleč,,Mikuleč,17,,
,Penguin box,578444,Moravská Třebová,,Brněnská,42,,
,Penguin box,578444,Moravská Třebová,,Čs. Armády 84/,6,,
,Penguin box,578444,Moravská Třebová,,Alšova,1295,,
,Penguin box,578444,Moravská Třebová,,Svitavská,655,,
,Penguin box,578444,Moravská Třebová,,Dr. Jánského,983,,
,Penguin box,578444,Moravská Třebová,,Tyršova,1138,,
,Penguin box,578444,Moravská Třebová,,Gorazdova,66,,
,Penguin box,578444,Moravská Třebová,,Západní,841,,
,Penguin box,578444,Moravská Třebová,,Olomoucká,1116,,
,Penguin box,578444,Moravská Třebová,,Sušice,65,,
,Penguin box,578444,Moravská Třebová,,Jiráskova,101,,
,Penguin box,578444,Moravská Třebová,,Dukelská,779,,
,Penguin box,578444,Moravská Třebová,,Marxova,136,,
,Penguin box,578576,Polička,,Luční,377,,
,Penguin box,578576,Polička,,Hegerova,661,,
,Penguin box,578576,Polička,,Sídliště Hegerova,927,,
,Penguin box,578576,Polička,,Jiráskova,608,,
,Penguin box,578576,Polička,,Starohradská,359,,
,Penguin box,578606,Lhůta,,Lhůta,18,,
,Penguin box,578711,Rychnov na Moravě,,Rychnov na Moravě,38,,
,Penguin box,578908,Třebařov,,Třebařov,143,,
,Penguin box,579009,Medový Újezd,,Medový Újezd,113,,
,Penguin box,579025,Trutnov,,Oválná,134,,
,Penguin box,579041,Batňovice,,Batňovice,161,,
,Penguin box,579131,Příkosice,,Příkosice,53,,
,Penguin box,579165,Dolní Lánov,,Dolní Lánov,132,,
,Penguin box,579173,Dolní Olešnice,,Dolní Olešnice,39,,
,Penguin box,579238,Horní Brusnice,,Horní Brusnice,255,,
,Penguin box,579297,Hostinné,,K Náhonu,,,
,Penguin box,579319,Chotěvice,,Chotěvice,155,,
,Penguin box,579394,Kocbeře,,Nové Kocbeře,53,,
,Penguin box,579513,Malé Svatoňovice,,Nádražní,249,,
,Penguin box,579602,Prosečné,,Prosečné,99,,
,Penguin box,579637,Rtyně v Podkrkonoší,,nám. Horníků,799,,
,Penguin box,579637,Rtyně v Podkrkonoší,,Kostelecká,807,,
,Penguin box,579637,Rtyně v Podkrkonoší,,cesta Osvobození,712,,
,Penguin box,579742,Špindlerův Mlýn,,Lesní,149,,
,Penguin box,579742,Špindlerův Mlýn,,Špindlerův Mlýn,,,
,Penguin box,579777,Úpice,,Spojenců,115,,
,Penguin box,579777,Úpice,,Želivského,101,,
,Penguin box,579777,Úpice,,Palackého,1077,,
,Penguin box,579777,Úpice,,Národní,1110,,
,Penguin box,579777,Úpice,,Pod Velbabou,,,
,Penguin box,579777,Úpice,,Puškinova,221,,
,Penguin box,579777,Úpice,,Na Veselce,1017,,
,Penguin box,579793,Velký Vřešťov,,Velký Vřešťov,34,,
,Penguin box,579891,Ústí nad Orlicí,,Jilemnického,1364,,
,Penguin box,579891,Ústí nad Orlicí,,Okružní,81,,
,Penguin box,579891,Ústí nad Orlicí,,Popradská,1378,,
,Penguin box,579891,Ústí nad Orlicí,,Bratří Čapků,1169,,
,Penguin box,579891,Ústí nad Orlicí,,Třebovská,450,,
,Penguin box,579891,Ústí nad Orlicí,,Dukelská,318,,
,Penguin box,579891,Ústí nad Orlicí,,Sokolská,27,,
,Penguin box,579891,Ústí nad Orlicí,,Pickova,605,,
,Penguin box,579891,Ústí nad Orlicí,,Třebovská,294,,
,Penguin box,579891,Ústí nad Orlicí,,Mazánkova,1204,,
,Penguin box,579947,Brandýs nad Orlicí,,Českých bratří,266,,
,Penguin box,579947,Brandýs nad Orlicí,,Kadlčíkova,241,,
,Penguin box,580031,Česká Třebová,,Pražského,1709,,
,Penguin box,580031,Česká Třebová,,Nádražní,43,,
,Penguin box,580040,České Heřmanice,,České Heřmanice,111,,
,Penguin box,580074,Damníkov,,Damníkov,21,,
,Penguin box,580074,Damníkov,,Damníkov,12,,
,Penguin box,580112,Dolní Čermná,,Dolní Čermná,224,,
,Penguin box,580112,Dolní Čermná,,Dolní Čermná,282,,
,Penguin box,580112,Dolní Čermná,,Dolní Čermná,125,,
,Penguin box,580121,Dolní Dobrouč,,Dolní Dobrouč,62,,
,Penguin box,580121,Dolní Dobrouč,,Dolní Dobrouč,71,,
,Penguin box,580121,Dolní Dobrouč,,Horní Dobrouč,33,,
,Penguin box,580121,Dolní Dobrouč,,Dolní Dobrouč,29,,
,Penguin box,580121,Dolní Dobrouč,,Dolní Dobrouč,448,,
,Penguin box,580163,Dolní Morava,,Velká Morava,11,,
,Penguin box,580261,Hnátnice,,Hnátnice,87,,
,Penguin box,580325,Sloupnice,,Horní Sloupnice,170,,
,Penguin box,580350,Choceň,,Pardubická,2020,,
,Penguin box,580350,Choceň,,Pernerova,1495,,
,Penguin box,580350,Choceň,,M. Alše,1610,,
,Penguin box,580350,Choceň,,Záměstí,1714,,
,Penguin box,580350,Choceň - Březenice,,Březenice,9,,
,Penguin box,580431,Klášterec nad Orlicí,,Klášterec nad Orlicí,97,,
,Penguin box,580431,Klášterec nad Orlicí,,Zbudov,32,,
,Penguin box,580431,Klášterec nad Orlicí,,Klášterec nad Orlicí,34,,
,Penguin box,580503,Kunvald,,Kunvald,100,,
,Penguin box,580511,Lanškroun,,5. května,,,
,Penguin box,580511,Lanškroun,,Havlíčkova,146,,
,Penguin box,580511,Lanškroun,,Dobrovského,372,,
,Penguin box,580511,Lanškroun,,M. Majerové,856,,
,Penguin box,580511,Lanškroun,,U Papíren,193,,
,Penguin box,580511,Lanškroun,,Polní,,,
,Penguin box,580538,Letohrad,,U Biatlonu,1025,,
,Penguin box,580635,Luková,,Luková,97,,
,Penguin box,580635,Luková,,Luková,111,,
,Penguin box,580651,Mladkov,,Mladkov,84,,
,Penguin box,580724,Orličky,,Orličky,6,,
,Penguin box,580961,Sopotnice,,Sopotnice,378,,
,Penguin box,580961,Sopotnice,,Sopotnice,226,,
,Penguin box,580970,Sruby,,Sruby,66,,
,Penguin box,581071,Třebovice,,Třebovice,187,,
,Penguin box,581119,Verměřovice,,Verměřovice,137,,
,Penguin box,581151,Vraclav,,Vraclav,125,,
,Penguin box,581186,Vysoké Mýto,,Pražská,,,
,Penguin box,581186,Vysoké Mýto,,U Staré zastávky,651,,
,Penguin box,581186,Vysoké Mýto,,Rokycanova,653,,
,Penguin box,581186,Vysoké Mýto,,Masarykovo Náměstí,157,,
,Penguin box,581186,Vysoké Mýto,,17. listopadu,690,,
,Penguin box,581186,Vysoké Mýto,,Litomyšlská,53,,
,Penguin box,581186,Vysoké Mýto,,Kapitána Poplera,78,,
,Penguin box,581186,Vysoké Mýto,,U Potoka,763,,
,Penguin box,581186,Vysoké Mýto,,Husova,144,,
,Penguin box,581186,Vysoké Mýto,,Litomyšlská,50,,
,Penguin box,581186,Vysoké Mýto,,Pivovarská,406,,
,Penguin box,581186,Vysoké Mýto,,Vřesová,526,,
,Penguin box,581267,Žampach,,Žampach,61,,
,Penguin box,581275,Žichlínek,,Žichlínek,267,,
,Penguin box,581283,Blansko,,Kamnářská,2020,,
,Penguin box,581283,Blansko,,Rožmitálova,1812,,
,Penguin box,581283,Blansko,,Dvorská,1874,,
,Penguin box,581283,Blansko,,Na Pískách,2402,,
,Penguin box,581283,Blansko,,Jasanova,2043,,
,Penguin box,581283,Blansko,,Těchov,171,,
,Penguin box,581283,Blansko,,Salmova,1854,,
,Penguin box,581283,Blansko,,Čelakovského,1716,,
,Penguin box,581283,Blansko,,Dolní Lhota,27,,
,Penguin box,581283,Blansko,,Horní Lhota,109,,
,Penguin box,581283,Blansko,,Nam. Míru,1621,,
,Penguin box,581283,Blansko,,Cihlářská,2194,,
,Penguin box,581283,Blansko,,Dlouhá,174,,
,Penguin box,581283,Blansko,,Lažánky,199,,
,Penguin box,581283,Blansko,,Bezručova,2273,,
,Penguin box,581283,Blansko,,Horní Palava,259,,
,Penguin box,581283,Blansko,,Alešova,1882,,
,Penguin box,581291,Adamov,,Nádražní,42,,
,Penguin box,581291,Adamov,,Družstevní,2,,
,Penguin box,581291,Adamov,,Opletalova,346,,
,Penguin box,581291,Adamov,,Petra Jilemnického,348,,
,Penguin box,581291,Adamov,,Komenského,324,,
,Penguin box,581364,Bořitov,,Krátká,40,,
,Penguin box,581364,Bořitov,,náměstí U Václava,311,,
,Penguin box,581372,Boskovice,,Ludvíka Vojtěcha,2386,,
,Penguin box,581372,Boskovice,,Otakara Kubína,2618,,
,Penguin box,581372,Boskovice,,Svatopluka Čecha,54,,
,Penguin box,581372,Boskovice,,Na Výsluní,2415,,
,Penguin box,581372,Boskovice,,Legionářská,1240,,
,Penguin box,581372,Boskovice,,Mánesova,2198,,
,Penguin box,581372,Boskovice,,Mánesova,1721,,
,Penguin box,581372,Boskovice,,Na Chmelnici,2411,,
,Penguin box,581372,Boskovice,,Otakara Kubína,1515,,
,Penguin box,581372,Boskovice,,Komenského,325,,
,Penguin box,581372,Boskovice,,Gagarinova,1896,,
,Penguin box,581372,Boskovice,,Dukelská,2265,,
,Penguin box,581372,Boskovice,,Hybešova,1009,,
,Penguin box,581372,Boskovice,,Komenského,2302,,
,Penguin box,581372,Boskovice,,Bělská,810,,
,Penguin box,581372,Boskovice,,Dřevařská,1418,,
,Penguin box,581372,Boskovice - Mladkov,,Mladkov,77,,
,Penguin box,581372,Boskovice - Vratíkov,,Vratíkov,48,,
,Penguin box,581470,Cetkovice,,Sadová,241,,
,Penguin box,581496,Černá Hora,,Radniční,182,,
,Penguin box,581496,Černá Hora,,U Selkova,519,,
,Penguin box,581542,Doubravice nad Svitavou,,náměstí Svobody,31,,
,Penguin box,581551,Drnovice,,Drnovice,206,,
,Penguin box,581666,Jabloňany,,Jabloňany,88,,
,Penguin box,581780,Krasová,,Krasová,40,,
,Penguin box,581879,Kunštát,,U Hřiště,291,,
,Penguin box,581879,Kunštát,,Újezd,78,,
,Penguin box,581879,Kunštát,,Sadová,573,,
,Penguin box,581879,Kunštát,,Rudka,80,,
,Penguin box,581909,Lažany,,Lažany,162,,
,Penguin box,581917,Letovice,,J. Haška,1096,,
,Penguin box,581917,Letovice,,Českobratrská,1062,,
,Penguin box,581917,Letovice,,Pražská,415,,
,Penguin box,581917,Letovice,,Koupaliště,8,,
,Penguin box,581917,Letovice,,Albína Krejčího,840,,
,Penguin box,581917,Letovice,,Tyršova,20,,
,Penguin box,581950,Lipovec,,Lipovec,318,,
,Penguin box,581976,Lomnice,,Tišnovská,362,,
,Penguin box,582018,Lysice,,Horní náměstí,28,,
,Penguin box,582018,Lysice,,Oulehla,549,,
,Penguin box,582239,Rájec-Jestřebí,,Blanenská,4,,
,Penguin box,582239,Rájec-Jestřebí,,Karolín,50,,
,Penguin box,582239,Rájec-Jestřebí,,Blanenská,89,,
,Penguin box,582239,Rájec-Jestřebí,,9. května,72,,
,Penguin box,582239,Rájec-Jestřebí,,Havlíčkova,43,,
,Penguin box,582239,Rájec-Jestřebí,,Fučíkova,433,,
,Penguin box,582247,Ráječko,,Krátká,166,,
,Penguin box,582298,Rudice,,Rudice,251,,
,Penguin box,582328,Senetářov,,Senetářov,160,,
,Penguin box,582352,Sloup,,Sloup,257,,
,Penguin box,582433,Svinošice,,Svinošice,150,,
,Penguin box,582441,Svitávka,,Školní,196,,
,Penguin box,582484,Šošůvka,,Šošůvka,187,,
,Penguin box,582646,Velké Opatovice,,náměstí Míru,660,,
,Penguin box,582646,Velké Opatovice,,Luční,654,,
,Penguin box,582751,Žďárná,,Žďárná,61,,
,Penguin box,582786,Brno,,Blatnická,4245,,
,Penguin box,582786,Brno,,Výstaviště,,,
,Penguin box,582786,Brno,,Příkop,843,,
,Penguin box,582786,Brno,,Koželužská,2,,
,Penguin box,582786,Brno,,Veslařská,220,,
,Penguin box,582786,Brno,,Josefská,706,,
,Penguin box,582786,Brno,,Nádražní,118,,
,Penguin box,582786,Brno,,Cimburkova,,,
,Penguin box,582786,Brno,,Skandinávská,128,,
,Penguin box,582786,Brno,,Mahenova,18,,
,Penguin box,582786,Brno,,Křivánky,791,,
,Penguin box,582786,Brno,,Zvonařka,411,,
,Penguin box,582786,Brno,,Modřická,280,,
,Penguin box,582786,Brno,,Špitálka,6,,
,Penguin box,582786,Brno,,Práčata,783,,
,Penguin box,582786,Brno,,Kubíčkova,8,,
,Penguin box,582786,Brno - Bystrc,,Vejrostova,1143,,
,Penguin box,582786,Brno - Bystrc,,Hvozdecká,1364,,
,Penguin box,582786,Brno - Ivanovice,,Hradecká,408,,
,Penguin box,582786,Brno - Jehnice,,Jehnice ev. č.,339,,
,Penguin box,582786,Brno - Líšeň,,Horníkova,2170,,
,Penguin box,582786,Brno - Řečkovice,,Žilkova,2206,,
,Penguin box,582786,Brno - Židenice,,Čejkovická,4339,,
,Penguin box,582794,Babice nad Svitavou,,Babice nad Svitavou,141,,
,Penguin box,582794,Babice nad Svitavou,,Babice nad Svitavou,15,,
,Penguin box,582808,Babice u Rosic,,Náves,14,,
,Penguin box,582824,Bílovice nad Svitavou,,Soběšická,,,
,Penguin box,582824,Bílovice nad Svitavou,,Fugnerovo Nábřeží,350,,
,Penguin box,582824,Bílovice nad Svitavou,,Lesní,,,
,Penguin box,582859,Blučina,,Na Lázních,497,,
,Penguin box,582875,Braníškov,,Braníškov,68,,
,Penguin box,582948,Deblín,,Deblín,320,,
,Penguin box,582956,Dolní Kounice,,Masarykovo náměstí,66,,
,Penguin box,582956,Dolní Kounice,,Dolní Kounice ev. č.,57,,
,Penguin box,582964,Domašov,,Brněnská,173,,
,Penguin box,583111,Chudčice,,Chudčice,261,,
,Penguin box,583111,Chudčice,,Chudčice,87,,
,Penguin box,583120,Ivančice,,Široká,381,,
,Penguin box,583120,Ivančice,,Školní,230,,
,Penguin box,583201,Ketkovice,,Ketkovice,214,,
,Penguin box,583251,Kuřim,,Nám. 1. května,1081,,
,Penguin box,583359,Maršov,,Maršov,26,,
,Penguin box,583391,Modřice,,Masarykova,1018,,
,Penguin box,583391,Modřice,,U Dálnice,777,,
,Penguin box,583405,Mokrá-Horákov,,Mokrá,318,,
,Penguin box,583405,Mokrá-Horákov,,Mokrá,55,,
,Penguin box,583405,Mokrá-Horákov,,Mokrá,355,,
,Penguin box,583405,Mokrá-Horákov,,Horákov,303,,
,Penguin box,583405,Mokrá-Horákov,,Mokrá,365,,
,Penguin box,583413,Moravany,,Vnitřní,47,,
,Penguin box,583413,Moravany,,Květná,182,,
,Penguin box,583481,Neslovice,,Za Bránou,153,,
,Penguin box,583511,Nové Bránice,,Nové Bránice,145,,
,Penguin box,583511,Nové Bránice,,Nové Bránice,256,,
,Penguin box,583537,Ochoz u Brna,,Ochoz u Brna,17,,
,Penguin box,583545,Omice,,Armádní,225,,
,Penguin box,583553,Opatovice,,Na Hlinkách,226,,
,Penguin box,583588,Oslavany,,Komenského,777,,
,Penguin box,583588,Oslavany,,Padochov,100,,
,Penguin box,583588,Oslavany,,U Stadionu,,,
,Penguin box,583588,Oslavany,,V Hájku,1038,,
,Penguin box,583588,Oslavany,,Zámecká,6,,
,Penguin box,583596,Ostopovice,,Nová,232,,
,Penguin box,583596,Ostopovice,,Na Rybníčku,54,,
,Penguin box,583600,Ostrovačice,,Osvobození,159,,
,Penguin box,583677,Pozořice,,Na Městečku,248,,
,Penguin box,583677,Pozořice,,Hostěnická,527,,
,Penguin box,583685,Prace,,Na Návsi,316,,
,Penguin box,583693,Pravlov,,Pravlov,100,,
,Penguin box,583707,Prštice,,Hlavní,4,,
,Penguin box,583707,Prštice,,Hlavní,106,,
,Penguin box,583715,Příbram na Moravě,,Příbram na Moravě,33,,
,Penguin box,583715,Příbram na Moravě,,Příbram na Moravě,61,,
,Penguin box,583731,Přísnotice,,Výhon,300,,
,Penguin box,583731,Přísnotice,,Výhon,265,,
,Penguin box,583740,Radostice,,Sokolská,11,,
,Penguin box,583740,Radostice,,Prostřední,146,,
,Penguin box,583758,Rajhrad,,Dobrovského,173,,
,Penguin box,583774,Rebešovice,,V Uličce,102,,
,Penguin box,583782,Rosice,,Malackova,1442,,
,Penguin box,583821,Řícmanice,,Komenského,68,,
,Penguin box,583847,Sentice,,Sentice,2,,
,Penguin box,583855,Silůvky,,Nádražní,92,,
,Penguin box,583901,Stanoviště,,Stanoviště,55,,
,Penguin box,583910,Střelice,,Ant. Smutného,750,,
,Penguin box,583910,Střelice,,Nám. Svobody,241,,
,Penguin box,583910,Střelice,,Vršovická,9,,
,Penguin box,583936,Syrovice,,Syrovice,298,,
,Penguin box,583952,Šlapanice,,Lidická,314,,
,Penguin box,583952,Šlapanice,,Jiráskova,1530,,
,Penguin box,583952,Šlapanice,,Nádražní,679,,
,Penguin box,583952,Šlapanice,,Bož. Němcové,1477,,
,Penguin box,583952,Šlapanice,,Brněnská,1366,,
,Penguin box,583952,Šlapanice - Bedřichovice,,Hlavní,88,,
,Penguin box,584002,Tišnov,,Moukova,1994,,
,Penguin box,584002,Tišnov,,Brněnská,1688,,
,Penguin box,584002,Tišnov,,Kvapilova,1531,,
,Penguin box,584002,Tišnov,,Květnická,1616,,
,Penguin box,584002,Tišnov,,Hornická,1530,,
,Penguin box,584002,Tišnov,,Erbenova,949,,
,Penguin box,584002,Tišnov,,Mrštíkova,820,,
,Penguin box,584002,Tišnov,,Dlouhá,1803,,
,Penguin box,584002,Tišnov,,Králová,1676,,
,Penguin box,584002,Tišnov,,Nerudova,746,,
,Penguin box,584002,Tišnov,,Nádražní,1797,,
,Penguin box,584002,Tišnov,,Riegrova,312,,
,Penguin box,584029,Troubsko,,Ostopovická,,,
,Penguin box,584037,Tvarožná,,Tvarožná,93,,
,Penguin box,584053,Újezd u Rosic,,Újezd u Rosic,109,,
,Penguin box,584118,Veverské Knínice,,Veverské Knínice,260,,
,Penguin box,584118,Veverské Knínice,,Veverské Knínice,328,,
,Penguin box,584126,Viničné Šumice,,Viničné Šumice,304,,
,Penguin box,584134,Vohančice,,Vohančice,1,,
,Penguin box,584142,Vojkovice,,Sportovní,319,,
,Penguin box,584142,Vojkovice,,Mlýnská,66,,
,Penguin box,584177,Vysoké Popovice,,Vysoké Popovice,63,,
,Penguin box,584185,Zakřany,,Zakřany,36,,
,Penguin box,584215,Zbraslav,,Malinovského,11,,
,Penguin box,584215,Zbraslav,,Na Nivě,471,,
,Penguin box,584231,Žabčice,,Nádražní,365,,
,Penguin box,584231,Žabčice,,Přísnotická,451,,
,Penguin box,584231,Žabčice - Unkovice,,Unkovická,533,,
,Penguin box,584240,Žatčany,,Žatčany,301,,
,Penguin box,584266,Želešice,,24. dubna,289,,
,Penguin box,584282,Židlochovice,,Tyršova,252,,
,Penguin box,584291,Břeclav,,Lidická,3341,,
,Penguin box,584291,Břeclav,,Národního odboje,204,,
,Penguin box,584380,Bulhary,,Bulhary,262,,
,Penguin box,584444,Drnholec,,Náměstí Svobody,566,,
,Penguin box,584517,Ivaň,,Ivaň,267,,
,Penguin box,584525,Jevišovka,,Jevišovka,245,,
,Penguin box,584568,Kobylí,,Kobylí,673,,
,Penguin box,584568,Kobylí,,Kobylí,679,,
,Penguin box,584649,Mikulov,,Alfonse Muchy,297,,
,Penguin box,584649,Mikulov,,Na Hradbách,1474,,
,Penguin box,584649,Mikulov,,Kpt. Jaroše,1549,,
,Penguin box,584649,Mikulov,,Hraničářů,1470,,
,Penguin box,584649,Mikulov,,Pod Strání,1234,,
,Penguin box,584649,Mikulov,,Žižkova,1146,,
,Penguin box,584649,Mikulov,,Větrná,98,,
,Penguin box,584649,Mikulov,,Hliniště,,,
,Penguin box,584649,Mikulov,,Vrchlického,174,,
,Penguin box,584649,Mikulov,,Pavlovská,1242,,
,Penguin box,584665,Moravská Nová Ves,,K záhumí,,,
,Penguin box,584665,Moravská Nová Ves,,Průjezdní,,,
,Penguin box,584665,Moravská Nová Ves,,Nárožní,,,
,Penguin box,584665,Moravská Nová Ves,,Luční,723,,
,Penguin box,584665,Moravská Nová Ves,,Hliník,336,,
,Penguin box,584673,Moravský Žižkov,,Chalúpky,64,,
,Penguin box,584762,Pasohlávky,,Pasohlávky,218,,
,Penguin box,584801,Pohořelice,,Brněnská,1,,
,Penguin box,584801,Pohořelice,,U Cihelny,862,,
,Penguin box,584801,Pohořelice,,Polní,,,
,Penguin box,584801,Pohořelice,,Brněnská,697,,
,Penguin box,584801,Pohořelice,,Šumická,727,,
,Penguin box,584801,Pohořelice,,Mlýnská,760,,
,Penguin box,584801,Pohořelice,,Velký Dvůr,133,,
,Penguin box,584801,Pohořelice,,Znojemská,,,
,Penguin box,584801,Pohořelice,,Hybešova,991,,
,Penguin box,584819,Popice,,U kapličky,,,
,Penguin box,584843,Přibice,,Přibice,,,
,Penguin box,584843,Přibice,,Přibice,380,,
,Penguin box,584878,Sedlec,,Sedlec,259,,
,Penguin box,584894,Starovice,,Starovice,202,,
,Penguin box,584894,Starovice,,Starovice,272,,
,Penguin box,584916,Strachotín,,Sokolská,171,,
,Penguin box,584932,Šitbořice,,Osvobození,142,,
,Penguin box,584932,Šitbořice,,Divácká,621,,
,Penguin box,584967,Uherčice,,Uherčice,150,,
,Penguin box,585017,Velké Pavlovice,,Tovární,345,,
,Penguin box,585025,Vlasatice,,Vlasatice,63,,
,Penguin box,585033,Vranovice,,Náměstíčko,766,,
,Penguin box,585033,Vranovice,,Školní,1,,
,Penguin box,585033,Vranovice,,Přibická,351,,
,Penguin box,585068,Zlín,,Slovenská,2843,,
,Penguin box,585068,Zlín,,Štefánikova,2459,,
,Penguin box,585068,Zlín,,Lhotka,5,,
,Penguin box,585068,Zlín,,Ke Křibům,5019,,
,Penguin box,585068,Zlín,,Brigádnická,479,,
,Penguin box,585068,Zlín,,Zborovská,4164,,
,Penguin box,585068,Zlín,,Stráně,422,,
,Penguin box,585068,Zlín,,Na kopci,7067,,
,Penguin box,585068,Zlín,,Zelinova,5589,,
,Penguin box,585068,Zlín,,Středová,4600,,
,Penguin box,585068,Zlín,,Díly IV,3905,,
,Penguin box,585068,Zlín,,Na Výsluní,5518,,
,Penguin box,585068,Zlín,,Vršava,490,,
,Penguin box,585068,Zlín,,Nad Stráněmi,4511,,
,Penguin box,585068,Zlín,,L. Váchy,496,,
,Penguin box,585068,Zlín,,Modřínová,45,,
,Penguin box,585068,Zlín,,Okružní,4701,,
,Penguin box,585068,Zlín,,Kúty,1942,,
,Penguin box,585068,Zlín,,Středová,7154,,
,Penguin box,585068,Zlín,,Křiby,4717,,
,Penguin box,585068,Zlín,,Nad Vývozem,2810,,
,Penguin box,585068,Zlín,,Podlesí II,4936,,
,Penguin box,585068,Zlín,,Lazy VII,,,
,Penguin box,585068,Zlín,,Kvítková,80,,
,Penguin box,585068,Zlín,,Vejvanovská,293,,
,Penguin box,585068,Zlín,,Jiráskova,,,
,Penguin box,585068,Zlín,,Zlínská,81,,
,Penguin box,585068,Zlín,,Klečůvka,29,,
,Penguin box,585068,Zlín,,Fabiánka II,254,,
,Penguin box,585068,Zlín,,Podlesí IV,5302,,
,Penguin box,585068,Zlín,,Stráže,,,
,Penguin box,585068,Zlín,,Švambovce,358,,
,Penguin box,585068,Zlín,,Lesní čtvrť II,3494,,
,Penguin box,585068,Zlín,,Salaš,11,,
,Penguin box,585068,Zlín,,U Zimního stadionu,4080,,
,Penguin box,585068,Zlín,,Václavská,205,,
,Penguin box,585068,Zlín - Malenovice,,třída Svobody,868,,
,Penguin box,585068,Zlín - Malenovice,,Masarykova,1014,,
,Penguin box,585068,Zlín - Malenovice,,Husova,797,,
,Penguin box,585068,Zlín - Příluky,,Přístav,132,,
,Penguin box,585068,Zlín - Štípa,,Za Dvorem,407,,
,Penguin box,585106,Bratřejov,,Bratřejov,226,,
,Penguin box,585211,Fryšták,,Dr. Absolona,124,,
,Penguin box,585211,Fryšták - Dolní Ves,,Dolnoveská,118,,
,Penguin box,585211,Fryšták - Horní Ves,,Komenského,103,,
,Penguin box,585211,Fryšták - Horní Ves,,Komenského,231,,
,Penguin box,585211,Fryšták - Horní Ves,,Hornoveská,107,,
,Penguin box,585271,Hřivínův Újezd,,Hřivínův Újezd,50,,
,Penguin box,585289,Hvozdná,,Družstevní,367,,
,Penguin box,585343,Kašava,,Kašava,229,,
,Penguin box,585343,Kašava,,Kašava,193,,
,Penguin box,585441,Ludkovice,,Ludkovice,7,,
,Penguin box,585491,Machová,,Machová,186,,
,Penguin box,585505,Mysločovice,,Mysločovice,152,,
,Penguin box,585513,Napajedla,,Nábřeží,1328,,
,Penguin box,585513,Napajedla,,Nábřeží,1363,,
,Penguin box,585513,Napajedla,,Husova,1087,,
,Penguin box,585513,Napajedla,,Zábraní,1367,,
,Penguin box,585530,Nedašov,,Nedašov,370,,
,Penguin box,585670,Racková,,Racková,55,,
,Penguin box,585734,Sehradice,,Sehradice,194,,
,Penguin box,585734,Sehradice,,Sehradice,53,,
,Penguin box,585939,Vizovice,,Růžová,998,,
,Penguin box,585939,Vizovice,,Tyršova,917,,
,Penguin box,585939,Vizovice,,3. května,1281,,
,Penguin box,585939,Vizovice - Chrastěšov,,Chrastěšov,1,,
,Penguin box,585971,Všemina,,Všemina,244,,
,Penguin box,585971,Všemina,,Všemina,259,,
,Penguin box,585998,Zádveřice-Raková,,Zádveřice,460,,
,Penguin box,586005,Závist,,Závist,2,,
,Penguin box,586021,Hodonín,,Purkyňova,3093,,
,Penguin box,586081,Bzenec,,Kollárova,689,,
,Penguin box,586081,Bzenec,,Kasárna,1477,,
,Penguin box,586081,Bzenec,,Na Falaříkách,1400,,
,Penguin box,586081,Bzenec,,Podhájí,1286,,
,Penguin box,586099,Čejč,,Čejč,430,,
,Penguin box,586129,Dambořice,,Lipová,,,
,Penguin box,586129,Dambořice,,Městečko,393,,
,Penguin box,586161,Dubňany,,Hodonínská,107,,
,Penguin box,586161,Dubňany,,Palackého,1406,,
,Penguin box,586161,Dubňany,,Palackého,1830,,
,Penguin box,586161,Dubňany,,Malá strana,146,,
,Penguin box,586161,Dubňany,,Lesní,1131,,
,Penguin box,586269,Kněždub,,Kněždub,244,,
,Penguin box,586277,Kostelec,,Kostelec,230,,
,Penguin box,586323,Lipov,,Lipov,182,,
,Penguin box,586366,Malá Vrbka,,Malá Vrbka,45,,
,Penguin box,586404,Moravský Písek,,Zahradní,699,,
,Penguin box,586404,Moravský Písek,,Sportovní,219,,
,Penguin box,586463,Nový Poddvorov,,Nový Poddvorov,48,,
,Penguin box,586498,Prušánky,,Prušánky,234,,
,Penguin box,586498,Prušánky,,Prušánky,394,,
,Penguin box,586498,Prušánky,,Prušánky,846,,
,Penguin box,586498,Prušánky,,Prušánky,386,,
,Penguin box,586498,Prušánky,,Prušánky,273,,
,Penguin box,586501,Radějov,,Radějov,57,,
,Penguin box,586561,Starý Poddvorov,,Starý Poddvorov,230,,
,Penguin box,586587,Strážnice,,náměstí 17. listopadu,1052,,
,Penguin box,586587,Strážnice,,Na Kamenčí,1731,,
,Penguin box,586609,Sudoměřice,,Příční,289,,
,Penguin box,586609,Sudoměřice,,Příčná,289,,
,Penguin box,586641,Šardice,,Šardice,675,,
,Penguin box,586684,Tvarožná Lhota,,Tvarožná Lhota,298,,
,Penguin box,586714,Velká nad Veličkou,,Velká nad Veličkou,898,,
,Penguin box,586820,Žeravice,,Žeravice,314,,
,Penguin box,586820,Žeravice,,Žeravice,35,,
,Penguin box,586846,Jihlava,,Březinova,3948,,
,Penguin box,586846,Jihlava,,Fibichova,18,,
,Penguin box,586862,Batelov,,Švábovská,572,,
,Penguin box,586862,Batelov,,Příčná,452,,
,Penguin box,586862,Batelov,,Za Tratí,,,
,Penguin box,586943,Brtnice,,Školní,692,,
,Penguin box,586943,Brtnice,,Družstevní,129,,
,Penguin box,586951,Brzkov,,Brzkov,68,,
,Penguin box,587028,Dobronín,,Lipová,242,,
,Penguin box,587028,Dobronín,,Okružní,,,
,Penguin box,587028,Dobronín,,Okružní,76,,
,Penguin box,587290,Jihlávka,,Jihlávka,126,,
,Penguin box,587478,Luka nad Jihlavou,,Dělnická,293,,
,Penguin box,587478,Luka nad Jihlavou,,Čs. armády,564,,
,Penguin box,587478,Luka nad Jihlavou,,náměstí 9. května,385,,
,Penguin box,587478,Luka nad Jihlavou,,Revoluční,526,,
,Penguin box,587591,Nová Říše,,Březinova,29,,
,Penguin box,587591,Nová Říše,,Staroříšská,109,,
,Penguin box,587711,Polná,,Havlíčkova,314,,
,Penguin box,587745,Puklice,,Puklice,36,,
,Penguin box,587745,Puklice,,Puklice,24,,
,Penguin box,587818,Růžená,,Růžená,44,,
,Penguin box,587923,Stará Říše,,Stará Říše,124,,
,Penguin box,588024,Telč,,Slavatovská,,,
,Penguin box,588024,Telč,,Špitální,45,,
,Penguin box,588024,Telč,,Na Sádkách,,,
,Penguin box,588024,Telč,,Štěpnická,18,,
,Penguin box,588024,Telč,,Mládkova,165,,
,Penguin box,588024,Telč,,Havlíčkova,280,,
,Penguin box,588024,Telč,,Svatojánská,526,,
,Penguin box,588024,Telč,,Květinová,372,,
,Penguin box,588024,Telč,,Hradecká,291,,
,Penguin box,588024,Telč,,Komenského,327,,
,Penguin box,588024,Telč,,Studnice,26,,
,Penguin box,588296,Kroměříž,,Františka Vančury,3695,,
,Penguin box,588296,Kroměříž,,Vodní,60,,
,Penguin box,588377,Brusné,,Brusné,122,,
,Penguin box,588393,Bystřice pod Hostýnem,,Školní,1301,,
,Penguin box,588393,Bystřice pod Hostýnem,,Sovadina,11,,
,Penguin box,588393,Bystřice pod Hostýnem,,Rusavská,750,,
,Penguin box,588393,Bystřice pod Hostýnem,,Palackého,1144,,
,Penguin box,588393,Bystřice pod Hostýnem,,U Kapličky,212,,
,Penguin box,588393,Bystřice pod Hostýnem,,Přerovská,38,,
,Penguin box,588393,Bystřice pod Hostýnem,,Vsetínská,1562,,
,Penguin box,588393,Bystřice pod Hostýnem,,Bělidla,1168,,
,Penguin box,588393,Bystřice pod Hostýnem,,Hlinsko pod Hostýnem,7,,
,Penguin box,588393,Bystřice pod Hostýnem,,Bílavsko,34,,
,Penguin box,588393,Bystřice pod Hostýnem,,Samostatnost,588,,
,Penguin box,588393,Bystřice pod Hostýnem,,Na Nivách,1216,,
,Penguin box,588393,Bystřice pod Hostýnem,,U Hřiště,1633,,
,Penguin box,588407,Cetechovice,,Cetechovice,102,,
,Penguin box,588458,Holešov,,Grohova,1267,,
,Penguin box,588458,Holešov,,Novosady,1244,,
,Penguin box,588458,Holešov - Všetuly,,Palackého,520,,
,Penguin box,588491,Hulín,,Žižkova,,,
,Penguin box,588491,Hulín,,Družby II,1290,,
,Penguin box,588491,Hulín,,Vrchlického,543,,
,Penguin box,588491,Hulín,,U stavu II,1250,,
,Penguin box,588491,Hulín,,Višnovce,1092,,
,Penguin box,588491,Hulín,,Družba,1194,,
,Penguin box,588491,Hulín,,Sadová,880,,
,Penguin box,588491,Hulín,,Antonína Dvořáka,1011,,
,Penguin box,588512,Chropyně,,Náměstí Svobody,64,,
,Penguin box,588512,Chropyně,,Moravská,713,,
,Penguin box,588512,Chropyně,,Nádražní,766,,
,Penguin box,588512,Chropyně,,Moravská,615,,
,Penguin box,588512,Chropyně,,Plešovec,26,,
,Penguin box,588512,Chropyně,,Hrad,795,,
,Penguin box,588512,Chropyně,,Podlesí,,,
,Penguin box,588563,Jarohněvice,,Jarohněvice,45,,
,Penguin box,588601,Koryčany,,Náměstí,432,,
,Penguin box,588601,Koryčany,,Masarykova,830,,
,Penguin box,588644,Kvasice,,Kroměřížská,392,,
,Penguin box,588644,Kvasice,,Družstevní,112,,
,Penguin box,588644,Kvasice,,Krajina,470,,
,Penguin box,588661,Lechotice,,Lechotice,130,,
,Penguin box,588768,Morkovice-Slížany,,Kolaříkova,714,,
,Penguin box,588768,Morkovice-Slížany - Morkovice,,Náměstí,30,,
,Penguin box,588849,Pačlavice,,Pačlavice,185,,
,Penguin box,588890,Pravčice,,Pravčice,46,,
,Penguin box,588903,Prusinovice,,Hlavní,29,,
,Penguin box,588954,Roštín,,Roštín,132,,
,Penguin box,588962,Rusava,,Rusava,210,,
,Penguin box,588997,Slavkov pod Hostýnem,,Slavkov pod Hostýnem,14,,
,Penguin box,589039,Střílky,,Nová,243,,
,Penguin box,589152,Zahnašovice,,Zahnašovice,43,,
,Penguin box,589195,Zdounky,,Zdounky,336,,
,Penguin box,589217,Zlobice,,Zlobice,13,,
,Penguin box,589233,Žeranovice,,Žeranovice,29,,
,Penguin box,589250,Prostějov,,Brněnská,4150,,
,Penguin box,589250,Prostějov,,Janáčkova,3160,,
,Penguin box,589250,Prostějov,,sídl. E. Beneše,63,,
,Penguin box,589250,Prostějov,,Na spojce,,,
,Penguin box,589250,Prostějov,,Žeranovská,4160,,
,Penguin box,589250,Prostějov,,Zešov,40,,
,Penguin box,589250,Prostějov,,Čs. armádního sboru,591,,
,Penguin box,589250,Prostějov,,Studentská,4300,,
,Penguin box,589250,Prostějov,,Šárka,3206,,
,Penguin box,589250,Prostějov,,Sídliště E. Beneše,14-20,,
,Penguin box,589250,Prostějov,,Vodní,897,,
,Penguin box,589250,Prostějov,,Sídliště Svobody,3577,,
,Penguin box,589250,Prostějov,,Wolkerova,1608,,
,Penguin box,589250,Prostějov,,sídliště Svobody,3571,,
,Penguin box,589250,Prostějov,,Jana Zrzavého,3988,,
,Penguin box,589250,Prostějov,,Čechovická,51,,
,Penguin box,589250,Prostějov,,Finská,4116,,
,Penguin box,589250,Prostějov,,Brněnská,1459,,
,Penguin box,589250,Prostějov,,Žitná,189,,
,Penguin box,589250,Prostějov,,Na Příhoně,2214,,
,Penguin box,589250,Prostějov,,Šárka,3378,,
,Penguin box,589250,Prostějov,,Finská,4190,,
,Penguin box,589250,Prostějov,,Libušinka,25,,
,Penguin box,589250,Prostějov,,Antonína Slavíčka,3935,,
,Penguin box,589250,Prostějov,,sídliště Svobody,3525,,
,Penguin box,589250,Prostějov - Vrahovice,,sídliště Svornosti,706,,
,Penguin box,589268,Bedihošť,,Nerudova,439,,
,Penguin box,589268,Bedihošť,,Lidická,129,,
,Penguin box,589314,Brodek u Konice,,Brodek u Konice,166,,
,Penguin box,589314,Brodek u Konice,,Brodek u Konice,187,,
,Penguin box,589322,Brodek u Prostějova,,Hřbitovní,,,
,Penguin box,589381,Čechy pod Kosířem,,Víska,39,,
,Penguin box,589381,Čechy pod Kosířem,,náměstí Svobody,108,,
,Penguin box,589446,Dobromilice,,Dobromilice,307,,
,Penguin box,589519,Horní Štěpánov,,Horní Štěpánov,160,,
,Penguin box,589543,Hrubčice,,Hrubčice,63,,
,Penguin box,589543,Hrubčice - Otonovice,,Otonovice,13,,
,Penguin box,589560,Hvozd,,Hvozd,156,,
,Penguin box,589624,Konice,,Vrchlického,34,,
,Penguin box,589624,Konice,,Staré město,138,,
,Penguin box,589624,Konice,,Čunín,7,,
,Penguin box,589624,Konice,,Husova,677,,
,Penguin box,589624,Konice,,Za Nádražím,408,,
,Penguin box,589624,Konice,,Nová Dědina,34,,
,Penguin box,589632,Kostelec na Hané,,Za Branou,313,,
,Penguin box,589632,Kostelec na Hané,,Okružní,952,,
,Penguin box,589632,Kostelec na Hané,,sídliště Sport,786,,
,Penguin box,589641,Koválovice-Osíčany,,Koválovice u Tištína,67,,
,Penguin box,589659,Kralice Na Hané,,Hlavní Třída,15,,
,Penguin box,589659,Kralice na Hané,,Tyršova,309,,
,Penguin box,589730,Mostkovice,,Generála Kraváka,196,,
,Penguin box,589748,Myslejovice,,Myslejovice,34,,
,Penguin box,589756,Němčice nad Hanou,,Dolní Brána,135,,
,Penguin box,589756,Němčice nad Hanou,,Okružní,558,,
,Penguin box,589764,Nezamyslice,,Nádražní,294,,
,Penguin box,589829,Olšany u Prostějova,,Olšany u Prostějova,112,,
,Penguin box,589829,Olšany u Prostějova,,Olšany u Prostějova,61,,
,Penguin box,589888,Pivín,,Pivín,238,,
,Penguin box,589926,Protivanov,,Náměstí,31,,
,Penguin box,589926,Protivanov,,Na Dolině,174,,
,Penguin box,589934,Přemyslovice,,Přemyslovice,234,,
,Penguin box,589942,Ptení,,Ptení,27,,
,Penguin box,590029,Smržice,,Zákantní,152,,
,Penguin box,590029,Smržice,,Jižní,,,
,Penguin box,590070,Stražisko,,Stražisko,1,,
,Penguin box,590142,Vícov,,Vícov,172,,
,Penguin box,590185,Vrbátky,,Dubany,168,,
,Penguin box,590185,Vrbátky,,Štětovice,,,
,Penguin box,590185,Vrbátky,,Vrbátky,165,,
,Penguin box,590266,Třebíč,,Hrotovická,160,,
,Penguin box,590673,Hrotovice,,Dolní,,,
,Penguin box,590673,Hrotovice,,Sadová,425,,
,Penguin box,590673,Hrotovice,,Třebíčská,94,,
,Penguin box,590754,Jaroměřice nad Rokytnou,,Bohušická,227,,
,Penguin box,590789,Jemnice,,Palackého,829,,
,Penguin box,590843,Kněžice,,Kněžice,214,,
,Penguin box,590843,Kněžice,,Kněžice,256,,
,Penguin box,591181,Moravské Budějovice,,Kozinova,1478,,
,Penguin box,591181,Moravské Budějovice,,Gagarinova,1128,,
,Penguin box,591181,Moravské Budějovice,,Peroutka,786,,
,Penguin box,591181,Moravské Budějovice,,Myslbekova,1079,,
,Penguin box,591181,Moravské Budějovice,,Mánesova,1182,,
,Penguin box,591181,Moravské Budějovice,,Husova,613,,
,Penguin box,591211,Náměšť nad Oslavou,,Nám. Míru,186,,
,Penguin box,591211,Náměšť nad Oslavou,,Na Výsluní,921,,
,Penguin box,591211,Náměšť nad Oslavou,,Husova,556,,
,Penguin box,591211,Náměšť nad Oslavou,,Jiráskova,726,,
,Penguin box,591211,Náměšť nad Oslavou,,Na Klínkách,759,,
,Penguin box,591254,Nové Syrovice,,Nové Syrovice,25,,
,Penguin box,591254,Nové Syrovice,,Nové Syrovice,78,,
,Penguin box,591301,Okříšky,,U stadionu,461,,
,Penguin box,591301,Okříšky,,5. května,490,,
,Penguin box,591432,Předín,,Předín,70,,
,Penguin box,591459,Přibyslavice,,Kolonka,185,,
,Penguin box,591459,Přibyslavice,,Pod Sady,225,,
,Penguin box,591998,Želetava,,Znojemská,10,,
,Penguin box,592005,Uherské Hradiště,,28. října,349,,
,Penguin box,592021,Bánov,,Bánov,5443,,
,Penguin box,592021,Bánov,,Bánov,543,,
,Penguin box,592021,Bánov,,Bánov,442,,
,Penguin box,592021,Bánov,,Bánov,60,,
,Penguin box,592048,Bojkovice,,Černíkova,43,,
,Penguin box,592048,Bojkovice,,čtvrť 1. máje,718,,
,Penguin box,592048,Bojkovice,,Bezručova čtvrť,827,,
,Penguin box,592064,Boršice,,Boršice,669,,
,Penguin box,592064,Boršice,,Boršice,687,,
,Penguin box,592102,Buchlovice,,Velehradská,184,,
,Penguin box,592102,Buchlovice,,Komenského,195,,
,Penguin box,592102,Buchlovice,,Řadová,166,,
,Penguin box,592111,Bystřice pod Lopeníkem,,Bystřice pod Lopeníkem,76,,
,Penguin box,592145,Dolní Němčí,,Nivnická,91,,
,Penguin box,592145,Dolní Němčí,,Školní,606,,
,Penguin box,592145,Dolní Němčí,,Hlucká,108,,
,Penguin box,592153,Drslavice,,Drslavice,51,,
,Penguin box,592170,Hluk,,Sokolská,1408,,
,Penguin box,592226,Jalubí,,Jalubí,559,,
,Penguin box,592226,Jalubí,,Jalubí,93,,
,Penguin box,592285,Korytná,,Korytná,383,,
,Penguin box,592285,Korytná,,Korytná,64,,
,Penguin box,592307,Košíky,,Košíky,236,,
,Penguin box,592323,Kudlovice,,Kudlovice,39,,
,Penguin box,592391,Modrá,,Modrá,170,,
,Penguin box,592412,Nedakonice,,Nedakonice,245,,
,Penguin box,592439,Nivnice,,Pořádí,33,,
,Penguin box,592439,Nivnice,,Nábřežní,1121,,
,Penguin box,592471,Osvětimany,,Osvětimany,350,,
,Penguin box,592498,Pitín,,Pitín,2,,
,Penguin box,592510,Polešovice,,Polešovice,760,,
,Penguin box,592528,Popovice,,Popovice,150,,
,Penguin box,592617,Strání,,U Klanečnice,867,,
,Penguin box,592633,Stupava,,Stupava,47,,
,Penguin box,592676,Šumice,,Šumice,400,,
,Penguin box,592731,Uherský Brod,,Komenského,185,,
,Penguin box,592790,Velehrad,,Salašská,289,,
,Penguin box,592820,Vlčnov,,Vlčnov,636,,
,Penguin box,592820,Vlčnov,,Vlčnov,162,,
,Penguin box,592862,Zlechov,,Zlechov,450,,
,Penguin box,592889,Vyškov,,Brněnská,514,,
,Penguin box,592889,Vyškov,,Masarykovo náměstí,165,,
,Penguin box,592889,Vyškov,,Lipová,,,
,Penguin box,592889,Vyškov,,Potoční,271,,
,Penguin box,592889,Vyškov,,Maxima Gorkého,544,,
,Penguin box,592889,Vyškov,,Karla Čapka,55,,
,Penguin box,592889,Vyškov,,Brněnská,115,,
,Penguin box,592889,Vyškov,,Rychtářov,48,,
,Penguin box,592889,Vyškov,,Víta Nejedlého,601,,
,Penguin box,592889,Vyškov,,Trpínky,199,,
,Penguin box,592889,Vyškov,,Palánek,254,,
,Penguin box,592889,Vyškov,,Tyršova,655,,
,Penguin box,592889,Vyškov,,Sadová,258,,
,Penguin box,592889,Vyškov - Dědice,,sídliště Osvobození,670,,
,Penguin box,592927,Brankovice,,Náměstí,43,,
,Penguin box,592943,Bučovice,,Bučovice ev. č.,362,,
,Penguin box,592943,Bučovice,,Záhumení,213,,
,Penguin box,592943,Bučovice,,Školní,710,,
,Penguin box,592943,Bučovice,,Marefy,131,,
,Penguin box,592943,Bučovice,,Májová,62,,
,Penguin box,592943,Bučovice,,Příhon,,,
,Penguin box,592943,Bučovice,,Osvobození,34,,
,Penguin box,593001,Drnovice,,Drnovice,562,,
,Penguin box,593028,Habrovany,,Habrovany,276,,
,Penguin box,593036,Hlubočany,,Hlubočany,96,,
,Penguin box,593117,Ivanovice na Hané,,Přemyslova ev. č.,123,,
,Penguin box,593117,Ivanovice na Hané,,Wiedermannova,785,,
,Penguin box,593117,Ivanovice na Hané,,Malinovského,768,,
,Penguin box,593168,Komořany,,Komořany,50,,
,Penguin box,593168,Komořany,,Komořany,248,,
,Penguin box,593222,Křižanovice,,Křižanovice,159,,
,Penguin box,593265,Lovčičky,,Lovčičky,239,,
,Penguin box,593273,Luleč,,Luleč,329,,
,Penguin box,593273,Luleč,,Luleč,88,,
,Penguin box,593389,Nemochovice,,Nemochovice,2,,
,Penguin box,593397,Nemojany,,Nemojany,183,,
,Penguin box,593397,Nemojany,,Nemojany,12,,
,Penguin box,593478,Otnice,,Dědina,479,,
,Penguin box,593486,Podivice,,Podivice,76,,
,Penguin box,593494,Prusy-Boškůvky,,Moravské Prusy,156,,
,Penguin box,593559,Rousínov,,V Sídlišti,388,,
,Penguin box,593559,Rousínov,,Čechyně,129,,
,Penguin box,593559,Rousínov,,Kroužek,74,,
,Penguin box,593559,Rousínov,,Trnečkova,570,,
,Penguin box,593559,Rousínov,,V Sídlišti,337,,
,Penguin box,593559,Rousínov,,Vítovice,8,,
,Penguin box,593559,Rousínov,,V Sídlišti,335,,
,Penguin box,593559,Rousínov,,Zahradní,1141,,
,Penguin box,593559,Rousínov,,Královopolské Vážany,238,,
,Penguin box,593559,Rousínov - Slavíkovice,,Npor. Krále,722,,
,Penguin box,593583,Slavkov u Brna,,Nádražní,368,,
,Penguin box,593583,Slavkov u Brna,,Komenského,329,,
,Penguin box,593583,Slavkov u Brna,,Zlatá hora,377,,
,Penguin box,593583,Slavkov u Brna,,Nádražní,1163,,
,Penguin box,593621,Švábenice,,Švábenice,50,,
,Penguin box,593664,Vážany nad Litavou,,Vážany nad Litavou,144,,
,Penguin box,593711,Znojmo,,Suchohrdelská,2799,,
,Penguin box,593711,Znojmo,,Kollárova,384,,
,Penguin box,593788,Bohutice,,Bohutice,281,,
,Penguin box,594067,Hodonice,,Nádražní,194,,
,Penguin box,594113,Hostěradice,,Hostěradice,57,,
,Penguin box,594156,Hrušovany nad Jevišovkou,,Nerudova,1071,,
,Penguin box,594156,Hrušovany nad Jevišovkou,,Mlýnská,379,,
,Penguin box,594156,Hrušovany nad Jevišovkou,,Na Vršku,718,,
,Penguin box,594156,Hrušovany nad Jevišovkou,,Nádražní,135,,
,Penguin box,594199,Jaroslavice,,Nová,518,,
,Penguin box,594229,Jiřice u Miroslavi,,Jiřice u Miroslavi,33,,
,Penguin box,594334,Lechovice,,Lechovice,31,,
,Penguin box,594458,Miroslav,,Mlýnská,641,,
,Penguin box,594458,Miroslav,,A. Zápotockého,1224,,
,Penguin box,594458,Miroslav,,Kostelní,182,,
,Penguin box,594679,Práče,,Práče,157,,
,Penguin box,594687,Pravice,,Pravice,70,,
,Penguin box,594709,Prosiměřice,,Prosiměřice,197,,
,Penguin box,594873,Šanov,,Hlavní,82,,
,Penguin box,594938,Tavíkovice,,Tavíkovice,62,,
,Penguin box,594962,Troskotovice,,Troskotovice,332,,
,Penguin box,594962,Troskotovice,,Troskotovice,252,,
,Penguin box,595055,Vémyslice,,Vémyslice,58,,
,Penguin box,595128,Vrbovec,,Vrbovec,219,,
,Penguin box,595128,Vrbovec,,Vrbovec,146,,
,Penguin box,595187,Žerotice,,Žerotice,,,
,Penguin box,595209,Žďár nad Sázavou,,Nerudova,,,
,Penguin box,595209,Žďár nad Sázavou,,Okružní,968,,
,Penguin box,595209,Žďár nad Sázavou,,Vápenická,2309,,
,Penguin box,595209,Žďár nad Sázavou,,Studentská,1713,,
,Penguin box,595209,Žďár nad Sázavou,,Rybářská,1096,,
,Penguin box,595209,Žďár nad Sázavou,,Okružní,1921,,
,Penguin box,595209,Žďár nad Sázavou,,Okružní,1949,,
,Penguin box,595209,Žďár nad Sázavou,,Komenského,1807,,
,Penguin box,595209,Žďár nad Sázavou,,Bezručova,117,,
,Penguin box,595209,Žďár nad Sázavou,,U Křížku,2417,,
,Penguin box,595209,Žďár nad Sázavou,,Sázavská,2431,,
,Penguin box,595209,Žďár nad Sázavou,,Vysocká,578,,
,Penguin box,595209,Žďár nad Sázavou,,Brodská,1975,,
,Penguin box,595209,Žďár nad Sázavou,,Libušínská,189,,
,Penguin box,595209,Žďár nad Sázavou,,Hutařova,607,,
,Penguin box,595268,Bobrová,,Bobrová,174,,
,Penguin box,595268,Bobrová,,Bobrová,40,,
,Penguin box,595411,Bystřice nad Pernštejnem,,Zahradní,164,,
,Penguin box,595411,Bystřice nad Pernštejnem,,Spojovací,669,,
,Penguin box,595411,Bystřice nad Pernštejnem,,Nádražní,908,,
,Penguin box,595411,Bystřice nad Pernštejnem,,Ant. Šťourače,696,,
,Penguin box,595411,Bystřice nad Pernštejnem,,Jívová,903,,
,Penguin box,595411,Bystřice nad Pernštejnem,,Luční,764,,
,Penguin box,595411,Bystřice nad Pernštejnem,,Okružní,753,,
,Penguin box,595501,Dolní Heřmanice,,Dolní Heřmanice,100,,
,Penguin box,595519,Dolní Libochová,,Dolní Libochová,60,,
,Penguin box,595527,Dolní Loučky,,Dolní Loučky,353,,
,Penguin box,595535,Dolní Rožínka,,Dolní Rožínka,75,,
,Penguin box,595586,Hamry nad Sázavou,,Hamry nad Sázavou,322,,
,Penguin box,595641,Bory,,Dolní Bory,232,,
,Penguin box,595772,Jimramov,,Ubušínská,67,,
,Penguin box,595802,Jívoví,,Jívoví,40,,
,Penguin box,595926,Křižanov,,Luční,580,,
,Penguin box,595926,Křižanov,,Meziříčská,275,,
,Penguin box,595926,Křižanov,,Masarykovo náměstí,169,,
,Penguin box,595934,Křižínkov,,Křižínkov,6,,
,Penguin box,596116,Měřín,,Družstevní,360,,
,Penguin box,596116,Měřín,,Na Nivech,540,,
,Penguin box,596116,Měřín,,Náměstí,90,,
,Penguin box,596141,Moravec,,Moravec,146,,
,Penguin box,596175,Nedvědice,,Nedvědice,316,,
,Penguin box,596175,Nedvědice,,Nedvědice,391,,
,Penguin box,596205,Nížkov,,Nížkov,147,,
,Penguin box,596205,Nížkov,,Nížkov,174,,
,Penguin box,596337,Oslavice,,Oslavice,67,,
,Penguin box,596345,Osová Bítýška,,Osová Bítýška,3,,
,Penguin box,596531,Radešínská Svratka,,Radešínská Svratka,135,,
,Penguin box,596574,Radostín nad Oslavou,,Radostín nad Oslavou,86,,
,Penguin box,596582,Rojetín,,Rojetín,50,,
,Penguin box,596612,Rovečné,,Rovečné,199,,
,Penguin box,596647,Rozsochy,,Rozsochy,160,,
,Penguin box,596655,Rožná,,Rožná,116,,
,Penguin box,596817,Stránecká Zhoř,,Stránecká Zhoř,41,,
,Penguin box,596817,Stránecká Zhoř,,Stránecká Zhoř,140,,
,Penguin box,596825,Strážek,,Strážek,13,,
,Penguin box,596868,Svratka,,Komenského,371,,
,Penguin box,596884,Štěpánov nad Svratkou,,Štěpánov nad Svratkou,1,,
,Penguin box,596957,Věcov,,Věcov,74,,
,Penguin box,596957,Věcov - Jimramovské Pavlovice,,Jimramovské Pavlovice,57,,
,Penguin box,596957,Věcov - Míchov,,Míchov,55,,
,Penguin box,596957,Věcov - Roženecké Paseky,,Roženecké Paseky,1,,
,Penguin box,597007,Velké Meziříčí,,Třebíčská,346,,
,Penguin box,597007,Velké Meziříčí,,Komenského,119,,
,Penguin box,597007,Velké Meziříčí,,Třebíčská,641,,
,Penguin box,597007,Velké Meziříčí,,Čechova,1726,,
,Penguin box,597007,Velké Meziříčí,,Bezděkov,1836,,
,Penguin box,597007,Velké Meziříčí,,Kolmá,1243,,
,Penguin box,597007,Velké Meziříčí,,Družstevní,1364,,
,Penguin box,597007,Velké Meziříčí,,Nová,1486,,
,Penguin box,597007,Velké Meziříčí,,Pionýrská,1873,,
,Penguin box,597007,Velké Meziříčí,,U Statku,2139,,
,Penguin box,597007,Velké Meziříčí,,Hornoměstská,423,,
,Penguin box,597007,Velké Meziříčí,,Olší nad Oslavou,61,,
,Penguin box,597007,Velké Meziříčí,,K Rakůvkám,,,
,Penguin box,597007,Velké Meziříčí,,Mostiště,101,,
,Penguin box,597066,Vidonín,,Vidonín,68,,
,Penguin box,597074,Vír,,Vír,58,,
,Penguin box,597091,Vojnův Městec,,Vojnův Městec,29,,
,Penguin box,597180,Bruntál,,Fügnerova,104,,
,Penguin box,597180,Bruntál,,Na nábřeží,1155,,
,Penguin box,597180,Bruntál,,Nezvalova,1583,,
,Penguin box,597180,Bruntál,,Okružní,1727,,
,Penguin box,597180,Bruntál,,Jesenická,792,,
,Penguin box,597180,Bruntál,,Kavalcova,926,,
,Penguin box,597180,Bruntál,,Květná,1821,,
,Penguin box,597180,Bruntál,,Wolkerova,1207,,
,Penguin box,597180,Bruntál,,Dělnická,1594,,
,Penguin box,597180,Bruntál,,Alšova,967,,
,Penguin box,597180,Bruntál,,Jiráskova,1630,,
,Penguin box,597180,Bruntál,,Dolní,1549,,
,Penguin box,597228,Břidličná,,Šternberská,380,,
,Penguin box,597228,Břidličná,,Komenského,319,,
,Penguin box,597228,Břidličná,,Dlouhá,371,,
,Penguin box,597228,Břidličná,,U Hřiště,506,,
,Penguin box,597317,Dvorce,,Úzká,206,,
,Penguin box,597341,Holčovice,,Hejnov,84,,
,Penguin box,597350,Horní Benešov,,Tyršova,55,,
,Penguin box,597350,Horní Benešov,,Luhy,148,,
,Penguin box,597350,Horní Benešov,,Šibenik,612,,
,Penguin box,597350,Horní Benešov,,Luhy,99,,
,Penguin box,597350,Horní Benešov,,Tyršova,61,,
,Penguin box,597350,Horní Benešov,,Nerudova,469,,
,Penguin box,597414,Huzová,,Huzová,302,,
,Penguin box,597449,Jindřichov,,Jindřichov,296,,
,Penguin box,597449,Jindřichov,,Jindřichov,197,,
,Penguin box,597449,Jindřichov,,Jindřichov,232,,
,Penguin box,597481,Karlovice,,Karlovice,325,,
,Penguin box,597520,Krnov - Krásné Loučky,,Krásné Loučky,42,,
,Penguin box,597546,Leskovec nad Moravicí,,Leskovec nad Moravicí,81,,
,Penguin box,597678,Moravský Beroun,,Generála Svobody,572,,
,Penguin box,597678,Moravský Beroun,,Generála Svobody,601,,
,Penguin box,597678,Moravský Beroun,,Komenského,508,,
,Penguin box,597716,Osoblaha,,Na Náměstí,104,,
,Penguin box,597783,Rýmařov,,Sokolovská,541,,
,Penguin box,597783,Rýmařov,,Příkopy,1157,,
,Penguin box,597783,Rýmařov,,Větrná,908,,
,Penguin box,597783,Rýmařov,,Dukelská,969,,
,Penguin box,597783,Rýmařov,,1. máje,887,,
,Penguin box,597783,Rýmařov - Edrovice,,Julia Fučíka,79,,
,Penguin box,597783,Rýmařov - Janovice,,Opavská,206,,
,Penguin box,597791,Ryžoviště,,náměstí Míru,46,,
,Penguin box,597872,Světlá Hora,,Světlá,354,,
,Penguin box,597945,Václavov u Bruntálu,,Horní Václavov,69,,
,Penguin box,597996,Zlaté Hory,,Na Sídlišti,689,,
,Penguin box,598003,Frýdek-Místek,,17. listopadu,2262,,
,Penguin box,598003,Frýdek-Místek,,Příborská,2270,,
,Penguin box,598011,Baška,,Baška,450,,
,Penguin box,598020,Bílá,,Bílá,173,,
,Penguin box,598038,Brušperk,,Družstevní,626,,
,Penguin box,598038,Brušperk,,Dr. Martínka,108,,
,Penguin box,598038,Brušperk,,Jožky Matěje,1068,,
,Penguin box,598062,Bystřice,,Bystřice,1181,,
,Penguin box,598062,Bystřice,,Bystřice,1118,,
,Penguin box,598062,Bystřice,,Bystřice,1005,,
,Penguin box,598062,Bystřice,,Bystřice,1294,,
,Penguin box,598089,Dobrá,,Dobrá,431,,
,Penguin box,598135,Fryčovice,,Fryčovice,69,,
,Penguin box,598135,Fryčovice,,Fryčovice,,,
,Penguin box,598160,Hnojník,,Hnojník,209,,
,Penguin box,598348,Krmelín,,Stará cesta,51,,
,Penguin box,598348,Krmelín,,Staroveská,567,,
,Penguin box,598356,Kunčice pod Ondřejníkem,,Kunčice pod Ondřejníkem,594,,
,Penguin box,598356,Kunčice pod Ondřejníkem,,Kunčice pod Ondřejníkem,318,,
,Penguin box,598542,Ostravice,,Ostravice,551,,
,Penguin box,598551,Palkovice,,Palkovice,333,,
,Penguin box,598674,Sedliště,,Sedliště,203,,
,Penguin box,598798,Šenov,,U Alejského dvora,619,,
,Penguin box,598798,Šenov,,U Hřiště,886,,
,Penguin box,598917,Karviná,,Einsteinova,2983,,
,Penguin box,598917,Karviná,,tř. 17. listopadu,23,,
,Penguin box,598917,Karviná,,Tř. 17. Listopadu,883,,
,Penguin box,598925,Albrechtice,,Obecní,186,,
,Penguin box,598941,Dětmarovice,,Dětmarovice,942,,
,Penguin box,599051,Bohumín,,9. května,1196,,
,Penguin box,599051,Bohumín,,Okružní,1164,,
,Penguin box,599069,Orlová,,Okružní,1297,,
,Penguin box,599191,Nový Jičín,,Na Valech,411,,
,Penguin box,599191,Nový Jičín,,Bezručova,427,,
,Penguin box,599191,Nový Jičín,,Beskydská,88,,
,Penguin box,599191,Nový Jičín,,Dlouhá,,,
,Penguin box,599191,Nový Jičín,,Jičínská,181,,
,Penguin box,599191,Nový Jičín,,Jičínská,85,,
,Penguin box,599191,Nový Jičín,,Riegrova,1945,,
,Penguin box,599191,Nový Jičín,,Vančurova,694,,
,Penguin box,599191,Nový Jičín,,Dvořákova,1763,,
,Penguin box,599191,Nový Jičín,,Riegrova,522,,
,Penguin box,599191,Nový Jičín,,Dvořákova,330,,
,Penguin box,599191,Nový Jičín,,Vančurova,451,,
,Penguin box,599191,Nový Jičín,,Za Korunou,197,,
,Penguin box,599191,Nový Jičín,,Na Lani,217,,
,Penguin box,599191,Nový Jičín,,Gregorova,142,,
,Penguin box,599191,Nový Jičín,,Dlouhá,1760,,
,Penguin box,599191,Nový Jičín,,Fibichovo Nám.,1421,,
,Penguin box,599191,Nový Jičín,,B. Martinů,2097,,
,Penguin box,599191,Nový Jičín,,Stráník,148,,
,Penguin box,599191,Nový Jičín,,Bludovice,13,,
,Penguin box,599191,Nový Jičín,,Smetanovy Sady,807,,
,Penguin box,599191,Nový Jičín,,Bulharská,1629,,
,Penguin box,599191,Nový Jičín,,Lesní,2134,,
,Penguin box,599212,Bartošovice,,Bartošovice,138,,
,Penguin box,599247,Bílovec,,Jeremenkova,,,
,Penguin box,599247,Bílovec,,Radotínská,589,,
,Penguin box,599247,Bílovec,,Jeremenkova,439,,
,Penguin box,599247,Bílovec,,Výškovice,61,,
,Penguin box,599247,Bílovec,,Bravinné,12,,
,Penguin box,599247,Bílovec,,Bezručova,476,,
,Penguin box,599247,Bílovec,,Radotínská,951,,
,Penguin box,599247,Bílovec,,Na Samotě,,,
,Penguin box,599247,Bílovec,,Lubojaty,58,,
,Penguin box,599247,Bílovec,,Stará Ves,196,,
,Penguin box,599247,Bílovec,,Dukelská,653,,
,Penguin box,599352,Fulnek,,Masarykova,304,,
,Penguin box,599352,Fulnek,,Jerlochovice,149,,
,Penguin box,599352,Fulnek,,Stachovice,99,,
,Penguin box,599352,Fulnek,,Lukavec,62,,
,Penguin box,599352,Fulnek,,Vlkovice,33,,
,Penguin box,599352,Fulnek,,Požární,248,,
,Penguin box,599352,Fulnek,,Děrné,1,,
,Penguin box,599409,Hodslavice,,Hodslavice,442,,
,Penguin box,599514,Březovice,,Březovice,51,,
,Penguin box,599531,Horní Slivno,,Horní Slivno,1,,
,Penguin box,599565,Kopřivnice,,Pod Bílou Horou,1262,,
,Penguin box,599565,Kopřivnice,,Dukelská,1060,,
,Penguin box,599565,Kopřivnice,,I. Šustaly,1084,,
,Penguin box,599565,Kopřivnice,,Lubina,,,
,Penguin box,599565,Kopřivnice,,Obránců míru,409,,
,Penguin box,599565,Kopřivnice,,Masarykovo náměstí,650,,
,Penguin box,599565,Kopřivnice,,Tyršova,502,,
,Penguin box,599565,Kopřivnice,,Pod Morávií,283,,
,Penguin box,599565,Kopřivnice,,Mniší,229,,
,Penguin box,599565,Kopřivnice,,Lubina,83,,
,Penguin box,599565,Kopřivnice,,Osvoboditelů,1215,,
,Penguin box,599565,Kopřivnice,,K. Čapka,950,,
,Penguin box,599565,Kopřivnice,,Obránců míru,1307,,
,Penguin box,599565,Kopřivnice,,Štramberská,341,,
,Penguin box,599565,Kopřivnice,,Francouzská,1180,,
,Penguin box,599565,Kopřivnice,,Pod Bílou horou,1262,,
,Penguin box,599565,Kopřivnice,,Dělnická,356,,
,Penguin box,599565,Kopřivnice - Vlčovice,,Vlčovice,152,,
,Penguin box,599689,Mořkov,,Horní,385,,
,Penguin box,599701,Odry,,Sídliště Míru,981,,
,Penguin box,599701,Odry,,Skřivánčí,761,,
,Penguin box,599701,Odry,,Potoční,1022,,
,Penguin box,599701,Odry,,Nádražní,4,,
,Penguin box,599701,Odry,,Pohoř,42,,
,Penguin box,599701,Odry,,Křížová,1,,
,Penguin box,599701,Odry,,Dobešov,4,,
,Penguin box,599701,Odry,,Nadační,964,,
,Penguin box,599701,Odry,,sídliště Pod Lesem,831,,
,Penguin box,599701,Odry,,Loučky,229,,
,Penguin box,599808,Příbor,,Masarykova,,,
,Penguin box,599808,Příbor,,Svatopluka Čecha,,,
,Penguin box,599808,Příbor,,Vrchlického,,,
,Penguin box,599808,Příbor,,Štefanikova,150,,
,Penguin box,599808,Příbor,,Místecká,1509,,
,Penguin box,599808,Příbor,,Prchalov,3,,
,Penguin box,599808,Příbor,,nan,9.května,,
,Penguin box,599808,Příbor,,Choráze,1489,,
,Penguin box,599808,Příbor,,Hájov,87,,
,Penguin box,599808,Příbor,,Nerudova,507,,
,Penguin box,599808,Příbor,,Bonifáce Buska,97,,
,Penguin box,599808,Příbor,,Na Nivách,1564,,
,Penguin box,599808,Příbor,,Štramberská,483,,
,Penguin box,599832,Sedlnice,,Sedlnice,109,,
,Penguin box,599867,Spálov,,Spálov,270,,
,Penguin box,599930,Suchdol nad Odrou,,Komenského,140,,
,Penguin box,599930,Suchdol nad Odrou,,Nová ulice,462,,
,Penguin box,599930,Suchdol nad Odrou,,Za Nádražím,215,,