id,name,city_code,city,zip_code,street,house_NO,latitude,longtitude
1,GLS Parcel Box,586846,Jihlava,58601,S. K. Neumanna,590/22,49.4048,15.557
2,GLS Parcel Box,597007,Velké Meziříčí,59401,Sokolovská,147/25,49.3517,16.0196
3,GLS Parcel Box,545058,Valašské Meziříčí,75701,Králova,1256,49.4693,17.9711
4,GLS Parcel Box,554782,Praha,15600,Pod Třešňovkou,234,49.9708,14.3832
5,GLS Parcel Box,511382,Přerov,75002,Svisle,1100/9,49.4503,17.4594
6,GLS Parcel Box,585068,Zlín,76001,třída Tomáše Bati,1547,49.2258,17.6706
7,GLS Parcel Box,592731,Uherský Brod,68801,Stolařská,2338,49.0193,17.6429
8,GLS Parcel Box,500496,Olomouc,77900,Kafkova 1223/8 (OC Haná),1223/8,49.5754,17.2282
9,GLS Parcel Box,555088,Havířov,73601,Dělnická (OC Elan),nan,49.7808,18.4318
10,GLS Parcel Box,582786,Brno,60200,Mendlovo náměstí,nan,49.1904456,16.5961503
11,GLS Parcel Box,598003,Frýdek-Místek,73801,tř. T. G. Masaryka,503,49.6856,18.3523
12,GLS Parcel Box,554821,Ostrava,72527,Spojovací 396 (NC Géčko),396,49.849,18.1458
13,GLS Parcel Box,500496,Olomouc,77900,Pasteurova,905/10,49.5997,17.2738
14,GLS Parcel Box,544256,České Budějovice,37001,Nádražní 1759 (OC Mercury),1759,48.9729,14.4874
15,GLS Parcel Box,582786,Brno,62500,Netroufalky 770/14-16 (OC Campus Square),770/14-16,49.1777,16.5668
16,GLS Parcel Box,545881,Jindřichův Hradec,37701,U Nádraží,940,49.15236139,15.00691847
17,GLS Parcel Box,531057,Beroun,26601,Švermova,1368,49.9581,14.0519
18,GLS Parcel Box,544256,České Budějovice,37006,Dobrovodská,2009/50a,48.9714,14.4971
19,GLS Parcel Box,554782,Praha,19000,Freyova,945,50.1099,14.5016
20,GLS Parcel Box,554791,Plzeň,32600,Nepomucká,122/10,49.7209,13.4025
21,GLS Parcel Box,555771,Klatovy,33901,Nádražní,613,49.4016,13.28
22,GLS Parcel Box,553425,Domažlice,34401,Kozinova,44,49.4392,12.9182
23,GLS Parcel Box,545881,Jindřichův Hradec,37701,Václavská,618,49.1318,15.0036
24,GLS Parcel Box,554782,Praha,15500,Hábova,2348/7,50.04697579,14.31119761
25,GLS Parcel Box,582786,Brno,62800,Zikova,2503/1,49.209,16.6742
26,GLS Parcel Box,582786,Brno,62700,Tuřanka,1222/115,49.16822291,16.68051207
27,GLS Parcel Box,554782,Praha,14000,Na Hřebenech II,nan,50.053585,14.4308633
28,GLS Parcel Box,554782,Praha,19000,Veltruská,559/31,50.1213,14.4937
29,GLS Parcel Box,582786,Brno,61900,Skandinávská,128/2,49.1574,16.6269
30,GLS Parcel Box,585068,Zlín,76005,Česká,5384,49.2436,17.6676
31,GLS Parcel Box,554782,Praha,15500,Bellušova,1877/68,50.0411,14.3252
32,GLS Parcel Box,573868,Náchod,54701,Purkyňova,436,50.4142,16.1703
33,GLS Parcel Box,554782,Praha,19000,Čakovická,783/51,50.118,14.5053
34,GLS Parcel Box,555134,Pardubice,53002,Na Spravedlnosti,1533,50.0301,15.7762
35,GLS Parcel Box,569810,Hradec Králové,50002,Dukelská třída,1713/7,50.2132,15.8188
36,GLS Parcel Box,582786,Brno,61600,Stránského,3033,49.2124,16.5679
37,GLS Parcel Box,554782,Praha,15500,Skandinávská,144/25,50.05011835,14.29484609
38,GLS Parcel Box,554782,Praha,16900,Chaloupeckého 1914/9 (hřiště proti bloku 4),1914/9,50.0803,14.3928
39,GLS Parcel Box,554782,Praha,18200,Ďáblická,553/2,50.132,14.4799
40,GLS Parcel Box,554782,Praha,19800,Hloubětínská,1061/1,50.1006,14.5338
41,GLS Parcel Box,539333,Jílové u Prahy,25401,Rudných dolů,502,49.8967,14.4924
42,GLS Parcel Box,555134,Pardubice,53002,Nábř. Závodu Míru,2712,50.0388,15.7656
43,GLS Parcel Box,554782,Praha,16000,Kolejní,2571,50.1055944,14.3891819
44,GLS Parcel Box,554782,Praha,19900,Beranových,130,50.1329,14.5155
45,GLS Parcel Box,569810,Hradec Králové,50002,A. Dvořáka,1492,50.2189,15.8166
46,GLS Parcel Box,554782,Praha,19000,Moravcových,4,50.1121,14.5155
47,GLS Parcel Box,554821,Ostrava,70200,Mariánskohorská,3121/55,49.8406,18.2604
48,GLS Parcel Box,582786,Brno,61900,Vídeňská,132/100,49.1558,16.5976
49,GLS Parcel Box,574121,Jaroměř,55101,Knappova,162,50.3532,15.9154
50,GLS Parcel Box,554791,Plzeň,30100,Sukova,2895/23,49.7292,13.3611
51,GLS Parcel Box,573868,Náchod,54701,Kostelecká,1204,50.4227,16.1664
52,GLS Parcel Box,554782,Praha,10100,Vršovické náměstí,111/2,50.0686,14.4533
53,GLS Parcel Box,554782,Praha,19000,Jablonecká,423/70,50.1254,14.4938
54,GLS Parcel Box,554782,Praha,11000,Hybernská,1033/7,50.0873,14.4317
55,GLS Parcel Box,582786,Brno,61200,Cimburkova,593/4,49.2175406,16.6080914
56,GLS Parcel Box,544256,České Budějovice,37001,M. Vydrové,1356/22,48.9661,14.4813
57,GLS Parcel Box,554782,Praha,10000,Rubensova,2238/4,50.068024,14.509474
58,GLS Parcel Box,561380,Česká Lípa,47001,Hrnčířská,2985,50.6813,14.5372
59,GLS Parcel Box,532053,Kladno,27309,28. října,1542,50.165,14.1086
60,GLS Parcel Box,554791,Plzeň,32600,nám.Gen. Píky,2703/27,49.7323,13.4012
61,GLS Parcel Box,554782,Praha,18100,Lodžská,598/3,50.1286,14.4168
62,GLS Parcel Box,555088,Havířov,73601,U Stadionu,1655/8a,49.7688,18.4473
63,GLS Parcel Box,532819,Slaný,27401,Wilsonova,1675,50.2292,14.0793
64,GLS Parcel Box,554782,Praha,14200,Libušská,400/115,50.0023,14.4649
65,GLS Parcel Box,582786,Brno,62800,Josefy Faimonové,11b,49.2031,16.6788
66,GLS Parcel Box,554782,Praha,10000,Dubečská,24-32,50.06645919,14.50071047
67,GLS Parcel Box,598003,Frýdek-Místek,73801,Nádražní,2053,49.6784661,18.3534011
68,GLS Parcel Box,554782,Praha,14100,Postupická,2931/9,50.0454,14.4912
69,GLS Parcel Box,554782,Praha,17000,Jankovcova,938/18a,50.1106,14.4502
70,GLS Parcel Box,598003,Frýdek-Místek,73801,17. listopadu,2261,49.6755,18.3244
71,GLS Parcel Box,554481,Cheb,35002,Evropská,175/32,50.0743,12.3744
72,GLS Parcel Box,554782,Praha,19800,Rožmberská,1272,50.0938,14.5428
73,GLS Parcel Box,567027,Most,43401,Okružní,3130,50.4907,13.6549
74,GLS Parcel Box,554791,Plzeň,30100,Rokycanská třída,1171,49.7471,13.4041
75,GLS Parcel Box,582786,Brno,60200,náměstí Svobody,85/16,49.1941,16.6083
76,GLS Parcel Box,554782,Praha,14300,Darwinova,1808/5,50.0084,14.405
77,GLS Parcel Box,567027,Most,43401,Tyršova,3460,50.4989,13.6323
78,GLS Parcel Box,554821,Ostrava,70030,Dr. Lukášové křižovatka Holasova,nan,49.7877,18.2565
79,GLS Parcel Box,554961,Karlovy Vary,36005,Dolní Kamenná,1004/7,50.232,12.8542
80,GLS Parcel Box,554782,Praha,19300,Náchodská,2479/63,50.1136197,14.6003242
81,GLS Parcel Box,554791,Plzeň,31800,Macháčkova,928/18,49.7442,13.3279
82,GLS Parcel Box,569810,Hradec Králové,50003,Víta Nejedlého,1062/12,50.2120367,15.8540936
83,GLS Parcel Box,500496,Olomouc,77900,Holická,1136/26,49.583,17.2714
84,GLS Parcel Box,544256,České Budějovice,37011,J.Boreckého,34,48.9881,14.459
85,GLS Parcel Box,554782,Praha,10800,Počernická,473/81,50.0832,14.5063
86,GLS Parcel Box,554782,Praha,10100,Chodovská,1549/18,50.0562,14.473
87,GLS Parcel Box,554821,Ostrava,70900,Novoveská,3137,49.8381,18.2578
88,GLS Parcel Box,552046,Tábor,39005,Soběslavská,3046,49.3897,14.6923
89,GLS Parcel Box,554804,Ústí nad Labem,40010,Havířská,354/15,50.6881,13.986
90,GLS Parcel Box,554782,Praha,15500,Jeremiášova,1102,50.0545,14.3082
91,GLS Parcel Box,590266,Třebíč,67401,Hrotovická,160,49.2109186,15.8938161
92,GLS Parcel Box,539911,Příbram,26101,Jinecká,321,49.6971506,14.0177619
93,GLS Parcel Box,593711,Znojmo,66902,Suchohrdelská,2799/26,48.8559114,16.0720919
94,GLS Parcel Box,554782,Praha,14200,Novodvorská,1800/136,50.0267,14.4329
95,GLS Parcel Box,554821,Ostrava,70030,Čujkovova,2709/42,49.7909,18.2374
96,GLS Parcel Box,554782,Praha,19900,Štanderova,887/1,50.1411,14.5219
97,GLS Parcel Box,589250,Prostějov,79601,Martinákova,2451/4,49.479,17.1087
98,GLS Parcel Box,544256,České Budějovice,37005,Husova tř.,523/30,48.9789,14.4609
99,GLS Parcel Box,563277,Otvice,43111,Obchodní zóna,261,50.4844,13.4409
100,GLS Parcel Box,555134,Pardubice,53009,Poděbradská,295/54,50.0575,15.7631
101,GLS Parcel Box,534005,Čáslav,28601,Jeníkovská,1663,49.9023,15.4019
102,GLS Parcel Box,535419,Mladá Boleslav,29301,Jičínská,1326/III,50.4110122,14.9327836
103,GLS Parcel Box,554782,Praha,19800,Bratří Venclíků,1139/3,50.1056,14.559
104,GLS Parcel Box,554782,Praha,11000,Týnská,19,50.0887,14.4237
105,GLS Parcel Box,584002,Tišnov,66601,Dvořákova,314,49.3481,16.4292
106,GLS Parcel Box,554782,Praha,14200,Mirotická,965/1,50.014,14.453
107,GLS Parcel Box,581186,Vysoké Mýto,56601,Pivovarská,524,49.9517,16.1454
108,GLS Parcel Box,564567,Litoměřice,41201,Stránského,1908/33,50.5366,14.1204
109,GLS Parcel Box,554782,Praha,19900,Veselská,721,50.14,14.498
110,GLS Parcel Box,589250,Prostějov,79811,Vrahovická,720/56b,49.4766,17.1359
111,GLS Parcel Box,554782,Praha,16900,Radimova,2322/40,50.0878,14.3661
112,GLS Parcel Box,511382,Přerov,75002,Třída generála Janouška,2854/2,49.451,17.4702
113,GLS Parcel Box,554782,Praha,14000,Na Květnici,700/1a,50.06057,14.4399844
114,GLS Parcel Box,555088,Havířov,73601,E.F. Buriana,869/4a,49.7778,18.4377
115,GLS Parcel Box,554821,Ostrava,70200,K Lávce,1141/1,49.8553,18.2752
116,GLS Parcel Box,500496,Olomouc,77900,Vejdovského,1084/6,49.5879,17.2701
117,GLS Parcel Box,500496,Olomouc,77900,Velkomoravská,325/8,49.5828,17.2418
118,GLS Parcel Box,536385,Jeseník,79001,Autobusové n.-Smetanova ul.,nan,50.2275,17.2083
119,GLS Parcel Box,598003,Frýdek-Místek,73801,Na Příkopě,3727,49.6809,18.3474
120,GLS Parcel Box,554791,Plzeň,30100,Majerova,2525/7,49.7277,13.374
121,GLS Parcel Box,505927,Opava,74601,Jiráskova,4,49.9307,17.9193
122,GLS Parcel Box,582786,Brno,61600,Technická,2896/2,49.224,16.5773
123,GLS Parcel Box,585068,Zlín,76302,třída Svobody,836,49.2053,17.5833
124,GLS Parcel Box,567027,Most,43401,K. J. Erbena,24,50.5004,13.6627
125,GLS Parcel Box,554821,Ostrava,70200,Vítkovická,3083/1,49.8309233,18.2804692
126,GLS Parcel Box,500496,Olomouc,77900,Náves Svobody,4/6,49.5756,17.2945
127,GLS Parcel Box,523704,Šumperk,78701,Jesenická,19,49.9627,16.9815
128,GLS Parcel Box,530883,Vlašim,25801,Lidická,301,49.7037,14.898
129,GLS Parcel Box,565229,Lovosice,41002,K. Maličkého,1227,50.5164603,14.0466558
130,GLS Parcel Box,535419,Mladá Boleslav,29301,Mládežnická,1435,50.4325469,14.9220861
131,GLS Parcel Box,500496,Olomouc,77900,I.P.Pavlova,184/69,49.5800494,17.2336575
132,GLS Parcel Box,554782,Praha,15500,Archeologická,2256/1,50.0432989,14.3319422
133,GLS Parcel Box,580350,Choceň,56501,Husova,86,50.0009631,16.2267606
134,GLS Parcel Box,562971,Chomutov,43001,Farského,4732,50.4619811,13.4143122
135,GLS Parcel Box,552046,Tábor,39005,Helsinská,2760/18,49.3855556,14.6880578
136,GLS Parcel Box,554782,Praha,12000,Polská,2400/1a,50.0788492,14.4423042
137,GLS Parcel Box,554642,Mariánské Lázně,35301,Plzeňská,130/22,49.9538594,12.702343
138,GLS Parcel Box,552046,Tábor,39002,Soběslavská,2399,49.4036236,14.6851522
139,GLS Parcel Box,544256,České Budějovice,37004,Pražská třída,2176/65,48.9835308,14.4707369
140,GLS Parcel Box,544256,České Budějovice,37001,Rudolfovská tř.,202/88,48.9785258,14.4957719
141,GLS Parcel Box,544256,České Budějovice,37004,Kněžskodvorská,2296/8A,48.9881636,14.4727544
142,GLS Parcel Box,593711,Znojmo,66902,Mičurinova,2,48.8625367,16.0439697
143,GLS Parcel Box,538299,Kamenice,25168,Ringhofferovo náměstí,434,49.9042331,14.5878614
144,GLS Parcel Box,505927,Opava,74601,Zámecký okruh,996/19,49.9384036,17.9117861
145,GLS Parcel Box,555134,Pardubice,53009,Bělehradská,554,50.0476683,15.7656258
146,GLS Parcel Box,598917,Karviná,73401,tř. Těreškovové,2233/28,49.8572794,18.5575956
147,GLS Parcel Box,581186,Vysoké Mýto,56601,Ležáků,722,49.9444722,16.1503375
148,GLS Parcel Box,598810,Třinec,73961,1. máje,495,49.68096,18.6679197
149,GLS Parcel Box,598933,Český Těšín,73701,Hlavní třída,1906/2A,49.7491194,18.626105
150,GLS Parcel Box,554791,Plzeň,32300,Kaznějovská,49,49.7802642,13.3756644
151,GLS Parcel Box,554782,Praha,16100,Žukovského,888/2,50.0902161,14.3091328
152,GLS Parcel Box,598933,Český Těšín,73701,Jablůnkovská,1206/78b,49.7319906,18.6198453
153,GLS Parcel Box,554791,Plzeň,32300,Žlutická,9,49.7760333,13.36113
154,GLS Parcel Box,549240,Písek,39701,Nádražní,2143,49.30332,14.1490853
155,GLS Parcel Box,578347,Litomyšl,57001,Moravská,922,49.8652575,16.3173725
156,GLS Parcel Box,593711,Znojmo,66904,Pod Svatým Jánem,420/4,48.8777461,16.0393936
157,GLS Parcel Box,582786,Brno,62700,Tuřanka,1260/1,49.1764239,16.6881131
158,GLS Parcel Box,555134,Pardubice,53003,Věry Junkové,306,50.0393022,15.801815
159,GLS Parcel Box,555134,Pardubice,53002,17. listopadu,2821,50.0325764,15.7690286
160,GLS Parcel Box,585068,Zlín,76001,Okružní,4701,49.2331228,17.6596267
161,GLS Parcel Box,500496,Olomouc,77900,Pražská,255,49.6022497,17.2204392
162,GLS Parcel Box,549240,Písek,39701,Burketova,287/30,49.3090053,14.1324592
163,GLS Parcel Box,597520,Krnov,79401,Opavská,241/2,50.0883992,17.7082536
164,GLS Parcel Box,582786,Brno,61400,Nováčkova,418/11,49.2083447,16.6295417
165,GLS Parcel Box,555134,Pardubice,53009,Jiřího Potůčka,290,50.0516072,15.7541842
166,GLS Parcel Box,590266,Třebíč,67401,Dělnické náměstí,847/3,49.2098739,15.8654489
167,GLS Parcel Box,544256,České Budějovice,37005,Na Zlaté stoce,551/14,48.9799228,14.4553161
168,GLS Parcel Box,562971,Chomutov,43004,Pod Břízami,5251,50.4913053,13.4385803
169,GLS Parcel Box,531057,Beroun,26601,Na Máchovně,1610,49.9565653,14.0407681
170,GLS Parcel Box,531057,Beroun,26601,Vrchlického,867,49.96645,14.0803675
171,GLS Parcel Box,598917,Karviná,73301,Einsteinova,2867/4,49.8675669,18.5590358
172,GLS Parcel Box,598917,Karviná,73301,Fryštátská,235/77,49.8503658,18.5495967
173,GLS Parcel Box,598917,Karviná,73401,U Lesa,763/4,49.8480653,18.5607661
174,GLS Parcel Box,554782,Praha,14000,Pod Stárkou,36/4,50.0574175,14.4512911
175,GLS Parcel Box,534951,Kralupy nad Vltavou,27801,Chmelova,1173,50.2409031,14.3089592
176,GLS Parcel Box,569810,Hradec Králové,50003,Hradecká,1151/9,50.2037992,15.8343306
177,GLS Parcel Box,507016,Hlučín,74801,Pode Zdí,13,49.8975869,18.1871764
178,GLS Parcel Box,589250,Prostějov,79601,Bohumíra Šmerala,3773/19,49.4678372,17.0988653
179,GLS Parcel Box,599051,Bohumín,73581,Bezručova,1084,49.8928719,18.3612336
180,GLS Parcel Box,595209,Žďár nad Sázavou,59101,Bezručova,39/4,49.5759511,15.9384197
181,GLS Parcel Box,584291,Břeclav,69002,J. Palacha,3197,48.7562669,16.8895033
182,GLS Parcel Box,582786,Brno,63800,Halasovo náměstí,826/7,49.2231764,16.6247056
183,GLS Parcel Box,554821,Ostrava,70030,Závodní,1587/45,49.7942825,18.2651822
184,GLS Parcel Box,581186,Vysoké Mýto,56601,Kapitána Poplera,34,49.9540431,16.1647681
185,GLS Parcel Box,554782,Praha,16000,Na Rozdílu,1/752,50.0956436,14.3641556
186,GLS Parcel Box,589250,Prostějov,79601,Petrské náměstí,4367/8c,49.4695839,17.1198044
187,GLS Parcel Box,554782,Praha,19800,Poděbradská,489/116,50.1053194,14.5377586
188,GLS Parcel Box,588296,Kroměříž,76701,Slovanské náměstí,2790/7,49.2909856,17.3952036
189,GLS Parcel Box,582786,Brno,61700,Hněvkovského,701,49.1721286,16.6249236
190,GLS Parcel Box,582786,Brno,62500,U Pošty,402/14,49.1681958,16.5650475
191,GLS Parcel Box,562971,Chomutov,43001,Žižkovo náměstí,5762,50.4608819,13.4153103
192,GLS Parcel Box,589250,Prostějov,79601,Aloise Fišárka,4,49.4771475,17.0912847
193,GLS Parcel Box,568414,Havlíčkův Brod,58001,Žižkova,3329,49.6046133,15.5820614
194,GLS Parcel Box,595209,Žďár nad Sázavou,59101,Jihlavská,1148/16,49.5503897,15.9435097
195,GLS Parcel Box,584291,Břeclav,69001,Na Valtické,718,48.7580933,16.8552972
196,GLS Parcel Box,560286,Sokolov,35601,K. H. Borovského,2171,50.1768842,12.6708281
197,GLS Parcel Box,582786,Brno,62500,Švermova,654,49.1685556,16.5720842
198,GLS Parcel Box,595411,Bystřice nad Pernštejnem,59301,Zahradní,416,49.5246711,16.2595803
199,GLS Parcel Box,529303,Benešov,25601,Čechova,1433,49.7861289,14.6929689
200,GLS Parcel Box,554782,Praha,19000,Podvinný mlýn,1418/2,50.1066167,14.4864664
201,GLS Parcel Box,568414,Havlíčkův Brod,58001,Žižkova,1058,49.6058656,15.598185
202,GLS Parcel Box,554821,Ostrava,70200,Novinářská,3178/6,49.8327336,18.2641572
203,GLS Parcel Box,584002,Tišnov,66601,Za mlýnem,1767,49.3419414,16.4192111
204,GLS Parcel Box,562335,Děčín,40502,Ústecká,1905/8,50.7703375,14.2054456
205,GLS Parcel Box,554481,Cheb,35002,Pražská,2494/15,50.0820317,12.3790244
206,GLS Parcel Box,598003,Frýdek-Místek,73802,Příborská,2270,49.6718258,18.3290775
207,GLS Parcel Box,581372,Boskovice,68001,Chrudichromská,2454/3,49.4924194,16.648755
208,GLS Parcel Box,571164,Chrudim,53701,Dr. Milady Horákové,10,49.9369117,12.3790244
209,GLS Parcel Box,555771,Klatovy,33901,Domažlická,909,49.3928875,13.2858194
210,GLS Parcel Box,567027,Most,43401,Rudolická,1706/4,50.5106461,13.6512397
211,GLS Parcel Box,534951,Kralupy nad Vltavou,27801,Veltruská,815,50.2531739,14.3177486
212,GLS Parcel Box,552046,Tábor,39002,Soběslavská,3038,49.3971125,14.6845417
213,GLS Parcel Box,558419,Držovice,79607,Konečná,441/25,49.4839117,17.1285783
214,GLS Parcel Box,545058,Valašské Meziříčí,75101,Masarykova,873,49.485135,17.9634658
215,GLS Parcel Box,598003,Frýdek-Místek,73801,Slezská,3505,49.6777581,18.361615
216,GLS Parcel Box,530883,Vlašim,25801,Okružní,1884,49.7002981,14.9069497
217,GLS Parcel Box,549240,Písek,39701,U Hřebčince,2509,49.2963428,14.1616667
218,GLS Parcel Box,547999,Humpolec,39601,Kamarytova,1331,49.5442133,15.3556839
219,GLS Parcel Box,511382,Přerov,75002,Tovární,2904/7,49.4445619,17.4510578
220,GLS Parcel Box,562971,Chomutov,43003,Jiráskova,4170,50.4702306,13.3982103
221,GLS Parcel Box,554782,Praha,18000,Pivovarnická,166/17,50.1099369,14.4770681
222,GLS Parcel Box,547999,Humpolec,39601,Nerudova,234,49.5450853,15.3526247
223,GLS Parcel Box,590266,Třebíč,67401,Znojemská,1235/29,49.20625661,15.88640557
224,GLS Parcel Box,588491,Hulín,76824,Višňovce,1215,49.3188239,17.4769017
225,GLS Parcel Box,532053,Kladno,27201,Americká,3321,50.12872631,14.11632994
226,GLS Parcel Box,554821,Ostrava,70300,Jugoslávská,3038/40a,49.8049003,18.2407175
227,GLS Parcel Box,532053,Kladno,27201,Náměstí Sítná,3127,50.1353933,14.1029039
228,GLS Parcel Box,539911,Příbram,26101,Seifertova,524,49.6759,13.9964
229,GLS Parcel Box,579025,Trutnov,54101,Na Struze,30,50.5622556,15.9180447
230,GLS Parcel Box,554821,Ostrava,70030,U Hrůbků,154,49.8078589,18.2319086
231,GLS Parcel Box,581283,Blansko,67801,Poříčí,2610,49.3689497,16.6403497
232,GLS Parcel Box,597180,Bruntál,79201,U Rybníka,1567,49.9834269,17.4593683
233,GLS Parcel Box,534676,Mělník,27601,Bezručova,478/2,50.3496628,14.4882858
234,GLS Parcel Box,534676,Mělník,27601,Vodárenská,219,50.3522556,14.4801461
235,GLS Parcel Box,532053,Kladno,27201,Hřebečská,2732,50.1327397,14.1374708
236,GLS Parcel Box,586846,Jihlava,58601,Nad Plovárnou,4171/18,49.38763,15.6004189
237,GLS Parcel Box,533165,Kolín,28002,Polepská,867,50.0172942,15.2072053
238,GLS Parcel Box,544256,České Budějovice,37005,Dubenská,512/1,48.9804217,14.4362944
239,GLS Parcel Box,554961,Karlovy Vary,36001,U Koupaliště,860/1,50.2380083,12.8518244
240,GLS Parcel Box,588296,Kroměříž,76701,Tovačovského,4423,49.1788423,17.2407082
241,GLS Parcel Box,554821,Ostrava,70900,28. října,258/296,49.8259564,18.2434078
242,GLS Parcel Box,554821,Ostrava,70030,Výškovická,2636/116,49.7905983,18.2277667
243,GLS Parcel Box,563889,Liberec,46001,Londýnská,661,50.7764853,15.0359497
244,GLS Parcel Box,539911,Příbram,26101,Milínská,134,49.6862036,14.0087114
245,GLS Parcel Box,533271,Český Brod,28201,Jana Kouly,1527,50.0752833,14.8643192
246,GLS Parcel Box,595411,Bystřice nad Pernštejnem,59301,Nádražní,1399,49.5184092,16.2596919
247,GLS Parcel Box,599565,Kopřivnice,74221,Nádražní,228/2,49.6048944,18.1480597
248,GLS Parcel Box,554782,Praha,14300,Lysinská,1861/40,50.0135106,14.4104239
249,GLS Parcel Box,585599,Otrokovice,76502,Příčná,1580,49.2037064,17.5382625
250,GLS Parcel Box,584291,Břeclav,69002,Pod Zámkem,3458/2,48.7589025,16.87734
251,GLS Parcel Box,565555,Roudnice nad Labem,41301,Neklanova,2693,50.42454,14.2392811
252,GLS Parcel Box,554499,Aš,35201,Hlavní,1574/104,50.2171406,12.1948589
253,GLS Parcel Box,545058,Valašské Meziříčí,75701,Zašovská,71,49.4759381,17.984685
254,GLS Parcel Box,537683,Poděbrady,29001,U Bažantnice,1506,50.1454847,15.1318167
255,GLS Parcel Box,599191,Nový Jičín,74101,Za potokem,279,49.5902542,17.9873664
256,GLS Parcel Box,500496,Olomouc,77900,Rooseveltova,52,49.5806478,17.2564328
257,GLS Parcel Box,552046,Tábor,39003,Václava Soumara,2300,49.4232544,14.6513975
258,GLS Parcel Box,534676,Mělník,27601,Pražská,4296,50.3422717,14.4899372
259,GLS Parcel Box,554782,Praha,10600,Žirovnická,3133/6,50.0584839,14.4918975
260,GLS Parcel Box,584495,Hustopeče,69301,U Větrolamu,1161,48.9434211,16.7250506
261,GLS Parcel Box,550752,Staré Město,68603,Východní,2260,49.0789369,17.4546522
262,GLS Parcel Box,554782,Praha,10200,Švehlova,32,50.0530919,14.5185047
263,GLS Parcel Box,554782,Praha,14800,Krejnická,2021/1,50.032895,14.4819481
264,GLS Parcel Box,569801,Žižkovo Pole,58222,Žižkovo Pole,9,49.6106933,15.7346664
265,GLS Parcel Box,569593,Štoky,58253,Štoky,324,49.5026375,15.5895019
266,GLS Parcel Box,595926,Křižanov,59451,Na Zahrádkách,575,49.3895503,16.1003558
267,GLS Parcel Box,569780,Ždírec nad Doubravou,58263,Družstevní,571,49.6972097,15.8131533
268,GLS Parcel Box,549576,Milevsko,39901,Blanická,1651,49.4404575,14.3610781
269,GLS Parcel Box,551953,Vodňany,38901,Dr. Hajného,1285,49.1478358,14.1813156
270,GLS Parcel Box,582786,Brno,62800,Trnkova,2482/113,49.1994394,16.6694064
271,GLS Parcel Box,588296,Kroměříž,76701,U Rejdiště,4485/2a,49.2928233,17.4060092
272,GLS Parcel Box,582786,Brno,63900,Vídeňská,815/89a,49.1759097,16.5974492
273,GLS Parcel Box,582786,Brno,62300,Libušina tř.,580/4,49.1971383,16.5337169
274,GLS Parcel Box,554782,Praha,17000,Veletržní 1623/24 (-1P Garáže),1623/24,50.1017364,14.4301956
275,GLS Parcel Box,554821,Ostrava,70200,Poděbradova,3209/58,49.8399269,18.281505
276,GLS Parcel Box,572659,Jičín,50601,Hradecká,1141,50.4354408,15.3691419
277,GLS Parcel Box,592731,Uherský Brod,68801,Rybářská,2481,49.0226033,17.6558256
278,GLS Parcel Box,582786,Brno,63700,Optátova,547/1A,49.2087042,16.5553442
279,GLS Parcel Box,592889,Vyškov,68201,Brněnská,514/13c,49.2726053,16.9925942
280,GLS Parcel Box,544841,Rožnov pod Radhoštěm,75661,Kulturní,1790,49.4656536,18.1367681
281,GLS Parcel Box,555428,Ostrov,36301,Klínovecká,998,50.3061964,12.9493442
282,GLS Parcel Box,539325,Jesenice,25242,Budějovická,1155,49.9707519,14.5071558
283,GLS Parcel Box,585459,Luhačovice,76326,Uherskobrodská,1019,49.0923033,17.7399581
284,GLS Parcel Box,592731,Uherský Brod,68801,Močidla,nan,49.0257747,17.6602708
285,GLS Parcel Box,550787,Strakonice,38601,Tovární,10,49.2515642,13.9115683
286,GLS Parcel Box,554782,Praha,14000,Budějovická,1667/64,50.0434844,14.4492619
287,GLS Parcel Box,511382,Přerov,75124,Dr. Milady Horákové,422/12,49.4655183,17.43854
288,GLS Parcel Box,539643,Řevnice,25230,Mníšecká,500,49.9126892,14.2343342
289,GLS Parcel Box,586846,Jihlava,58601,Demlova,4890,49.4007597,15.6079197
290,GLS Parcel Box,568759,Chotěboř,58301,Březová,272,49.7207714,15.6756422
291,GLS Parcel Box,541354,Zábřeh,78901,Československé armády,2249/24a,49.8784358,16.8828381
292,GLS Parcel Box,511382,Přerov,75002,Malá Dlážka,2895/14,49.4602472,17.4470906
293,GLS Parcel Box,557587,Blovice,33601,Husova,690,49.5802414,13.5395644
294,GLS Parcel Box,590266,Třebíč,67401,Brněnská,148/69,49.2157711,15.8944144
295,GLS Parcel Box,568759,Chotěboř,58301,Břevnická,1584,49.7128853,15.6666847
296,GLS Parcel Box,558109,Nepomuk,33501,Kozlovická,652,49.4815897,13.5849556
297,GLS Parcel Box,588032,Třešť,58901,Revoluční,1298,49.2903225,15.4825669
298,GLS Parcel Box,586307,Kyjov,69701,U sklepů,90/11,49.0084706,17.1319975
299,GLS Parcel Box,554782,Praha,19016,Starokolínská,2716,50.07737,14.6536217
300,GLS Parcel Box,586846,Jihlava,58601,Na Dolech,5438/109,49.4094117,15.5679781
301,GLS Parcel Box,592889,Vyškov,68201,Dědická,547/29,49.2841381,16.9870333
302,GLS Parcel Box,591181,Moravské Budějovice,67602,Mánesova,1500,49.0465017,15.8162358
303,GLS Parcel Box,547336,Třeboň,37901,Boženy Němcové,817,49.0043892,14.7544803
304,GLS Parcel Box,538141,Čestlice,25101,Obchodní,111,50.00395,14.5742792
305,GLS Parcel Box,586846,Jihlava,58601,Březinova,4248,49.4021939,15.6017453
306,GLS Parcel Box,545881,Jindřichův Hradec,37701,Sídliště Vajgar,648,49.14001,15.01797
307,GLS Parcel Box,595209,Žďár nad Sázavou,59101,Okružní,968/79,49.5625531,15.9304153
308,GLS Parcel Box,554782,Praha,13000,Pitterova,2878/5,50.0849911,14.4652911
309,GLS Parcel Box,554782,Praha,14300,Komořanská,2168/48,49.9907194,14.4098336
310,GLS Parcel Box,544485,Hluboká nad Vltavou,37341,Potoční,1635,49.0583161,14.4256703
311,GLS Parcel Box,582786,Brno,62800,Sedláčkova,2557/4,49.2023156,16.6683183
312,GLS Parcel Box,554782,Praha,10000,Tuklatská,2104/5,50.0778664,14.4986953
313,GLS Parcel Box,599344,Frenštát pod Radhoštěm,74401,Břetislava Bartoše,924,49.5447042,18.2154983
314,GLS Parcel Box,555088,Havířov,73601,Dlouhá třída,1228/44C,49.7756494,18.4509011
315,GLS Parcel Box,545171,Trhové Sviny,37401,Tyršovo nábřeží,558,48.8419136,14.6350425
316,GLS Parcel Box,554782,Praha,19700,Mladoboleslavská,1148,50.1296258,14.54185
317,GLS Parcel Box,523704,Šumperk,78701,Gagarinova,2354/12,49.9753994,16.9714972
318,GLS Parcel Box,559717,Rokycany,33701,Nerudovo náměstí,36,49.7425031,13.6013408
319,GLS Parcel Box,586021,Hodonín,69501,Brandlova,4065/143,48.8642186,17.140915
320,GLS Parcel Box,554821,Ostrava,70800,Pavlouskova,4457/24,49.8387719,18.1633772
321,GLS Parcel Box,554821,Ostrava,70800,Oty Synka,1876/8,49.8454906,18.1605817
322,GLS Parcel Box,554821,Ostrava,70030,Horní,288/67,49.7792708,18.2533147
323,GLS Parcel Box,552054,Bechyně,39165,Na Libuši,763,49.3002664,14.4795086
324,GLS Parcel Box,554791,Plzeň,31200,Lazaretní,1179/14,49.7599136,13.4159006
325,GLS Parcel Box,571393,Hlinsko,53901,Budovatelů,1211,49.7650444,15.9183389
326,GLS Parcel Box,571393,Hlinsko,53901,Adámkova třída,729,49.76262,15.91127
327,GLS Parcel Box,555088,Havířov,73601,U Stromovky,1473,49.7870858,18.4223272
328,GLS Parcel Box,554782,Praha,14000,Milevská,922/2,50.0484619,14.4305675
329,GLS Parcel Box,554782,Praha,19600,Všetatská,169,50.1564314,14.5425331
330,GLS Parcel Box,586846,Jihlava,58601,Žižkova,2609/102,49.3950614,15.5712869
331,GLS Parcel Box,587478,Luka nad Jihlavou,58822,Dělnická,nan,49.3774725,15.6987933
332,GLS Parcel Box,546127,Dačice,38001,Pantočkova,nan,49.08033,15.4300825
333,GLS Parcel Box,599051,Bohumín,73581,Čáslavská,243,49.9039742,18.3532761
334,GLS Parcel Box,588024,Telč,58856,Myslibořská,299,49.1853936,15.4650289
335,GLS Parcel Box,580511,Lanškroun,53901,Krátká,561,49.905085,16.6031017
336,GLS Parcel Box,586161,Dubňany,69603,Hodonínská,1668,48.9168331,17.0981083
337,GLS Parcel Box,582786,Brno,60200,Zvonařka,408/16,49.1875189,16.6214722
338,GLS Parcel Box,554782,Praha,14000,Nuselská,20,50.0628122,14.4434936
339,GLS Parcel Box,585068,Zlín,76001,Štefánikova,477,49.224345,17.6901022
340,GLS Parcel Box,555088,Havířov,73601,Jaselská,1197/1,49.7871244,18.4327942
341,GLS Parcel Box,534951,Kralupy nad Vltavou,27801,Libušina ulice,nan,50.2406072,14.3171156
342,GLS Parcel Box,580031,Česká Třebová,56002,Lhotka,205,49.9207956,16.4347253
343,GLS Parcel Box,599565,Kopřivnice,74221,Zdeňka Buriana,1350,49.6021925,18.1328842
344,GLS Parcel Box,594482,Moravský Krumlov,67201,Tiskárenská,1275,49.0378044,16.3078169
345,GLS Parcel Box,582786,Brno,60200,Cejl,875/66,49.1998114,16.6264494
346,GLS Parcel Box,555088,Havířov,73601,Nákupní,520,49.8013075,18.4213136
347,GLS Parcel Box,554782,Praha,10400,Středohorská,549/25,50.0381508,14.5861069
348,GLS Parcel Box,554821,Ostrava,70200,Petra křičky,2863/17a,49.8281464,18.2745156
349,GLS Parcel Box,596116,Měřín,59442,Náměstí,96,49.3936683,15.8830603
350,GLS Parcel Box,554782,Praha,18000,Pod Plynojemem,1274/5,50.0993314,14.4702433
351,GLS Parcel Box,547492,Pelhřimov,39301,Arch. Janáka,1943,49.4348931,15.2148656
352,GLS Parcel Box,591211,Náměšť nad Oslavou,67571,Nádražní,683,49.2068903,16.1513867
353,GLS Parcel Box,534633,Zruč nad Sázavou,28522,Nám. Míru,594,49.7433797,15.0895083
354,GLS Parcel Box,599069,Orlová,73514,Osvobození,1311,49.8725292,18.428195
355,GLS Parcel Box,554782,Praha,14900,Ke Kateřinkám,2423/2a,50.0225119,14.5180625
356,GLS Parcel Box,555088,Havířov,73601,Lidická,886/43,49.7992606,18.4004656
357,GLS Parcel Box,554804,Ústí nad Labem,40003,Novosedlické náměstí,1,50.64958,14.0598
358,GLS Parcel Box,554804,Ústí nad Labem,40003,Slovenského národního povstání,2451/41,50.6679681,14.0408683
359,GLS Parcel Box,554804,Ústí nad Labem,40011,Šrámkova,3218/22,50.6745492,14.0575553
360,GLS Parcel Box,554804,Ústí nad Labem,40003,Mírová,2700/8,50.6823444,14.0269294
361,GLS Parcel Box,533165,Kolín,28002,Pražská,302,50.029445,15.1904114
362,GLS Parcel Box,533955,Kutná Hora,28401,Masarykova,96/34,49.9551856,15.2785039
363,GLS Parcel Box,550850,Blatná,38801,B. Němcové,519,49.4317128,13.8840283
364,GLS Parcel Box,569810,Hradec Králové,50341,K Zastávce,46/2,50.2281931,15.8362233
365,GLS Parcel Box,592048,Bojkovice,68771,Palackého,173,49.0385108,17.8155575
366,GLS Parcel Box,580511,Lanškroun,53901,Seifertova,387,49.9152911,16.6112742
367,GLS Parcel Box,599808,Příbor,74258,Místecká,1119,49.6421714,18.1494553
368,GLS Parcel Box,568414,Havlíčkův Brod,58001,B. Kobzinové,2020,49.6112036,15.5784953
369,GLS Parcel Box,553131,Soběslav,39201,Obchodní,878,49.2636678,14.7113244
370,GLS Parcel Box,598259,Jablunkov,73991,Bukovecká,106,49.5772142,18.7661997
371,GLS Parcel Box,599191,Nový Jičín,74101,Vančurova,702,49.5970692,18.0032983
372,GLS Parcel Box,588458,Holešov,76901,Novosady,1585,49.3314169,17.5682075
373,GLS Parcel Box,558371,Starý Plzenec,33202,Smetanova,888,49.6973164,13.4748422
374,GLS Parcel Box,588393,Bystřice pod Hostýnem,76861,Školní,1301,49.4007333,17.6816408
375,GLS Parcel Box,567256,Litvínov,43601,Valdštejnská,2117,50.6034242,13.6098319
376,GLS Parcel Box,554782,Praha,18200,Trousilova,1064/4,50.1271944,14.4505383
377,GLS Parcel Box,598798,Šenov,73934,Těšínská,1154,49.7942881,18.3698114
378,GLS Parcel Box,554791,Plzeň,32300,U Velkého rybníka,2299/27,49.7707463,13.3979421
379,GLS Parcel Box,582786,Brno,61500,Viniční,4049/235,49.19807,16.6564019
380,GLS Parcel Box,599107,Rychvald,73532,Bohumínská,1855,49.8690547,18.3743047
381,GLS Parcel Box,577731,Svitavy,56802,Mýtní,657/6,49.7479553,16.4743269
382,GLS Parcel Box,599921,Studénka,74213,Poštovní,822,49.7152689,18.0502656
383,GLS Parcel Box,567639,Krupka,41741,Bohosudovská,603,50.6810775,13.8662447
384,GLS Parcel Box,585599,Otrokovice,76502,Třída Tomáše Bati,1619,49.2173661,17.5160608
385,GLS Parcel Box,585513,Napajedla,76361,Nábřeží,1357,49.1777086,17.5169189
386,GLS Parcel Box,553069,Sezimovo Ústí,39102,Rudé armády,1078,49.3765653,14.7002811
387,GLS Parcel Box,554782,Praha,19300,Náchodská,121/218,50.1177575,14.6278361
388,GLS Parcel Box,553271,Veselí nad Lužnicí,39181,Tř. Československé Armády 609,609,49.1972828,14.7166869
389,GLS Parcel Box,578576,Polička,57201,Luční,370,49.7157417,16.2592958
390,GLS Parcel Box,554791,Plzeň,32600,Nepomucká,53/118,49.7124903,13.41123
391,GLS Parcel Box,563889,Liberec,46001,Náměstí Tržní,nan,50.774111,15.060722
392,GLS Parcel Box,562882,Varnsdorf,40747,Kmochova,2369,50.9074128,14.6194314
393,GLS Parcel Box,588458,Holešov,76901,Obchodní galerie - ulice Tovární,511,49.3278731,17.5739181
394,GLS Parcel Box,567027,Most,43401,Česká,1077/18,50.4875022,13.6503494
395,GLS Parcel Box,554782,Praha,15000,Brožíkova,247/3,50.0714414,14.3881158
396,GLS Parcel Box,598810,Třinec,73961,Staré město,1019,49.6713881,18.6695208
397,GLS Parcel Box,554782,Praha,10000,Třebohostická,564/9,50.076138,14.511201
398,GLS Parcel Box,550787,Strakonice,38601,Mírová,43,49.2639047,13.8953283
399,GLS Parcel Box,567027,Most,43401,Růžová,1426,50.4955983,13.6520575
400,GLS Parcel Box,554961,Karlovy Vary,36017,Nové Domky,655/1,50.2426769,12.8307167
401,GLS Parcel Box,560715,Tachov,34701,Zámecká,2076,49.7969283,12.631045
402,GLS Parcel Box,545562,Kaplice,38241,Českobudějovická,335,48.74048,14.49113
403,GLS Parcel Box,554804,Ústí nad Labem,40011,Hornická,2515/11,50.6727703,14.0284217
404,GLS Parcel Box,554782,Praha,14900,Brandlova,1599/8,50.0328458,14.5179208
405,GLS Parcel Box,562335,Děčín,40711,Studniční,415,50.7412542,14.1923656
406,GLS Parcel Box,582786,Brno,61800,Olomoucká,3419/9,49.1904769,16.6332292
407,GLS Parcel Box,505927,Opava,74601,Hradecká,2594/3,49.9344967,17.9020675
408,GLS Parcel Box,564567,Litoměřice,41201,Dvořákova,959/1,50.5360425,14.13391
409,GLS Parcel Box,562777,Rumburk,40801,Františka Nohy,1096,50.9520253,14.5556536
410,GLS Parcel Box,592889,Vyškov,68201,Palánek,476/75,49.2753667,17.0006439
411,GLS Parcel Box,579858,Vrchlabí,54301,Nerudova,1273,50.6181311,15.6146986
412,GLS Parcel Box,565971,Louny,44001,Osvoboditelů,2649,50.3553161,13.8010375
413,GLS Parcel Box,582786,Brno,61500,Bubeníčkova (stará osada),nan,49.2017761,16.6414886
414,GLS Parcel Box,550094,Prachatice,38301,Pivovarská,284,49.0151575,13.9989181
415,GLS Parcel Box,576859,Týniště nad Orlicí,51721,Mostecká,1063,50.1484789,16.0680589
416,GLS Parcel Box,567451,Bílina,41801,Sídliště za Chlumem,914,50.5524233,13.7883472
417,GLS Parcel Box,567256,Litvínov,43601,Náměstí Míru,13,50.5985431,13.6104178
418,GLS Parcel Box,567451,Bílina,41801,"Aléská 269, Pražské předměstí",269,50.5421606,13.7769767
419,GLS Parcel Box,554821,Ostrava,70030,Lužická,590/2,49.7771239,18.220225
420,GLS Parcel Box,578347,Litomyšl,57001,Sokolovská 113,113,49.8808381,16.292915
421,GLS Parcel Box,585751,Slavičín,76321,Nádražní,170,49.0753389,17.9007992
422,GLS Parcel Box,599158,Těrlicko,73542,Promenádní,280/18,49.7533378,18.4910331
423,GLS Parcel Box,523704,Šumperk,78701,Šumavská,3152/19,49.9707844,16.9711061
424,GLS Parcel box,566985,Žatec,43801,Dukelská,2439,50.32073,13.5526506
425,GLS Parcel Box,567256,Litvínov,43542,Hamerská,259,50.5927439,13.5709003
426,GLS Parcel Box,562335,Děčín,40502,Sofijská,2/3,50.77065,14.1922
427,GLS Parcel Box,554782,Praha,18000,"Myčka Vosmíkových, u ulice Na Dědince",817/9,50.1144528,14.4718158
428,GLS Parcel Box,537004,Nymburk,28802,Sadová,2167,50.1912733,15.029835
429,GLS Parcel Box,554821,Ostrava,70030,Zimmlerova,2907/36,49.8112081,18.2327094
430,GLS Parcel Box,560286,Sokolov,35601,Kališnická,2250,50.1723453,12.6448358
431,GLS Parcel Box,560286,Sokolov,35601,Marie Majerové,2193,50.1750178,12.66966
432,GLS Parcel Box,560286,Sokolov,35601,Karla Havlíčka Borovského,575,50.1791506,12.65047
433,GLS Parcel Box,563102,Kadaň,43201,Husova,1336,50.3884433,13.2694214
434,GLS Parcel Box,554782,Praha,15000,Xaveriova,3369/2,50.0640114,14.3981106
435,GLS Parcel Box,535419,Mladá Boleslav,29301,Na Radouči,1451,50.4337692,14.9077242
436,GLS Parcel Box,567442,Teplice,41501,Trnovanská,1269,50.6498506,13.8538328
437,GLS Parcel Box,544841,Rožnov pod Radhoštěm,75661,Meziříčská,3017,49.4601344,18.1275739
438,GLS Parcel Box,587958,Střítež,58811,Střítež,51,49.4571461,15.6278681
439,GLS Parcel Box,554821,Ostrava,70030,Klegova,771/19,49.7883839,18.2665164
440,GLS Parcel Box,554821,Ostrava,70030,Mjr. Nováka,1297/23,49.7824656,18.2656183
441,GLS Parcel Box,567451,Bílina,41801,Nábřeží,469,50.5532344,13.7725486
442,GLS Parcel Box,567027,Most,43401,Mostecká,3,50.4889244,13.6717736
443,GLS Parcel Box,565971,Louny,44001,Náměstí Benedikta Rejta,2301,50.3587728,13.7878408
444,GLS Parcel Box,540471,Mohelnice,78985,Náměstí Tyrše a Fügnera,11/6,49.7770408,16.9222164
445,GLS Parcel Box,559300,Nýřany,33023,křížení ulic Nová a Antonína Uxy,1133,49.7134261,13.2129706
446,GLS Parcel Box,553654,Holýšov,34562,Táborová,528,49.5926906,13.1071903
447,GLS Parcel Box,554529,Františkovy Lázně,35101,Májová,355/22,50.1266781,12.3409706
448,GLS Parcel Box,560383,Chodov,35735,U Porcelánky,266,50.234235,12.7468964
449,GLS Parcel Box,554782,Praha,19800,Breitcetlova,771/6,50.1051253,14.573585
450,GLS Parcel Box,581372,Boskovice,68001,Na Vyhlídce,1595/8,49.4877058,16.6672572
451,GLS Parcel Box,581283,Blansko,67801,Náměstí Míru,1481/1,49.3588783,16.6495797
452,GLS Parcel Box,541656,Rakovník,26901,Plzeňská,2809,50.0909333,13.7256103
453,GLS Parcel Box,553786,Kdyně,34506,Dělnická,489,49.393455,13.0401828
454,GLS Parcel Box,582786,Brno,61200,Palackého třída,1891/162,49.2319261,16.5904061
455,GLS Parcel Box,547492,Pelhřimov,39301,Táborská,2413,49.4385933,15.2085478
456,GLS Parcel Box,582786,Brno,64100,Sentická,1848,49.2204269,16.4951794
457,GLS Parcel Box,580031,Česká Třebová,56002,Dr. E. Beneše,643,49.9117356,16.4379769
458,GLS Parcel Box,562882,Varnsdorf,40747,Karlova,3318,50.9023036,14.6278997
459,GLS Parcel Box,554499,Aš,35201,Rybniční,2742,50.2208972,12.1908847
460,GLS Parcel Box,513750,Hranice,75301,Třída 1. Máje,1781,49.5551558,17.7356617
461,GLS Parcel Box,535443,Bělá pod Bezdězem,29421,Paninodvorská,1010,50.4913003,14.8303844
462,GLS Parcel Box,554961,Karlovy Vary,36001,Úvalská,619/30,50.2372667,12.8912486
463,GLS Parcel Box,554821,Ostrava,70030,Václava Jiříkovského,228/11,49.7739908,18.2530647
464,GLS Parcel Box,554821,Ostrava,70030,Dr. Martínka,1656/2,49.7827575,18.2602186
465,GLS Parcel Box,545201,Týn nad Vltavou,37501,Orlická,400,49.2189828,14.4169103
466,GLS Parcel Box,560359,Habartov,35709,Čs. Armády,811,50.1833011,12.5506178
467,GLS Parcel Box,564567,Litoměřice,41201,Českolipská,917/6,50.5371972,14.1520642
468,GLS Parcel Box,567311,Meziboří,43513,Náměstí 8. května,394,50.6195217,13.604195
469,GLS Parcel Box,585114,Brumov-Bylnice,76331,Široká,147,49.0786608,18.0178017
470,GLS Parcel Box,554821,Ostrava,72200,Sjízdná,5554/2,49.8273828,18.2012058
471,GLS Parcel Box,554791,Plzeň,30100,Radčická,2861/2,49.7490953,13.3693364
472,GLS Parcel Box,599069,Orlová,73514,Okružní,1440,49.8781522,18.4327378
473,GLS Parcel Box,513750,Hranice,75301,Nová,1821,49.5591447,17.7479536
474,GLS Parcel Box,503444,Litovel,78401,"sídliště Uničovská, před objektem č.p.",1294/1A,49.7088208,17.0744561
475,GLS Parcel Box,569569,Světlá nad Sázavou,58291,Sázavská,1276,49.6660556,15.3945519
476,GLS Parcel Box,593711,Znojmo,66902,MUDr. Jana Janského,2870/9,48.8693083,16.0492392
477,GLS Parcel Box,581682,Jedovnice,67906,Havlíčkovo náměstí,572,49.3420397,16.7526242
478,GLS Parcel Box,554782,Praha,14000,Duhová 1531/3 (zadní strana parkoviště),1531/3,50.0492153,14.4508275
479,GLS Parcel Box,554782,Praha,15300,Vrážská,1507,49.9853769,14.3653181
480,GLS Parcel Box,539333,Jílové u Prahy,25401,Pražská,256,49.9063386,14.49303
481,GLS Parcel Box,545392,Český Krumlov,38101,Na Svahu,277,48.8194244,14.3160144
482,GLS Parcel Box,535087,Neratovice,27711,Kpt. Jaroše,235/32,50.2576906,14.5219806
483,GLS Parcel Box,583588,Oslavany,66412,Hlavní,1131/86,49.1212839,16.3354219
484,GLS Parcel Box,599069,Orlová,73514,Ke Studánce,1193,49.8688314,18.4193369
485,GLS Parcel Box,584801,Pohořelice,69123,Znojemská,1149,48.9774981,16.5017572
486,GLS Parcel Box,567027,Most,43401,Táboritů,2180/8,50.5110444,13.6374478
487,GLS Parcel Box,597180,Bruntál,79201,Jesenická,47/719,49.9906236,17.4585047
488,GLS Parcel Box,541630,Vsetín,75501,Okružní,200,49.3324731,17.9895369
489,GLS Parcel Box,560383,Chodov,35735,Čapkova,787,50.2445019,12.7459097
490,GLS Parcel Box,563102,Kadaň,43201,Jiráskova,1367,50.3771114,13.2674686
491,GLS Parcel Box,555380,Nejdek,36222,Karlovarská,631,50.3194208,12.7408164
492,GLS Parcel Box,560715,Tachov,34701,Bělojarská,1603,49.8010214,12.6426747
493,GLS Parcel Box,582786,Brno,63500,Foltýnova,998/1,49.2170128,16.5094503
494,GLS Parcel Box,555134,Pardubice,53002,Stanislava Kostky Neumanna,2869,50.0268744,15.7792008
495,GLS Parcel Box,561380,Česká Lípa,47001,Na Blatech - automyčka DIBO,nan,50.6879072,14.5192936
496,GLS Parcel Box,573922,Broumov,55001,Větrná,228,50.5798144,16.3277517
497,GLS Parcel Box,554804,Ústí nad Labem,40011,Sociální Péče,3256/14,50.6817486,14.0212925
498,GLS Parcel Box,573990,Česká Skalice,55203,28. Října,377,50.3927997,16.0474131
499,GLS Parcel Box,540111,Dobříš,26301,Rukavičkářská,871,49.7909622,14.1781228
500,GLS Parcel Box,540111,Dobříš,26301,Mírové náměstí,1581,49.7825,14.1722
501,GLS Parcel Box,579891,Ústí nad Orlicí,56201,17. listopadu,70,49.9743419,16.3984711
502,GLS Parcel Box,554782,Praha,10000,Nad Kapličkou,3324/15,50.0837931,14.4897633
503,GLS Parcel Box,578444,Moravská Třebová,57101,Holandská,1411/11,49.7586158,16.6494067
504,GLS Parcel Box,599344,Frenštát pod Radhoštěm,74401,Školská čtvrť,1359,49.5414642,18.2063736
505,GLS Parcel Box,573868,Náchod,54701,Mlýnská,nan,50.4141931,16.1622767
506,GLS Parcel Box,554821,Ostrava,70300,U Nádraží,1155/25,49.8009161,18.2641114
507,GLS Parcel Box,554642,Mariánské Lázně,35301,Žižkova,403,49.9606989,12.6955278
508,GLS Parcel Box,555771,Klatovy,33901,K Letišti,385,49.4053828,13.2951494
509,GLS Parcel Box,555771,Klatovy,33901,Planická,153,49.3961586,13.3095347
510,GLS Parcel Box,599051,Bohumín,73581,9. května,1194,49.8996533,18.3513044
511,GLS Parcel Box,583251,Kuřim,66434,Tyršova,2048/43,49.2968472,16.549305
512,GLS Parcel Box,599247,Bílovec,74301,Opavská,1159/57,49.7576022,18.0004856
513,GLS Parcel Box,538728,Říčany,25101,Plk. Švece,188,49.9973761,14.67413
514,GLS Parcel Box,572926,Hořice,50801,Škroupova (vedle jednoty),nan,50.3676658,15.6353672
515,GLS Parcel Box,583120,Ivančice,66491,Oslavanská,1597/118,49.1036383,16.3643492
516,GLS Parcel Box,588296,Kroměříž,76701,Albertova,3264/31,49.2925544,17.3826111
517,GLS Parcel Box,560472,Kraslice,35801,5. května,1925/1925,50.3284156,12.5089514
518,GLS Parcel Box,555428,Ostrov,36301,Družební,995,50.3085228,12.9429197
519,GLS Parcel Box,576069,Rychnov nad Kněžnou,51601,Zborovská 17,17,50.1634172,16.2788328
520,GLS Parcel Box,554782,Praha,14100,Žilinská,5,50.0476461,14.4743986
521,GLS Parcel Box,554821,Ostrava,71200,Švédská,763/43,49.8515119,18.3028464
522,GLS Parcel Box,561380,Česká Lípa,47001,Antonína Sovy,2119,50.6903839,14.5263508
523,GLS Parcel Box,586722,Veselí nad Moravou,69801,Chaloupky,1755,48.9544311,17.3854481
524,GLS Parcel Box,554961,Karlovy Vary,36007,Studentská,312/65,50.2094192,12.8262397
525,GLS Parcel Box,571164,Chrudim,53701,Husova,300,49.9503464,15.7905439
526,GLS Parcel Box,574279,Nové Město nad Metují,54901,Malecí,578,50.3568411,16.1471275
527,GLS Parcel Box,592005,Uherské Hradiště,68605,Větrná,1017,49.0601061,17.4778783
528,GLS Parcel Box,579203,Dvůr Králové nad Labem,54401,Erbenova,2928,50.4286283,15.8156661
529,GLS Parcel Box,596973,Velká Bíteš,59501,Vlkovská,608,49.296471,16.219092
530,GLS Parcel Box,587711,Polná,58813,Palackého,1211,49.4856733,15.7311508
531,GLS Parcel Box,557153,Sušice,34201,Lerchova,60,49.233695,13.5203139
532,GLS Parcel box,562335,Děčín,40502,Kamenická,642/103,50.7807733,14.2317347
533,GLS Parcel Box,505188,Šternberk,78501,Nádražní,8,49.7239811,17.2920228
534,GLS Parcel Box,548511,Pacov,39470,Sídliště Míru,1067,49.4654214,15.0066969
535,GLS Parcel Box,563129,Klášterec nad Ohří,43151,Václava Řezáče,76,50.3849861,13.1938547
536,GLS Parcel Box,562335,Děčín,40502,Slovanská,1460/65,50.7730436,14.1855075
537,GLS Parcel Box,586587,Strážnice,69662,Kostelní,1407,48.9003886,17.3148236
538,GLS Parcel Box,567442,Teplice,41501,Průřezná,298,50.6328081,13.8437567
539,GLS Parcel Box,505188,Šternberk,78501,Uničovská,2242/100,49.7262728,17.2850611
540,GLS Parcel Box,593559,Rousínov,68301,U Mlýna,1150/1a,49.2051925,16.8836269
541,GLS Parcel Box,538094,Brandýs nad Labem-Stará Boleslav,25001,Kostelecká,1529,50.1898753,14.6496594
542,GLS Parcel Box,576964,Semily,51301,Bavlnářská,540,50.61035,15.3243331
543,GLS Parcel Box,557153,Sušice,34201,Nádražní,1375,49.2374678,13.5244817
544,GLS Parcel Box,544256,České Budějovice,37005,M. Chlajna,1448,48.9860253,14.4353881
545,GLS Parcel Box,593583,Slavkov u Brna,68401,Špitálská,1853,49.1505931,16.8675133
546,GLS Parcel Box,567442,Teplice,41501,Duchcovská,3132,50.6363239,13.8160847
547,GLS Parcel Box,563129,Klášterec nad Ohří,43151,Budovatelská,645,50.3880747,13.1756572
548,GLS Parcel Box,567442,Teplice,41501,Generála Svobody,1461,50.6570903,13.8384256
549,GLS Parcel Box,554782,Praha,14700,Ke Krči - zastávka autobusu Branické náměstí,nan,50.0346669,14.4145689
550,GLS Parcel Box,551953,Vodňany,38901,Výstavní,1043,49.1422347,14.1755208
551,GLS Parcel Box,561215,Stříbro,34901,Gagarinova,1345,49.7589944,13.0066422
552,GLS Parcel Box,562335,Děčín,40502,Želenická,1297/39,50.7586097,14.187695
553,GLS Parcel Box,560499,Kynšperk nad Ohří,35751,Náměstí SNP,387,50.1153003,12.5331664
554,GLS Parcel Box,571385,Heřmanův Městec,53803,V Lukách,927,49.9498758,15.6683275
555,GLS Parcel Box,579891,Ústí nad Orlicí,56206,Letohradská,1358,49.9787453,16.4052831
556,GLS Parcel Box,566985,Žatec,43801,Stavbařů,2811,50.3151869,13.5435075
557,GLS Parcel box,582786,Brno,63800,Loosova,262,49.2321772,16.6180489
558,GLS Parcel Box,586765,Vracov,69642,Bzenecká,265,48.9797378,17.2249886
559,GLS Parcel Box,507016,Hlučín,74801,Rovniny,842/34,49.8934528,18.2017869
560,GLS Parcel Box,585599,Otrokovice,76502,Jana Žižky,1930,49.2105158,17.5341819
561,GLS Parcel Box,532819,Slaný,27401,Ouvalova,824,50.2284406,14.0906819
562,GLS Parcel Box,541281,Sedlčany,26401,Na Potůčku,38,49.6572208,14.4239036
563,GLS Parcel Box,537683,Poděbrady,29001,Poděbradská,240,50.16076,15.1012108
564,GLS Parcel Box,582786,Brno,62100,Hradecká,408/40,49.2609,16.5793636
565,GLS Parcel Box,554804,Ústí nad Labem,40011,Krušnohorská,3371/2,50.6783008,14.0364533
566,GLS Parcel Box,571776,Luže,53854,Husova,247,49.8942853,16.0239586
567,GLS Parcel Box,581917,Letovice,67961,Albína Krejčího,876/2A,49.5445317,16.5816931
568,GLS Parcel Box,582786,Brno,62100,Žitná,1765/17,49.2390925,16.5876542
569,GLS Parcel Box,562564,Jílové,40701,Sněžnická,209,50.7634617,14.1071514
570,GLS Parcel Box,529303,Benešov,25601,Nádražní,2105,49.7774278,14.6849097
571,GLS Parcel Box,556254,Horažďovice,34101,Okružní,1172,49.3254522,13.7090806
572,GLS Parcel Box,511021,Vítkov,74901,Lidická,1008,49.7751067,17.7527092
573,GLS Parcel Box,582786,Brno,61200,Dobrovského,23,49.2193783,16.5931628
574,GLS Parcel Box,581291,Adamov,67904,Nádražní,42,49.3005419,16.6515311
575,GLS Parcel Box,582786,Brno,62000,Podlipná,7/16,49.1478164,16.6656342
576,GLS Parcel box,570826,Kosmonosy,29306,Pod koupalištěm,901,50.4411756,14.9204622
577,GLS Parcel Box,585939,Vizovice,76312,Zlínská,1363,49.2183214,17.8472867
578,GLS Parcel Box,538574,Odolena Voda,25070,Pod Tvrzí,48,50.2342633,14.4125675
579,GLS Parcel box,541656,Rakovník,26901,Dukelských hrdinů,2078,50.1056467,13.7236886
580,GLS Parcel Box,599701,Odry,74235,Skřivánčí,777/24,49.6645053,17.8378581
581,GLS Parcel Box,554821,Ostrava,71000,Bohumínská,"452/50, 710 00 Ostrava",49.8436878,18.2954633
582,GLS Parcel Box,586722,Veselí nad Moravou,69801,Hutník,1489,48.9539806,17.3943775
583,GLS Parcel box,566616,Podbořany,44101,Žatecká,1052,50.2343483,13.413975
584,GLS Parcel Box,554782,Praha,19012,Českobrodská,920,50.0849567,14.5793017
585,GLS Parcel Box,586081,Bzenec,69681,Vracovská,1578,48.9737678,17.2598478
586,GLS Parcel Box,540765,Mníšek pod Brdy,25210,Pražská,1634,49.8681561,14.2677258
587,GLS Parcel Box,592943,Bučovice,68501,Nádražní,320,49.1470222,17.0026322
588,GLS Parcel Box,554791,Plzeň,30100,Soukenická,690/5,49.7397964,13.3726486
589,GLS Parcel Box,559521,Třemošná,33011,Plzeňská,1084,49.8155947,13.3951139
590,GLS Parcel Box,539139,Černošice,25228,Fügnerova,1244,49.9593153,14.3185169
591,GLS Parcel Box,539244,Hostivice,25301,Litovická,1233,50.0809533,14.2497192
592,GLS Parcel Box,560367,Horní Slavkov,35731,Dlouhá,906,50.1384106,12.7992722
593,GLS Parcel Box,558249,Přeštice,33401,5. května,1077,49.5720736,13.3274181
594,GLS Parcel Box,560537,Loket,35733,Nádražní,583,50.1923081,12.7490981
595,GLS Parcel Box,567442,Teplice,41501,Doubravická,1693/9,50.64425,13.8579942
596,GLS Parcel Box,554791,Plzeň,31200,Třešňová,931/36,49.7516467,13.4201497
597,GLS Parcel Box,598810,Třinec,73961,Dukelská,1137,49.6662419,18.6778703
598,GLS Parcel Box,567442,Teplice,41501,Javorová,3121,50.6240694,13.8195094
599,GLS Parcel Box,558249,Přeštice,33401,Dukelská,940,49.5777661,13.3249458
600,GLS Parcel Box,558885,Horní Bříza,33012,Třída 1. máje,492,49.8432822,13.3617497
601,GLS Parcel Box,598917,Karviná,73301,Tř. 17. listopadu,23/2,49.8563608,18.5406872
602,GLS Parcel Box,563889,Liberec,46311,Zámecký vrch,1170,50.74514,15.0948917
603,GLS Parcel Box,563889,Liberec,46001,Vrchlického,390,50.78585,15.06323
604,GLS Parcel Box,597520,Krnov,79401,Albrechtická,1666/120,50.097,17.6808853
605,GLS Parcel Box,554821,Ostrava,70800,Generála Sochora,1379/6,49.8341522,18.1812558
606,GLS Parcel Box,576590,Opočno,51773,Mírová,650,50.2714531,16.1125783
607,GLS Parcel Box,574988,Holice,53401,Hradecká,1265,50.0726058,15.9829606
608,GLS Parcel Box,575640,Sezemice,53304,Masarykova,134,50.0665742,15.8531078
609,GLS Parcel Box,531057,Beroun,26601,Drašarova,1451,49.9675042,14.0647131
610,GLS Parcel Box,532011,Zdice,26751,Žižkova,91,49.9156456,13.9802497
611,GLS Parcel Box,555088,Havířov,73601,Mládežnická,1575/8,49.7793878,18.456095
612,GLS Parcel Box,539911,Příbram,26101,"parkoviště Drkolnov, naproti ulici slunná",392,49.6731506,13.98126
613,GLS Parcel Box,554791,Plzeň,30100,K Zelené louce,90/10,49.71056,13.32914
614,GLS Parcel Box,539911,Příbram,26101,parkoviště Fialka naproti Brodská,132,49.6700489,13.9951061
615,GLS Parcel Box,583391,Modřice,66442,U Dálnice,777,49.1386369,16.6339544
616,GLS Parcel Box,554782,Praha,19800,Laponská,1160/4,50.1080653,14.5257311
617,GLS Parcel Box,554782,Praha,19000,Čerpadlová,1034/2b,50.101105,14.5076667
618,GLS Parcel Box,505587,Uničov,78391,Dukelská,828,49.7700344,17.1161147
619,GLS Parcel Box,563099,Jirkov,43111,K. Marxe,1691,50.5051375,13.4376069
620,GLS Parcel Box,573922,Broumov,55001,Masarykova třída,235,50.5895522,16.3268053
621,GLS Parcel Box,503444,Litovel,78401,Nám. Př. Otakara,793/7,49.7010097,17.0759056
622,GLS Parcel Box,598968,Dolní Lutyně,73553,K Výšině,74,49.8985667,18.4291489
623,GLS Parcel Box,576271,Dobruška,51801,Domašínská,358,50.2926533,16.1647997
624,GLS Parcel Box,545830,Větřní,38211,Papírenská,2,48.7798061,14.2976844
625,GLS Parcel Box,586846,Jihlava,58601,Vrchlického,4630/59,49.3980042,15.5713486
626,GLS Parcel Box,598941,Dětmarovice,73571,Dětmarovice,1150,49.8847072,18.4752381
627,GLS Parcel Box,592617,Strání,68765,U Třicátku,166,48.9008839,17.7080336
628,GLS Parcel Box,566624,Postoloprty,43942,Jiráskovo náměstí,620,50.3619667,13.6979858
629,GLS Parcel Box,554804,Ústí nad Labem,40001,Klíšská,1013/175,50.6686981,14.0167589
630,GLS Parcel Box,566616,Podbořany,44101,Vroutecká,1210,50.2238811,13.4030403
631,GLS Parcel Box,564028,Frýdlant,46401,Automyčka JOMI Fügnerova,nan,50.9230908,15.0861436
632,GLS Parcel Box,554821,Ostrava,71200,Vančurova,968/9,49.8582575,18.2918792
633,GLS Parcel Box,537004,Nymburk,28802,Náměstí Přemyslovců,166/17,50.1857817,15.0404325
634,GLS Parcel Box,554782,Praha,15000,Na Farkáně IV,258/48,50.0586831,14.3805269
635,GLS Parcel Box,592889,Vyškov,68201,Puškinova,409/63,49.2765314,16.9830333
636,GLS Parcel Box,556831,Nýrsko,34022,Havlíčkova,474,49.2896147,13.1359831
637,GLS Parcel Box,567027,Most,43401,Dělnická,209,50.4839114,13.6450342
638,GLS Parcel Box,567027,Most,43401,Tř. Budovatelů,2923/166,50.4929753,13.6348214
639,GLS Parcel Box,553671,Horšovský Týn,34601,U Garáží,259,49.5295969,12.931485
640,GLS Parcel Box,568988,Ledeč nad Sázavou,58401,Husovo náměstí,52,49.6943856,15.2750086
641,GLS Parcel Box,577197,Jilemnice,51401,Roztocká,323,50.6044981,15.5094481
642,GLS Parcel Box,531723,Rudná,25219,Hořelické náměstí,1130/5,50.0263764,14.2241831
643,GLS Parcel Box,582786,Brno,64300,Pěkná,646/51,49.1302017,16.6543553
644,GLS Parcel Box,581917,Letovice,67961,Českobratrská,4a,49.547925,16.5754986
645,GLS Parcel Box,573248,Nová Paka,50901,Na Tržišti 23,23,50.49403,15.5152133
646,GLS Parcel Box,584100,Veverská Bítýška,66471,Boční,620,49.2770764,16.4353072
647,GLS Parcel Box,586021,Hodonín,69501,Masarykovo náměstí,257/16,48.8502111,17.1292389
648,GLS Parcel Box,554782,Praha,14800,Babákova,2390/2,50.0362739,14.48728
649,GLS Parcel Box,546798,Nová Bystřice,37833,Švermova,288,49.0226247,15.1058192
650,GLS Parcel Box,545341,Zliv,37344,Nádražní,719,49.0653344,14.3631492
651,GLS Parcel Box,583758,Rajhrad,66461,Dobrovského,15,49.0880047,16.5992569
652,GLS Parcel Box,579777,Úpice,54232,Dr. A. Hejný,1084,50.5137889,16.0161022
653,GLS Parcel Box,563099,Jirkov,43111,Mládežnická,1596,50.50005,13.4311194
654,GLS Parcel Box,567256,Litvínov,43601,Podkrušnohorská,1711,50.6082258,13.6260847
655,GLS Parcel Box,554791,Plzeň,32200,Chebská,589/30,49.7562964,13.3071097
656,GLS Parcel Box,560600,Rotava,35701,Sídliště,648,50.3052408,12.5520267
657,GLS Parcel Box,567639,Krupka,41742,Revoluční,144,50.6845914,13.8802936
658,GLS Parcel Box,574767,Lázně Bohdaneč,53341,Na Lužci,703,50.0693808,15.6824639
659,GLS Parcel Box,598925,Albrechtice,73543,Středová,408,49.7832564,18.5229283
660,GLS Parcel Box,555657,Toužim,36401,Malé náměstí,145,50.0603342,12.9868919
661,GLS Parcel Box,500496,Olomouc,77900,Na Tabulovém vrchu,4,49.5837275,17.2259897
662,GLS Parcel Box,588512,Chropyně,76811,Ječmínkova,238,49.3587014,17.3639461
663,GLS Parcel Box,500496,Olomouc,77900,Na Šibeníku,914/1,49.5972006,17.2362197
664,GLS Parcel Box,554821,Ostrava,72100,Polanecká,56,49.8142458,18.1973411
665,GLS Parcel Box,559300,Nýřany,33023,Revoluční,924,49.7121,13.1964222
666,GLS Parcel Box,582786,Brno,61700,Svatopetrská,35/7,49.1805333,16.6217069
667,GLS Parcel Box,554791,Plzeň,31200,Moravská,854/2,49.7522294,13.4141147
668,GLS Parcel Box,541630,Vsetín,75501,Jasenická,194,49.3329653,18.0051803
669,GLS Parcel Box,557676,Dobřany,33441,Loudů,850,49.6566872,13.2939347
670,GLS Parcel Box,563889,Liberec,46001,Letná,610,50.7831503,15.0429167
671,GLS Parcel Box,566985,Žatec,43801,Podměstí,2126,50.3307353,13.53859
672,GLS Parcel Box,598917,Karviná,73301,Pivovarská,17/13,49.8543025,18.5403731
673,GLS Parcel Box,563510,Jablonec nad Nisou,46801,Dalešická,184,50.7006264,15.1775256
674,GLS Parcel Box,554791,Plzeň,32300,Krašovská,1838/9,49.7769347,13.3544317
675,GLS Parcel Box,535427,Bakov nad Jizerou,29401,Husova,162,50.4793672,14.9389636
676,GLS Parcel Box,554782,Praha,19300,Pavlišovská 2292/14,2292/14,50.1104219,14.6218397
677,GLS Parcel Box,559075,Kralovice,33141,Žatecká,866,49.9820219,13.4888339
678,GLS Parcel Box,586510,Ratíškovice,69602,Školní,321,48.9204256,17.1630325
679,GLS Parcel Box,582786,Brno,60300,Výstaviště,405/1,49.1886406,16.5855408
680,GLS Parcel Box,561860,Nový Bor,47301,Tř. T. G. Masaryka,260,50.7540403,14.5525411
681,GLS Parcel Box,583081,Hrušovany u Brna,66462,Sídliště,526,49.0394164,16.5861703
682,GLS Parcel Box,562882,Varnsdorf,40747,Československé mládeže,3554,50.91392,14.61275
683,GLS Parcel Box,541630,Vsetín,75501,Dolní Jasenka,215,49.3417508,17.9928625
684,GLS Parcel Box,592170,Hluk,68725,nám. Komenského,151,48.9869183,17.5269658
685,GLS Parcel Box,557153,Sušice,34201,Volšovská,1183,49.2255339,13.5118019
686,GLS Parcel Box,562611,Krásná Lípa,40746,Pražská,257/3,50.9126033,14.5080328
687,GLS Parcel Box,554791,Plzeň,32600,Jedlová,985/4,49.7353861,13.3897747
688,GLS Parcel Box,559491,Tlučná,33026,Na Čampuli,824,49.7198022,13.242575
689,GLS Parcel Box,545252,Zubří,75654,ThDr. Metoděje Mičoly,68,49.4696392,18.0924139
690,GLS Parcel Box,553549,Česká Kubice,34532,Horní Folmava,55,49.3472053,12.8510097
691,GLS Parcel Box,596230,Nové Město na Moravě,59231,Drobného,299,49.5671033,16.0774392
692,GLS Parcel Box,598810,Třinec,73961,Požárnická,1170,49.6606664,18.6814894
693,GLS Parcel Box,590789,Jemnice,67531,Palackého,771,49.018735,15.5750097
694,GLS Parcel Box,559008,Kaznějov,33151,Ke Škále,496,49.8929375,13.3838775
695,GLS Parcel Box,574121,Jaroměř,55101,Hradecká,159,50.3464889,15.9095581
696,GLS Parcel Box,567027,Most,43401,Jana Kubelíka,1753/1,50.5055617,13.6553878
697,GLS Parcel Box,533017,Unhošť,27351,Pražská,836,50.0855078,14.1324197
698,GLS Parcel Box,554782,Praha,15500,5. Máje,148/46,50.0649981,14.3228072
699,GLS Parcel Box,599352,Fulnek,74245,Sportovní,535,49.7111375,17.8989747
700,GLS Parcel Box,532819,Slaný,27401,Třebízského,625,50.2336036,14.0801506
701,GLS Parcel Box,569810,Hradec Králové,50009,Františka Halase,650/2,50.2000894,15.8458772
702,GLS Parcel Box,561134,Planá,34815,Wolkerova,435,49.8639844,12.7437028
703,GLS Parcel Box,563820,Tanvald,46841,Krkonošská,590,50.7375047,15.3078242
704,GLS Parcel Box,544281,Borovany,37312,Budějovická,585,48.9035947,14.6393072
705,GLS Parcel Box,567779,Osek,41705,Dolejšova,710,50.6238386,13.7011214
706,GLS Parcel Box,554791,Plzeň,31200,Národní,196/3,49.7637514,13.438315
707,GLS Parcel Box,544779,Lišov,37372,Jirsíkova,436/45,49.0190664,14.607545
708,GLS Parcel Box,586021,Hodonín,69501,Cihlářská čtvrť,3838/22,48.8598719,17.1164581
709,GLS Parcel Box,539961,Libina,78805,Libina,738,49.8793983,17.0818964
710,GLS Parcel Box,590266,Třebíč,67401,Modřínová,600/1,49.2187647,15.8919897
711,GLS Parcel Box,597783,Rýmařov,79501,Žižkova,21,49.9314025,17.2792444
712,GLS Parcel Box,540862,Rapotín,78814,Nám. Svobody,690,49.9980278,17.0194861
713,GLS Parcel Box,546127,Dačice,38001,Strojírenská,160/III,49.0828039,15.4526142
714,GLS Parcel Box,555134,Pardubice,53003,Kyjevská,1,50.0271589,15.7914597
715,GLS Parcel Box,535451,Benátky nad Jizerou,29471,Pražská,676,50.2838894,14.8266367
716,GLS Parcel Box,525588,Bludov,78961,Tř. A. Kašpara,914,49.9408436,16.9270492
717,GLS Parcel Box,575071,Chvaletice,53312,V Telčicích,410,50.0356969,15.4145881
718,GLS Parcel Box,505587,Uničov,78391,Šternberská,490,49.772635,17.1238306
719,GLS Parcel Box,502146,Hlubočky,78361,Luční,503,49.6434097,17.4077761
720,GLS Parcel Box,537501,Milovice,28924,Dukelská,306/2,50.2303231,14.8859331
721,GLS Parcel Box,548111,Kamenice nad Lipou,39470,Za Kulturním domem,640,49.2990322,15.0715636
722,GLS Parcel Box,532053,Kladno,27201,"roh ulic Floriánská x Stará, naproti Stará",238,50.1453383,14.10187
723,GLS Parcel Box,567507,Dubí,41701,Zahradní,331/34,50.6747397,13.7975558
724,GLS Parcel Box,563099,Jirkov,43111,náměstí Doktora Edvarda Beneše,1560/1560,50.4996761,13.4485622
725,GLS Parcel Box,562581,Jiříkov,40753,9. května,187/5,50.99553,14.5701433
726,GLS Parcel Box,542164,Nové Strašecí,27101,Topolová,1170,50.1570369,13.8951442
727,GLS Parcel Box,562858,Šluknov,40777,Svojsíkova,339,51.0026314,14.4525814
728,GLS Parcel Box,539236,Horoměřice,25262,Nebušická,709,50.130065,14.3338397
729,GLS Parcel Box,535419,Mladá Boleslav,29301,Laurinova,150,50.4186375,14.9100025
730,GLS Parcel Box,555134,Pardubice,53002,Náměstí Dukelských hrdinů,2551,50.0239894,15.7599558
731,GLS Parcel Box,549231,Žirovnice,39468,Sídliště,671,49.2533961,15.1958819
732,GLS Parcel Box,554782,Praha,19300,Běluňská,1840/6,50.1112247,14.6124683
733,GLS Parcel Box,535672,Dobrovice,29441,Husova,319,50.3659189,14.9615878
734,GLS Parcel Box,554804,Ústí nad Labem,40331,Na Výšině,503,50.6778333,14.0980997
735,GLS Parcel Box,577626,Turnov,51101,Bezručova,698,50.5896742,15.1486328
736,GLS Parcel Box,577626,Turnov,51101,Na Stebni,2255,50.5844197,15.1597344
737,GLS Parcel Box,584282,Židlochovice,66701,Náměstí Míru,153,49.0374586,16.6180383
738,GLS Parcel Box,571539,Chrast,53851,Náměstí,16,49.9013736,15.9346075
739,GLS Parcel Box,572411,Třemošnice,53843,Náměstí,353,49.8692464,15.5810114
740,GLS Parcel Box,585513,Napajedla,76361,Na Kapli,1434,49.1728311,17.5119814
741,GLS Parcel Box,571041,Třebechovice pod Orebem,50346,Pitrova,583,50.2013536,15.9917353
742,GLS Parcel Box,560758,Bor,34802,Borská,605,49.7130653,12.7737258
743,GLS Parcel Box,540501,Nový Malín,78803,Nový Malín,23,49.9469036,17.0128581
744,GLS Parcel Box,554821,Ostrava,70030,Horní,300/77,49.7753478,18.2495733
745,GLS Parcel Box,555134,Pardubice,53012,Jana Zajíce,714,50.0428008,15.8077317
746,GLS Parcel Box,533165,Kolín,28002,Rorejcova,906,50.0258722,15.2100883
747,GLS Parcel Box,562394,Česká Kamenice,40721,5. Května,529,50.8018306,14.4128481
748,GLS Parcel Box,552739,Horní Suchá,73535,Těrlická,1280,49.7996325,18.4782208
749,GLS Parcel Box,537501,Milovice,28924,Armádní,529,50.2295783,14.8693442
750,GLS Parcel Box,539210,Dolní Břežany,25241,Pražská,454,49.9702936,14.4627114
751,GLS Parcel Box,580015,Červená Voda,56161,Červená Voda,165,50.0414572,16.7420783
752,GLS Parcel Box,581259,Žamberk,56401,Nádražní,1135,50.0754628,16.45946
753,GLS Parcel Box,575500,Přelouč,53501,Jiráskova,1135,50.0359667,15.5505756
754,GLS Parcel Box,598917,Karviná,73301,Žižkova,2017/1B,49.8629278,18.5544036
755,GLS Parcel box,567264,Lom,43511,Nám. Republiky,787,50.5959914,13.65478
756,GLS Parcel Box,554928,Vendryně,73994,Vendryně,442,49.6640281,18.7046108
757,GLS Parcel Box,579297,Hostinné,54371,Sídliště,741,50.5406522,15.7306211
758,GLS Parcel Box,574899,Dašice,53303,Křičenského,451,50.0260269,15.9069044
759,GLS Parcel Box,539597,Psáry,25244,Pražská,187,49.9423536,14.5163478
760,GLS Parcel Box,565555,Roudnice nad Labem,41301,Třída T. G. Masaryka,1351,50.4252653,14.2489267
761,GLS Parcel Box,540773,Postřelmov,78969,Komenského,60,49.90692,16.911525
762,GLS Parcel Box,572659,Jičín,50601,B. Němcové,50,50.4377714,15.3488661
763,GLS Parcel Box,534382,Sázava,28506,Sklářská,333,49.8758544,14.9041947
764,GLS Parcel Box,542164,Nové Strašecí,27101,1. Máje,816,50.1486033,13.8997825
765,GLS Parcel Box,555631,Teplá,36461,Pivovarská,213,49.9773892,12.8638844
766,GLS Parcel Box,562777,Rumburk,40801,Karoliny Světlé,1234/1,50.9453703,14.5461572
767,GLS Parcel Box,555134,Pardubice,53002,Gorkého,1611,50.0254728,15.7614267
768,GLS Parcel Box,570109,Chlumec nad Cidlinou,50351,Zimova,593,50.1622619,15.4542722
769,GLS Parcel Box,576247,Deštné v Orlických horách,51791,Deštné v Orlických horách,412,50.3045236,16.34921
770,GLS Parcel Box,559580,Vejprnice,33027,Křimická,508,49.7326539,13.2789894
771,GLS Parcel Box,594156,Hrušovany nad Jevišovkou,67167,Nádražní,164,48.8272733,16.3997478
772,GLS Parcel Box,532053,Kladno,27201,Ukrajinská,2667,50.1295567,14.1294572
773,GLS Parcel Box,554111,Poběžovice,34522,Vranovská,117,49.5108439,12.8001239
774,GLS Parcel Box,562351,Benešov nad Ploučnicí,40722,Dvořákova,624,50.7406378,14.3107533
775,GLS Parcel Box,544841,Rožnov pod Radhoštěm,75661,Bayerova,51,49.4573228,18.1426911
776,GLS Parcel Box,563889,Liberec,46001,Horská,1306,50.7811675,15.0694447
777,GLS Parcel Box,554821,Ostrava,71800,Škrobálkova,235/56,49.8062431,18.3037928
778,GLS Parcel Box,506753,Háj ve Slezsku,74792,Antonína Vaška,74,49.8991314,18.0926142
779,GLS Parcel Box,554804,Ústí nad Labem,40331,Železná,368,50.6749864,14.1073758
780,GLS Parcel Box,575429,Opatovice nad Labem,53345,Hradecká,83,50.1539969,15.7920392
781,GLS Parcel Box,576883,Vamberk,51754,Struha,"700, 517 54 Vamberk",50.1165475,16.2927364
782,GLS Parcel Box,580481,Králíky,56169,Moravská,999,50.0818319,16.7604286
783,GLS Parcel Box,582824,Bílovice nad Svitavou,66401,Obřanská,489,49.2432964,16.6620789
784,GLS Parcel Box,558389,Stod,33301,Plzeňská,899,49.6422258,13.1671853
785,GLS Parcel Box,598879,Vratimov,73932,Strmá,900/7,49.7688783,18.312815
786,GLS Parcel Box,554782,Praha,18200,Klapkova,892/102,50.1318725,14.4538736
787,GLS Parcel Box,554821,Ostrava,70800,Miroslava Bajera,6040/1,49.8446236,18.168125
788,GLS Parcel Box,567027,Most,43401,S.K. Neumanna,1089,50.5114244,13.6208622
789,GLS Parcel Box,567027,Most,43401,Maxima Gorkého,1165,50.4989764,13.6439117
790,GLS Parcel Box,500496,Olomouc,77900,Chválkovická,223/5,49.6069708,17.28184
791,GLS Parcel Box,554782,Praha,10200,Hostivařská,92/6,50.0505886,14.5261642
792,GLS Parcel Box,599191,Nový Jičín,74101,Máchova,2240/28,49.5931994,18.0149561
793,GLS Parcel Box,554481,Cheb,35002,Komenského,665/32,50.0788061,12.3741172
794,GLS Parcel Box,554481,Cheb,35002,K Nemocnici,2514/17,50.0701317,12.3681547
795,GLS Parcel Box,554481,Cheb,35002,Dvořákova,2162/17a,50.0881217,12.3791319
796,GLS Parcel Box,586943,Brtnice,58832,parkoviště u ulice Sportovní,nan,49.3095958,15.6688058
797,GLS Parcel Box,554821,Ostrava,70300,Výstavní,123/1,49.8080628,18.274335
798,GLS Parcel Box,561835,Mimoň,47124,Letná,278,50.6644483,14.7262431
799,GLS Parcel Box,541231,Rožmitál pod Třemšínem,26242,Nádražní,831,49.6015897,13.8736667
800,GLS Parcel Box,564095,Hrádek nad Nisou,46334,Liberecká,400,50.8525036,14.8570586
801,GLS Parcel box,586625,Svatobořice-Mistřín,69604,Hlavní,205,48.9805069,17.0933508
802,GLS Parcel Box,514705,Lipník nad Bečvou,75131,Hranická,991,49.5284125,17.5970431
803,GLS Parcel Box,565164,Libochovice,41117,Havlíčkova,449,50.4068872,14.0484417
804,GLS Parcel Box,558940,Chotíkov,33017,Chotíkov,385,49.7777142,13.3480494
805,GLS Parcel Box,580376,Jablonné nad Orlicí,56164,Na Vyhlídce,574,50.0313836,16.6078378
806,GLS Parcel Box,598143,Frýdlant nad Ostravicí,73911,Hlavní,163,49.5824558,18.3586872
807,GLS Parcel Box,567442,Teplice,41510,Bohosudovská,29,50.6616542,13.8538911
808,GLS Parcel Box,554782,Praha,14700,Šífařská,568/18,50.0187011,14.4022586
809,GLS Parcel Box,583561,Ořechov,66444,Kerendov,61,49.1173861,16.5252653
810,GLS Parcel Box,533203,Králův Dvůr,26701,náměstí Míru 139 (u radnice),139,49.9447453,14.0394544
811,GLS Parcel Box,592005,Uherské Hradiště,68601,Sokolovská,418,49.0697683,17.4754347
812,GLS Parcel Box,554804,Ústí nad Labem,40007,Vojanova,606/35,50.6703406,14.0655239
813,GLS Parcel Box,554804,Ústí nad Labem,40011,Bratří Veverků,3006/1,50.6734597,14.0429247
814,GLS Parcel Box,554782,Praha,14800,zastávka Vídeňská - naproti K Zelené louce,1484/2a,50.0207344,14.4632294
815,GLS Parcel Box,554804,Ústí nad Labem,40001,Dukelských hrdinů,779,50.6872422,14.0008944
816,GLS Parcel Box,554804,Ústí nad Labem,40007,Obvodová,732/20,50.6696239,14.0918428
817,GLS Parcel Box,534498,Uhlířské Janovice,28504,Komenského,400,49.8819603,15.0611919
818,GLS Parcel Box,570508,Nový Bydžov,50401,Revoluční třída,767,50.2353289,15.4891653
819,GLS Parcel Box,553794,Klenčí pod Čerchovem,34534,Klenčí pod Čerchovem,376,49.4367172,12.8166731
820,GLS Parcel Box,563889,Liberec,46001,Chrastavská,278/19,50.7717586,15.0490064
821,GLS Parcel Box,586757,Vnorovy,69661,Hlavní,150,48.9310378,17.3505142
822,GLS Parcel Box,544256,České Budějovice,37001,Lipenská,2910/24,48.9785775,14.48369
823,GLS Parcel Box,544256,České Budějovice,37005,Rybniční,1752/2a,48.98916,14.4505719
824,GLS Parcel Box,554782,Praha,19000,Stará Spojovací,2263/9,50.102935,14.4855022
825,GLS Parcel Box,590266,Třebíč,67401,Smila Osovského,199/3,49.2156878,15.8842719
826,GLS Parcel Box,554821,Ostrava,70200,Masarykovo náměstí,3090/15,49.8367936,18.2925447
827,GLS Parcel Box,505927,Opava,74601,Těšínská,81,49.9282544,17.9364719
828,GLS Parcel Box,576361,Kostelec nad Orlicí,51741,Příkopy,1236,50.1236011,16.2119192
829,GLS Parcel Box,555088,Havířov,73601,Dělnická,1132/24,49.7849364,18.4386047
830,GLS Parcel Box,554782,Praha,16500,Brandejsovo náměstí,496/8,50.1336222,14.3762039
831,GLS Parcel Box,590592,Heraltice,67521,Heraltice,18,49.2298211,15.7321547
832,GLS Parcel Box,563404,Vejprty,43191,Tylova,1239/8,50.4921992,13.0307758
833,GLS Parcel Box,550744,Kunovice,68604,Panská,1320,49.0420789,17.4647533
834,GLS Parcel Box,569569,Světlá nad Sázavou,58291,Nádražní,1114,49.6703581,15.4072853
835,GLS Parcel Box,571164,Chrudim,53701,Olbrachtova,36,49.95348,15.78252
836,GLS Parcel Box,555134,Pardubice,53701,Chrudimská,2861,50.0143111,15.7715381
837,GLS Parcel Box,584291,Břeclav,69002,U Nemocnice,3066/1,48.7533156,16.8806033
838,GLS Parcel Box,595209,Žďár nad Sázavou,59101,myčka vedle adresy Brněnská,1144/28,49.5554831,15.9499158
839,GLS Parcel Box,552496,Chýnov,39155,Gabrielovo náměstí,452,49.4058719,14.8098444
840,GLS Parcel Box,585891,Valašské Klobouky,76601,Cyrilometodějská,772,49.1424972,18.0127172
841,GLS Parcel Box,554294,Staňkov,34561,Americká,235,49.5512344,13.0671517
842,GLS Parcel Box,592820,Vlčnov,68761,Vlčnov,216,49.0171953,17.5767794
843,GLS Parcel Box,597007,Velké Meziříčí,59401,Františky Stránecké,3821/2,49.36023,15.99309
844,GLS Parcel Box,586412,Mutěnice,69611,Hodonínská,484,48.9040861,17.0301806
845,GLS Parcel Box,533165,Kolín,28002,Pod Hroby,927,50.0243475,15.2140342
846,GLS Parcel Box,534587,Vrdy,28571,Chrudimská,189,49.9251072,15.4639172
847,GLS Parcel Box,569810,Hradec Králové,50002,V Lipkách,1609/5,50.2069225,15.8168347
848,GLS Parcel Box,562092,Stráž pod Ralskem,47127,Jižní,298,50.6996589,14.8053919
849,GLS Parcel Box,582786,Brno,60200,Plynárenská,90/3,49.1968856,16.6251661
850,GLS Parcel Box,590266,Třebíč,67401,M. Majerové,751/6,49.2219108,15.8841656
851,GLS Parcel Box,561479,Cvikov,47154,Sídliště,591,50.7803283,14.626105
852,GLS Parcel Box,554782,Praha,16000,Papírenská,1120,50.1086236,14.4033011
853,GLS Parcel Box,585068,Zlín,76302,Zahradní,973,49.2070203,17.5929722
854,GLS Parcel Box,554782,Praha,14100,Sliačská,1601/14,50.0464447,14.4688431
855,GLS Parcel Box,578444,Moravská Třebová,57101,Brněnská,1213/61,49.7525244,16.6576158
856,GLS Parcel Box,502545,Horka nad Moravou,78335,Náměstí Osvobození,79,49.6392089,17.2100442
857,GLS Parcel Box,540765,Mníšek pod Brdy,25210,5. Května,909,49.8712806,14.2619556
858,GLS Parcel Box,582786,Brno,63500,Nám. 28. Dubna,1,49.2284033,16.5308992
859,GLS Parcel Box,563871,Železný Brod,46822,Průmyslová,897,50.6404853,15.2483969
860,GLS Parcel Box,569321,Přibyslav,58222,Bechyňovo náměstí,20,49.5764183,15.7362181
861,GLS Parcel Box,598453,Mosty u Jablunkova,73998,Mosty u Jablunkova,1012,49.5246022,18.7533494
862,GLS Parcel Box,562971,Chomutov,43003,Rooseveltova,2649/23,50.4667781,13.4077883
863,GLS Parcel Box,582786,Brno-Černovice,61800,Blatouchová,1074/2b,49.1854889,16.6326506
864,GLS Parcel Box,567621,Košťany,41723,Za Obloukem,218,50.6685283,13.7476047
865,GLS Parcel Box,579858,Vrchlabí,54301,Krkonošská,6,50.6283375,15.6094953
866,GLS Parcel Box,579025,Trutnov,54101,Maxima Gorkého,422,50.5607428,15.9267933
867,GLS Parcel Box,579025,Trutnov,54101,Horská,813,50.5677864,15.9010347
868,GLS Parcel Box,579025,Trutnov,54102,Horská,668,50.5802042,15.8914317
869,GLS Parcel Box,551970,Volyně,38701,Čelakovského,531,49.1642844,13.8880914
870,GLS Parcel Box,545392,Český Krumlov,38101,Tovární,164,48.8265086,14.3335183
871,GLS Parcel Box,550787,Strakonice,38601,Dukelská,33,49.2580108,13.9121633
872,GLS Parcel Box,545821,Velešín,38232,Sídliště,531,48.8307425,14.4577497
873,GLS Parcel Box,567515,Duchcov,41901,Horská cesta,1243/6,50.6075044,13.7418706
874,GLS Parcel Box,563510,Jablonec nad Nisou,46601,Rýnovická,3273/61,50.7307875,15.1608572
875,GLS Parcel Box,554014,Návsí,73992,Návsí,790,49.5946653,18.7517819
876,GLS Parcel Box,536385,Jeseník,79001,Bezručova,1400/6b,50.23734,17.205725
877,GLS Parcel Box,554821,Ostrava,70200,Hornopolní,3358/48a,49.8374294,18.2747103
878,GLS Parcel Box,563889,Liberec,46006,Ježkova,1169/3,50.7511519,15.0622986
879,GLS Parcel Box,535419,Mladá Boleslav,29301,Krátká,1301,50.4251064,14.9102242
880,GLS Parcel Box,594458,Miroslav,67172,Nádražní,1178,48.9397394,16.3245606
881,GLS Parcel Box,599549,Klimkovice,74283,Lidická,4,49.7878544,18.1264058
882,GLS Parcel Box,570788,Bradlec,29306,U Borku,520,50.4428522,14.8995311
883,GLS Parcel Box,586021,Hodonín,69501,Seifertova,3985/1a,48.8551761,17.1094575
884,GLS Parcel box,565717,Terezín,41155,Kréta,322,50.5081514,14.1460553
885,GLS Parcel Box,598062,Bystřice,73995,Bystřice,1181,49.6370444,18.7194764
886,GLS Parcel Box,582646,Velké Opatovice,67963,Nádražní,440,49.6106981,16.6802722
887,GLS Parcel Box,530841,Týnec nad Sázavou,25742,Chrást nad Sázavou 239,239,49.8479825,14.5517519
888,GLS Parcel Box,506214,Bolatice,74723,Sokolovská,1027/1a,49.9528694,18.0792339
889,GLS Parcel Box,532371,Hřebeč,27345,Nám. Draha,41,50.1362278,14.1643644
890,GLS Parcel Box,505927,Opava,74601,Otická,55,49.9302211,17.8903503
891,GLS Parcel box,548464,Nový Rychnov,39404,Nový Rychnov,176,49.3838478,15.3645433
892,GLS Parcel Box,576808,Solnice,51701,Vašátkova,15,50.2031136,16.2384522
893,GLS Parcel Box,574538,Teplice nad Metují,54957,náměstí Aloise Jiráska,269,50.5914014,16.1706706
894,GLS Parcel Box,562297,Žandov,47107,Lužická,88,50.7148625,14.3952961
895,GLS Parcel Box,539708,Středokluky,25268,Školská,258,50.1320778,14.2344875
896,GLS Parcel box,554634,Luby,35137,Tovární,748,50.2558272,12.3999828
897,GLS Parcel box,560570,Nové Sedlo,35734,Masarykova,486,50.2070142,12.7382436
898,GLS Parcel Box,582239,Rájec-Jestřebí,67902,Sportovní,604,49.4072633,16.6361053
899,GLS Parcel Box,574911,Dolní Roveň,53371,Dolní Roveň,116,50.0255539,15.9742233
900,GLS Parcel Box,533416,Kostelec nad Černými lesy,28163,Komenského,527,49.9910997,14.8556175
901,GLS Parcel Box,553697,Trmice,40004,Za Humny - naproti Horská,211/2,50.6420797,14.0011792
902,GLS Parcel Box,586528,Rohatec,69601,Krátká,862/2,48.8871608,17.1929203
903,GLS Parcel Box,584983,Velké Bílovice,69102,Nám. Osvoboditelů,337,48.8502683,16.8914211
904,GLS Parcel Box,586846,Jihlava,58601,Plukovníka Švece,4012/1,49.4000728,15.5805089
905,GLS Parcel Box,599921,Studénka,74213,Budovatelská,651,49.70767,18.0497428
906,GLS Parcel Box,535419,Mladá Boleslav,29301,Jana Palacha,1440,50.4282853,14.9187081
907,GLS Parcel Box,534935,Kostelec nad Labem,27713,Na Sídlišti,254,50.2236558,14.5843147
908,GLS Parcel Box,555185,Hroznětín,36233,Krušnohorské náměstí,38,50.3089475,12.8712836
909,GLS Parcel Box,554821,Ostrava,70900,Karasova,1130/23,49.8293714,18.2500378
910,GLS Parcel Box,564371,Raspenava,46401,Fučíkova,102,50.9009217,15.1363544
911,GLS Parcel Box,532053,Kladno,27201,Pařížská - vedle novostavby řadových garáží před č.17,17,50.13593,14.13583
912,GLS Parcel Box,500496,Olomouc,77900,Sokolovská,80/4,49.6002133,17.2671211
913,GLS Parcel Box,598011,Baška,73901,Baška,297,49.6451083,18.3704797
914,GLS Parcel Box,582786,Brno,62500,Čeňka Růžičky,777/14,49.1667369,16.5752833
915,GLS Parcel Box,580350,Choceň,56501,Kollárova,934,49.9986758,16.2223481
916,GLS Parcel Box,532053,Kladno,27201,Vít. Nezvala,3419,50.1462606,14.0704586
917,GLS Parcel Box,578347,Litomyšl,57001,17. Listopadu,981,49.866265,16.3078447
918,GLS Parcel Box,561631,Jablonné v Podještědí,47125,Zdislavy z Lemberka,137,50.7662139,14.7612222
919,GLS Parcel Box,532053,Kladno,27204,Vítězná,2536,50.1399328,14.0808692
920,GLS Parcel Box,532860,Stochov,27303,"areál automyčky DIBO, Karlovarská",15,50.1387597,13.96628
921,GLS Parcel Box,554782,Praha,19000,u křižovatky naproti Prosecká,860/60,50.11639,14.49556
922,GLS Parcel Box,537641,Pečky,28911,V kaštánkách,1141,50.0919342,15.0302853
923,GLS Parcel Box,532860,Stochov,27303,Osvobození,540,50.1446189,13.9657403
924,GLS Parcel Box,554804,Ústí nad Labem,40001,Masarykova,592/93,50.6688461,14.0259842
925,GLS Parcel Box,554791,Plzeň,31200,Nákupní,1456/9,49.7457958,13.4425489
926,GLS Parcel Box,565709,Štětí,41108,Stračenská,614,50.4524719,14.3832178
927,GLS Parcel Box,554782,Praha,18200,vedle Benziny Ústecká,58,50.134315,14.4525103
928,GLS Parcel Box,559661,Zbůch,33022,Plzeňská,263,49.6766439,13.223425
929,GLS Parcel Box,559164,Líně,33021,sady Pionýrů,471,49.6940103,13.2562631
930,GLS Parcel Box,554782,Praha,18200,Naproti panelovému domu Kyselova,1186/1,50.1271572,14.4661942
931,GLS Parcel Box,560294,Březová,35601,Sklářská,125,50.1489278,12.6480778
932,GLS Parcel Box,554782,Praha,18200,u přechodu vedle Mlékárny Klapkova,1035/28,50.1248744,14.4567844
933,GLS Parcel Box,598038,Brušperk,73944,Brušperk,512,49.6996581,18.2209286
934,GLS Parcel Box,555134,Pardubice,53003,Staré náměstí,1,50.0125778,15.7959156
935,GLS Parcel Box,558362,Spálené Poříčí,33561,Mírová,319,49.6093394,13.6059528
936,GLS Parcel Box,586846,Jihlava,58601,Pelhřimovská,70,49.3938847,15.5513164
937,GLS Parcel Box,597996,Zlaté Hory,79376,Krnovská,222,50.2533553,17.3991928
938,GLS Parcel Box,537454,Lysá nad Labem,28922,Nerudova,428/3,50.1914808,14.8472436
939,GLS Parcel Box,591181,Moravské Budějovice,67541,Aventin - Okružní,1779,49.0443667,15.803005
940,GLS Parcel Box,536326,Mnichovo Hradiště,29501,Víta Nejedlého,1488,50.5149522,14.9734364
941,GLS Parcel Box,554782,Praha,14000,Zelený pruh,1091/111,50.0404556,14.4330219
942,GLS Parcel Box,583251,Kuřim,66434,Legionářská,1265/70,49.30459,16.5315225
943,GLS Parcel Box,574341,Police nad Metují,54954,Hvězdecká,340,50.5387628,16.2387306
944,GLS Parcel Box,579637,Rtyně v Podkrkonoší,54233,Úpická,7,50.5073311,16.0660844
945,GLS Parcel Box,554782,Praha,13000,Kunešova,2909,50.094135,14.4776525
946,GLS Parcel Box,555762,Žlutice,36452,Purkyňova,114,50.0903528,13.1633906
947,GLS Parcel Box,569810,Hradec Králové,50311,Dvorská,639/62,50.22021,15.7973406
948,GLS Parcel Box,572241,Skuteč,53973,Československé armády,972,49.8435242,15.9938486
949,GLS Parcel Box,554782,Praha,15531,Ke Splávku,194,49.9597436,14.3607611
950,GLS Parcel Box,510483,Štěpánkovice,74728,Lipová,18/5,49.9582094,18.0370633
951,GLS Parcel Box,538132,Čelákovice,25088,Průmyslová,2043,50.155945,14.7425919
952,GLS Parcel Box,599948,Štramberk,74266,Nádražní,976,49.5833589,18.131625
953,GLS Parcel Box,585211,Fryšták,76316,Nám. Míru,4,49.2853936,17.6842033
954,GLS Parcel Box,593711,Znojmo,66902,Vídeňská,3362/46,48.8472192,16.0565228
955,GLS Parcel Box,554804,Ústí nad Labem,40001,Bílinská,3490/6,50.6584922,14.0401903
956,GLS Parcel Box,585033,Vranovice,69125,Nová,"602, 691 25 Vranovice",48.9666778,16.6104736
957,GLS Parcel Box,554782,Praha,16300,Hofbauerova,626/2,50.0713669,14.3036106
958,GLS Parcel Box,554782,Praha,16300,Na Moklině,681/42,50.0690225,14.2984575
959,GLS Parcel Box,582786,Brno,62100,Vitáskova,1592/6,49.24617,16.5755
960,GLS Parcel Box,554782,Praha,16300,parkoviště Slánská - Žufanova,1097/6,50.0699417,14.3096881
961,GLS Parcel Box,569810,Hradec Králové,50002,Náměstí 5. Května,835/10,50.21356,15.82674
962,GLS Parcel Box,554782,Praha,16100,zastávka Bílá Hora - Karlovarská,25,50.0753869,14.3212708
963,GLS Parcel Box,554782,Praha,19800,K Hutím,152/3a,50.1082992,14.543915
964,GLS Parcel Box,554782,Praha,14000,Bohuslava ze Švamberka,1686/4,50.0581242,14.4339628
965,GLS Parcel Box,583782,Rosice,66501,Brněnská,"637, 665 01 Rosice",49.1830386,16.3983919
966,GLS Parcel box,554782,Praha,19015,Budovatelská,287/8,50.1237106,14.5667964
967,GLS Parcel Box,554782,Praha,15521,Hrozenkovská,282/1,50.0600425,14.2933811
968,GLS Parcel Box,550647,Vimperk,38501,K. Weise,668,49.0553478,13.7838636
969,GLS Parcel Box,585068,Zlín,76001,Ladislava Váchy,517,49.2172606,17.633535
970,GLS Parcel Box,582786,Brno,62700,Langrova,1227/1d,49.1793692,16.6795328
971,GLS Parcel Box,596230,Nové Město na Moravě,59231,Komenského náměstí,999,49.5630831,16.0756439
972,GLS Parcel Box,583782,Rosice,66501,Zastávecká,1267,49.1848161,16.3680914
973,GLS Parcel Box,582786,Brno,60200,Cejl,42/109,49.2013483,16.6259464
